_id,TRACKINGNUMBER,NAME,PHYSICALADDRESS,PHYSICALCITY,FACTYPE,LATITUDE,LONGITUDE
1,A014274    ,Porto Fino Express (Surrey),6350 120 St,Surrey,Restaurant,49.11815643,-122.89006042
2,SPLH-AAAUPT,Pepperoni Cafe,6388 120 St,Surrey,Restaurant,49.1187973,-122.89012909
3,MARO-B39VCZ,Lee Garden Seafood Restaurant,8080 120 St,Surrey,Restaurant,49.15013504,-122.89001465
4,SDFO-8MMLPS,Select Pizza,8434 120 St,Surrey,Restaurant,49.15658951,-122.89008331
5,A016803    ,McDonald's #8399,8586 120 St,Surrey,Restaurant,49.15930557,-122.89008331
6,SHEN-9YPTKH,Jaipur Indian Cuisine,8840 120 St,Surrey,Restaurant,49.16398621,-122.89006805
7,NDAA-AN9NET,Wendy's #4,9412 120 St,Surrey,Restaurant,49.1740036,-122.88991547
8,GEDS-6XLUHV,Mehfil India Restaurant & Sweets,9570 120 St,Surrey,Restaurant,49.17657852,-122.88986206
9,A018893    ,Scottsdale Lanes Snack/Lounge,12033 84 Ave,Surrey,Restaurant,49.15611649,-122.88899231
10,GEDS-6E8Q78,Seahorse Grill,12147 Sullivan St,Surrey,Restaurant,49.05601501,-122.88527679
11,NDAA-97WT8K,The Cabin,12302 Beecher St,Surrey,Restaurant,49.05286026,-122.88098145
12,NDAA-9PPQAD,Khalsa Secondary School (High School),10677 124 St,Surrey,Restaurant,49.19613647,-122.87891388
13,SDFO-8FQQ94,Satnam Education Society of BC,10677 124 St,Surrey,Restaurant,49.19613647,-122.87891388
14,ACAK-985T7J,Tim Hortons #5038,12467 88 Ave,Surrey,Restaurant,49.16355896,-122.87787628
15,GEDS-66RRQQ,Dad's Bistro,12411 King George Blvd,Surrey,Restaurant,49.20660019,-122.87798309
16,SPLH-AUXP4D,Cheema Bros Meat Shop,12477 88 Ave,Surrey,Restaurant,49.16395187,-122.87705231
17,SHEN-9PHLGV,Kwantlen Pizza Sweets & Snacks,12578 72 Ave,Surrey,Restaurant,49.13327408,-122.87416077
18,A018906    ,Hillside Lodge Food Service,10592 125B St,Surrey,Restaurant,49.19553375,-122.87371063
19,SDFO-894RT6,Sodexo Food Services - Surrey Campus,12666 72 Ave,Surrey,Restaurant,49.13362122,-122.87132263
20,GEDS-6FCQBD,Mayuri Indian Cuisine,12677 80 Ave,Surrey,Restaurant,49.14843369,-122.87145996
21,ACAK-8VHNXU,Cafe Madras,8381 128 St,Surrey,Restaurant,49.15512466,-122.86935425
22,GEDS-5ZHT3D,Prabu Sweets,7035 128 St,Surrey,Restaurant,49.13034821,-122.8681488
23,GEDS-5Y7VCY,Choice Billiards & Cafe,7728 128 St,Surrey,Restaurant,49.14276505,-122.86766815
24,MARO-B2KQU3,Bengal Grill Restaurant,7750 128 St,Surrey,Restaurant,49.14358139,-122.86765289
25,HCAR-BG7QZ3,777 Pizza & Donair,7750 128 St,Surrey,Restaurant,49.14358139,-122.86765289
26,HCAR-B83R98,Metro 1 Sweets & Catering,8383 128 St,Surrey,Restaurant,49.15512466,-122.86833191
27,A019000    ,Delrios,1669 128 St,Surrey,Restaurant,49.03263092,-122.86779785
28,GEDS-6YDQLJ,Fieldstone Artisan Breads,12823 Crescent Rd,Surrey,Restaurant,49.0532074,-122.86698151
29,PGOO-65PTDL,Bhaia Sweet Shop & Restaurant,6828 128 St,Surrey,Restaurant,49.12696075,-122.86753082
30,RORS-6732A2,Lovely Sweets & Restaurant,7168 128 St,Surrey,Restaurant,49.13296509,-122.86756897
31,NDAA-A9KPFF,Punjab Banquet Hall,8166 128 St,Surrey,Restaurant,49.15130615,-122.86739349
32,SHEN-AP8MCX,Surrey - Punjab Dhaba,12830 96 Ave,Surrey,Restaurant,49.17696762,-122.86709595
33,HCAR-BLAN8U,Lighthouse Indian Kitchen,12815 96 Ave,Surrey,Restaurant,49.1773262,-122.86748505
34,GEDS-6QPNYJ,Ocean Park Pizza & Village Pub,12822 16 Ave,Surrey,Restaurant,49.03112793,-122.86680603
35,GEDS-6NKUWV,Gateway Pizza (Newton),12877 76 Ave,Surrey,Restaurant,49.14118576,-122.86594391
36,HCAR-B6HRXN,Indian Flavour Restaurant,12889 84 Ave,Surrey,Restaurant,49.15556717,-122.86573029
37,HCAR-B7CS7B,Mr Pickwick's Fish & Chips & Seafood Restaurant,12852 96 Ave,Surrey,Restaurant,49.17695236,-122.86568451
38,GEDS-7F9PV7,Morrison Cafe,12855 16 Ave,Surrey,Restaurant,49.03144455,-122.86587524
39,SHEN-A47R49,Payal Chaat House & Restaurant,12877 80 Ave,Surrey,Restaurant,49.14842987,-122.86514282
40,A019749    ,Delta Pizza,12921 84 Ave,Surrey,Restaurant,49.1555748,-122.86452484
41,HCAR-BA2VF7,Canuel Caterers-Life Labs (Surrey),7455 130 St,Surrey,Restaurant,49.13853073,-122.86201477
42,GEDS-66ZW24,Calypso Foods,8322 130 St,Surrey,Restaurant,49.15374756,-122.86203766
43,HCAR-AUHPDL,Tim Hortons #7386,12941 115 Ave,Surrey,Restaurant,49.21147537,-122.86243439
44,JDSO-ACJV37,Asian Flavour Deli,13048 Old Yale Rd,Surrey,Restaurant,49.1888237,-122.86071777
45,NDAA-8YPQCC,Anand Pizza and Sweet Shop,13245 72 Ave,Surrey,Restaurant,49.13385391,-122.85542297
46,SWOD-APUNLH,Big Star Sandwich Co (Surrey),13402 104 Ave,Surrey,Restaurant,49.19147491,-122.85085297
47,HCAR-B7CRV4,Buona Pizza,13402 104 Ave,Surrey,Restaurant,49.19147491,-122.85085297
48,HCAR-B6K24K,Subway #6966,13479 108 Ave,Surrey,Restaurant,49.19909286,-122.84929657
49,A019554    ,Cherington Place Food Service,13453 111A Ave,Surrey,Restaurant,49.2054863,-122.84929657
50,HCAR-AZXSZK,Prado Cafe,13483 103rd Ave,Surrey,Restaurant,49.19029236,-122.84810638
51,A019922    ,New Town Bakery & Restaurant,10302 City Pky,Surrey,Restaurant,49.18995667,-122.84738922
52,A018996    ,Pho Tam Vietnamese Restaurant,10302 City Pky,Surrey,Restaurant,49.18995667,-122.84738922
53,GEDS-7FBP3Q,Pho Hoa Hong Vietnamese Restaurant,10302 City Pky,Surrey,Restaurant,49.18995667,-122.84738922
54,SHEN-APFTAF,The Gourmet Lunch Ladies,10727 135A St,Surrey,Restaurant,49.19752884,-122.84725952
55,A018872    ,Ukrainian Orthodox Centre,13512 108 Ave,Surrey,Restaurant,49.19869614,-122.84755707
56,A019531    ,Tim Hortons #87,9595 King George Blvd,Surrey,Restaurant,49.1766243,-122.84621429
57,GEDS-7VCPN5,Galina's Cafe,13531 102 Ave,Surrey,Restaurant,49.18801117,-122.84707642
58,HPAR-AE2S2K,7-Eleven #37876H,7195 King George Blvd,Surrey,Restaurant,49.13306427,-122.84596252
59,SWOD-APPNNE,Kalmar Restaurant,8076 King George Blvd,Surrey,Restaurant,49.14970779,-122.84538269
60,A019021    ,China Village Wonton House,9644 King George Blvd,Surrey,Restaurant,49.17776108,-122.84529877
61,GEDS-84RSPW,Charley's Philly Steaks,10153 King George Blvd,Surrey,Restaurant,49.18592072,-122.84584808
62,NDAA-8YAT4Z,All About Pho,10190 King George Blvd,Surrey,Restaurant,49.18759537,-122.84515381
63,SHEN-A63NQL,Chatime,10255 King George Blvd,Surrey,Restaurant,49.18915176,-122.8457489
64,SWOD-A58Q7W,La Conquistadora de Pablo,10511 King George Blvd,Surrey,Restaurant,49.19366455,-122.84560394
65,HCAR-AWER52,Golden Chongqing House,10537 King George Blvd,Surrey,Restaurant,49.19396591,-122.84560394
66,SDFO-87RMVS,Nightshift Street Ministries (kitchen),10635 King George Blvd,Surrey,Restaurant,49.19579315,-122.8454361
67,HCAR-BD2UPV,Goto Moto & Huong Que Restaurant,10673 King George Blvd,Surrey,Restaurant,49.19673538,-122.84571075
68,NDAA-ATHRDW,Sumerian Grill,10671A King George Blvd,Surrey,Restaurant,49.19633102,-122.84542847
69,NDAA-APCPMF,Shawarma Palace,7218 King George Blvd,Surrey,Restaurant,49.13433075,-122.84521484
70,HCAR-BLGMJ4,Bobbie's Indian Fusion,7320 King George Blvd,Surrey,Restaurant,49.13512802,-122.84513855
71,HCAR-BJLPJ5,Panago #23,7320 King George Blvd,Surrey,Restaurant,49.13512802,-122.84513855
72,HCAR-BG4REY,Swiss Chalet Rotisserie & Grill #1257,7488 King George Blvd,Surrey,Restaurant,49.13853836,-122.84525299
73,GEDS-7UUR33,Lighthouse Fresh and Tasty,8050 King George Blvd,Surrey,Restaurant,49.14889145,-122.84525299
74,A019360    ,Starbucks Coffee #4255,10362 King George Blvd,Surrey,Restaurant,49.19095993,-122.84505463
75,GEDS-6WMPUQ,The Phoenix Centre Food Service,13686 94A Ave,Surrey,Restaurant,49.17453384,-122.8433075
76,HCAR-BTHQWE,Tomato's The Indian Flavor,7238 137th St,Surrey,Restaurant,49.1345334,-122.84261524
77,RORS-67JTWY,Surrey Memorial Hospital #63229 (Java Express),13750 96 Ave,Surrey,Restaurant,49.17682266,-122.84243774
78,SHEN-B4GSRS,City Centre Youth Hub (CCYH),10453 Whalley Blvd,Surrey,Restaurant,49.19257736,-122.84234619
79,GEDS-72NPVF,Creekside Withdrawal Management Centre,13740 94A Ave,Surrey,Restaurant,49.17451096,-122.84204865
80,A020331    ,Come Share Centre (68th Ave),13855 68 Ave,Surrey,Restaurant,49.12674713,-122.83893585
81,HCAR-B7YP88,Harbin Food,1647 140 St,Surrey,Restaurant,49.03210831,-122.83457947
82,HCAR-BEKLEK,Vegan Supply,14016 32 Ave,Surrey,Restaurant,49.06010437,-122.83346558
83,SDFO-8L4T27,Corporate Classic Caterers,14033 92 Ave,Surrey,Restaurant,49.17026901,-122.8323822
84,NDAA-92QN5J,Tim Horton's (RCMP),14200 Green Timbers Way,Surrey,Restaurant,49.17966843,-122.82991791
85,SWOD-AHJR4U,Blenz Coffee (Sullivan Heights),14330 64 Ave,Surrey,Restaurant,49.1185112,-122.8252182
86,HPAR-AFGRCA,7-Eleven (Canada Store #37865H),14445 64 Ave,Surrey,Restaurant,49.11930466,-122.82268524
87,GEDS-6TCTLH,Bento Nouveau (RCSS #1556),14650 104 Ave,Surrey,Restaurant,49.19123459,-122.81602478
88,GEDS-7WDP3L,Dairy Queen #26978,14741 108 Ave,Surrey,Restaurant,49.19889069,-122.81388092
89,A016809    ,Semiahmoo Secondary School,1785 148 St,Surrey,Restaurant,49.03511429,-122.81297302
90,A018895    ,Green Timbers Pub,9167 148 St,Surrey,Restaurant,49.16961288,-122.81249237
91,GEDS-6UHQTM,Pho Tau Bay Restaurant (Surrey),10782 148 St,Surrey,Restaurant,49.19805145,-122.81226349
92,RORS-63QTKM,Donair Affair (Surrey),10786 148 St,Surrey,Restaurant,49.19809723,-122.81225586
93,KSMH-AWKPSL,Tofun Fusion Hot Pot,3189 King George Blvd,Surrey,Restaurant,49.05963898,-122.81161499
94,SWOD-AHQPLH,Ming Yan Seafood Restaurant,3238 King George Blvd,Surrey,Restaurant,49.0609436,-122.81190491
95,GEDS-6GTQ2V,Starbucks Coffee #4596,3278 King George Blvd,Surrey,Restaurant,49.06115723,-122.81214905
96,SHEN-AASVAD,Elvis Pizza,14916 104 Ave,Surrey,Restaurant,49.19133759,-122.80825043
97,GEDS-7TBT7Q,Arirang Korean Restaurant,14916 104 Ave,Surrey,Restaurant,49.19133759,-122.80825043
98,SHEN-B5KPPF,Chatime,2950 King George Blvd,Surrey,Restaurant,49.05568314,-122.80555725
99,NDAA-9CXRN3,New York Fries,10355 152 St,Surrey,Restaurant,49.19192505,-122.80426788
100,NDAA-9EFTEB,Vina,10355 152 St,Surrey,Restaurant,49.19192505,-122.80426788
101,NDAA-9BHTGZ,Kung Pao Wok,10355 152 St,Surrey,Restaurant,49.19192505,-122.80426788
102,ACAK-9BEV2L,Tim Hortons #4457,10355 152 St,Surrey,Restaurant,49.19192505,-122.80426788
103,NDAA-A9KPX4,Easy Grill,10355 152 St,Surrey,Restaurant,49.19192505,-122.80426788
104,A018399    ,Tim Hortons #2173,3077 152 St,Surrey,Restaurant,49.05767822,-122.80210876
105,NDAA-9DSUU7,Panda Szechuan,3099 152 St,Surrey,Restaurant,49.05809021,-122.80213928
106,SHEN-ALTU9K,Boom Bee,15155 101 Ave,Surrey,Restaurant,49.18629837,-122.80223083
107,GEDS-7ENSTB,Orange Julius (White Rock),1711 152 St,Surrey,Restaurant,49.03311539,-122.80166626
108,SHEN-AZETAN,Ding Sushi,6351 152 St,Surrey,Restaurant,49.11798096,-122.80127716
109,SWOD-AFGPCU,Pho 99 Vietnamese Noodle House (Surrey),8934 152 St,Surrey,Restaurant,49.16515732,-122.80078125
110,GEDS-7FAR6Z,Omega Pizza & Wings (152nd St),9965 152 St,Surrey,Restaurant,49.18379211,-122.80126953
111,GEDS-6U4Q4B,Pizza Hut #31124,10160 152 St,Surrey,Restaurant,49.18699646,-122.80051422
112,HCAR-BD2LUG,Yi Fang Taiwan Fruit Tea Surrey,10224 152 St,Surrey,Restaurant,49.18792343,-122.80054474
113,HCAR-BRYMQR,Papa John's Pizza #009770 (Surrey),10320 152nd St,Surrey,Restaurant,49.19010913,-122.80059715
114,HCAR-BJTNUK,Popeyes Louisiana Kitchen (152nd St),1750 152 St,Surrey,Restaurant,49.03414536,-122.80097198
115,HCAR-AZYMYH,Rokku Asian Cuisine,1990 152 St,Surrey,Restaurant,49.03807449,-122.80052185
116,NDAA-APCP2Z,Showshaa,3020 152 St,Surrey,Restaurant,49.05722046,-122.80084991
117,JDSO-AD4RB8,Garcha Bros Meat Store,15299 68 Ave,Surrey,Restaurant,49.12656403,-122.79923248
118,GEDS-7XFNQZ,Non Stop Pizza & Surrey Delta Tiffin Delivery Service,15272 Fraser Hwy,Surrey,Restaurant,49.16507339,-122.79930878
119,GEDS-78NVVM,Ba Le Deli & Sandwiches,15277 100 Ave,Surrey,Restaurant,49.18444061,-122.79878998
120,GEDS-7R4TU5,Hi Japanese Sushi,3388 Rosemary Heights Cres,Surrey,Restaurant,49.06333542,-122.798172
121,NDAA-94XQKE,Domino's Pizza #10037,15335 No 10 Hwy,Surrey,Restaurant,49.1046896,-122.79808571
122,A020358    ,Hannam Supermarket (Deli),15357 104 Ave,Surrey,Restaurant,49.1917038,-122.79665375
123,ACAK-8UDNUP,Newton Pizza (South Surrey),2570 King George Blvd,Surrey,Restaurant,49.04892349,-122.79711151
124,SHEN-AMWPLX,Maple Sushi Japanese Restaurant,2385 King George Blvd,Surrey,Restaurant,49.04487991,-122.79424286
125,HCAR-BCSP3M,KW Gardens Chinese Restaurant,2338 King George Blvd,Surrey,Restaurant,49.04476547,-122.79212189
126,A016980    ,Fleetwood Park Secondary School,7940 156 St,Surrey,Restaurant,49.14718628,-122.7898407
127,HCAR-BCGU3R,AFC Sushi - Thrifty Foods 24,15745 Croydon Dr,Surrey,Restaurant,49.04809189,-122.78588104
128,A020375    ,Earl Marriott Secondary School Food Service,15751 16 Ave,Surrey,Restaurant,49.03126144,-122.78543854
129,SPLH-9P8T6J,Kababji Grill,15775 Croydon Dr,Surrey,Restaurant,49.04768753,-122.78492737
130,SDFO-8HCV64,White Spot (Morgan Crossing),15877 Croydon Dr,Surrey,Restaurant,49.04615402,-122.78245544
131,SHEN-AMWR8K,Holy Taco,15951 Fraser Hwy,Surrey,Restaurant,49.15815735,-122.78025055
132,SDFO-8G4L6D,Diamond Sweets and Restaurant,15933 Fraser Hwy,Surrey,Restaurant,49.15909576,-122.78079224
133,SHEN-9ZKSGP,Great Pizza,15988 Fraser Hwy,Surrey,Restaurant,49.15724945,-122.77954102
134,HCAR-AWTMSA,Sunny Dragon Restaurant,15988 Fraser Hwy,Surrey,Restaurant,49.15724945,-122.77954102
135,HCAR-BEFR43,Finest Cup,8645 160 St,Surrey,Restaurant,49.15956116,-122.77919006
136,A020070    ,Mac's Convenience Store #11095,1751 King George Blvd,Surrey,Restaurant,49.03381348,-122.77953339
137,HCAR-BGLL69,Steve's Poke Bar (Grandview Corners),2245 160 St,Surrey,Restaurant,49.04289246,-122.77955627
138,HCAR-BD9P6E,Pink Lotus Pho,16016 Fraser Hwy,Surrey,Restaurant,49.15693283,-122.77828217
139,HCAR-B6VVCN,Liberty Kitchen Grandview,16010 24 Ave,Surrey,Restaurant,49.04523087,-122.77856445
140,SHEN-B74PVN,Rosemary Rocksalt,16030 24 Ave,Surrey,Restaurant,49.04521942,-122.77797699
141,SHEN-B4GLZ6,Sage Dining Services,2656 160 St,Surrey,Restaurant,49.0500679,-122.7786026
142,GEDS-6DLT74,Fleetwood Villa Food Service,16028 83rd Ave,Surrey,Restaurant,49.15344238,-122.7780304
143,HCAR-AVPVC2,Woo Korean BBQ,16070 24 Ave,Surrey,Restaurant,49.04520035,-122.77735138
144,HCAR-AUQP2U,Fatburger at Grandview Corner,16070 24 Ave,Surrey,Restaurant,49.04520035,-122.77735138
145,NDAA-8WZLHY,Dragon's Chop Suey House,16055 Fraser Hwy,Surrey,Restaurant,49.15694046,-122.77709961
146,SWOD-AEQPQX,Real Canadian Superstore #1551 - Deli,2332 160 St,Surrey,Restaurant,49.04383087,-122.77640533
147,HCAR-B7EQE5,Chutney's Indian Grill,16120 24 Ave,Surrey,Restaurant,49.04472351,-122.77613831
148,HCAR-AUNR89,Panago #022,16120 24 Ave,Surrey,Restaurant,49.04472351,-122.77613831
149,GEDS-7X3VKR,Calvary Christian Church,16293 104 Ave,Surrey,Restaurant,49.19200516,-122.77082062
150,A018238    ,Northview Golf & Country Club (Canal Kiosk),6857 168 St,Surrey,Restaurant,49.12596512,-122.75822449
151,A019867    ,Eurest Dining Services #63384,16705 Fraser Hwy,Surrey,Restaurant,49.14956665,-122.75801086
152,GEDS-7ELNSQ,Czorny Alzheimer Centre - Main Kitchen,16850 66 Ave,Surrey,Restaurant,49.12240982,-122.75508881
153,ACAK-8VGVCP,Starbucks Coffee #17256,17455 56 Ave,Surrey,Restaurant,49.10437012,-122.73960114
154,SDFO-8KCLSD,Shannon Donair,17581 57 Ave,Surrey,Restaurant,49.10609818,-122.73535919
155,MARO-B23LQB,De Dutch #22 (Cloverdale),5630 176 St,Surrey,Restaurant,49.10466003,-122.73475647
156,GEDS-6UMNVV,Vault Restaurant,5764 176 St,Surrey,Restaurant,49.10710907,-122.73477936
157,GEDS-7BRPSU,The Derby Bar and Grill,17637 1 Ave,Surrey,Restaurant,49.00418472,-122.73369598
158,GEDS-6WLREY,Tim Hortons #3016,17695 64 Ave,Surrey,Restaurant,49.11896896,-122.73286438
159,HCAR-AZXQVR,Save On Foods #2215 - Wine,17745 64 Ave,Surrey,Restaurant,49.11971664,-122.73192596
160,GEDS-744NQ8,Dairy Queen #27268,17720 56th Ave,Surrey,Restaurant,49.10395546,-122.73182947
161,SHEN-9PELJD,Backstretch Restaurant,17740 62 Ave,Surrey,Restaurant,49.11555099,-122.73085022
162,SYOG-5M55QU,Zion Park Manor Food Service,5939 180 St,Surrey,Restaurant,49.11004257,-122.72399902
163,A016876    ,Lord Tweedsmuir Secondary School Cafeteria,6151 180 St,Surrey,Restaurant,49.11445618,-122.72403717
164,HCAR-BDRV5B,Aka Sushi,18408 64 Ave,Surrey,Restaurant,49.11859131,-122.71199036
165,SHEN-APNR78,Pho Hillton Vietnamese Restaurant,18640 Fraser Hwy,Surrey,Restaurant,49.12546158,-122.70609283
166,JDSO-ACRPBU,Taco Del Mar #1071,18775 Fraser Hwy,Surrey,Restaurant,49.12479401,-122.70209503
167,SHEN-A34Q6W,Fast Donair & Falafel,6820 188 St,Surrey,Restaurant,49.12660599,-122.70143127
168,HHIN-B65QE3,Maritime Seafoods Inc.,19162 22 Ave,Surrey,Restaurant,49.04185104,-122.69278717
169,SPLH-ASNP2T,7-Eleven #38206,19161 Fraser Hwy,Surrey,Restaurant,49.11961365,-122.69181824
170,SWOD-AHJP6S,Non Stop Pizza & Curry,19188 72 Ave,Surrey,Restaurant,49.13346481,-122.6915741
171,SWOD-AQNTUW,Ramada Hotel - Breakfast Bar,19225 No 10 Hwy,Surrey,Restaurant,49.10466385,-122.69026947
172,SHEN-BCSVDK,Haru Japanese Restaurant,19390 68 Ave,Surrey,Restaurant,49.12623978,-122.68582153
173,A019739    ,Baskin-Robbins Ice Cream #5321,19585 Fraser Hwy,Surrey,Restaurant,49.11428452,-122.68011475
174,NDAA-9ENPNZ,Sushi Topia,6350 120 St,Surrey,Restaurant,49.11815643,-122.89006042
175,A018517    ,My Greek Taverna,6450 120 St,Surrey,Restaurant,49.12012482,-122.89008331
176,GEDS-7HVV7W,Apna Chaat House,7500 120 St,Surrey,Restaurant,49.13913727,-122.89006805
177,HCAR-BGUPAC,Showshaa,7500 120 St,Surrey,Restaurant,49.13913727,-122.89006805
178,SWOD-AL5UUH,Sahota's Live Grill,7548 120 St,Surrey,Restaurant,49.13980865,-122.89000702
179,SODN-65HUKF,Panago #10,8556 120 St,Surrey,Restaurant,49.15831757,-122.89006805
180,SHEN-ATTV6D,Kerala Kitchen,9386 120 St,Surrey,Restaurant,49.17370605,-122.88991547
181,HCAR-BENQ5Q,Pizza Factory,12030 80 Ave,Surrey,Restaurant,49.14840317,-122.88916016
182,SHEN-9YTTFZ,Booster Juice #278,12080 Nordel Way,Surrey,Restaurant,49.16109848,-122.88860321
183,JDSO-ADJN3Q,Funplex,12070 88 Ave,Surrey,Restaurant,49.16306686,-122.88829803
184,SDFO-8HEPAH,KFC #1838,12121 72 Ave,Surrey,Restaurant,49.1342659,-122.88751984
185,NDAA-9NTQ34,Nando's Flame-Grilled Chicken (72nd Ave),12101 72 Ave,Surrey,Restaurant,49.1350174,-122.88764191
186,GEDS-6WVQM8,PICS - Assisted Living Food Service,12075 75A Ave,Surrey,Restaurant,49.14031601,-122.88793945
187,SWOD-9XJUAY,Donegal's Pub,12054 96 Ave,Surrey,Restaurant,49.17699432,-122.8875885
188,GEDS-65QN9E,Cineplex Odeon,12161 72 Ave,Surrey,Restaurant,49.13501358,-122.8864975
189,SDFO-8MELM2,Breakthrough Lodge,2695 McBride Ave,Surrey,Restaurant,49.05179214,-122.88394928
190,A016609    ,Red Baron Restaurant,12180 Beecher St,Surrey,Restaurant,49.05223083,-122.88426971
191,PGOO-665TGZ,Lakwon Rice Bakery,12520 Old Yale Rd,Surrey,Restaurant,49.197052,-122.8753891
192,NDAA-A3VQ76,Rose Sweets & Tandoori Hut,12565 88 Ave,Surrey,Restaurant,49.16401672,-122.87477875
193,GEDS-5ZZQLL,Great Pizza 2 For 1,12578 72 Ave,Surrey,Restaurant,49.13327408,-122.87416077
194,MARO-B3GPES,Ekam's Sundae Delight,7750 128 St,Surrey,Restaurant,49.14358139,-122.86765289
195,HCAR-B52TJM,Crispy Falafel,9627 128 St,Surrey,Restaurant,49.17775726,-122.86821747
196,SDFO-8F2KW3,Sakuya Sushi,1593 128 St,Surrey,Restaurant,49.0310173,-122.86779022
197,ACAK-8XKMAF,7-Eleven #35770,6828 128 St,Surrey,Restaurant,49.12696075,-122.86753082
198,SHEN-AKHT58,Mughal Palace Restaurant,12827 76 Ave,Surrey,Restaurant,49.14117432,-122.86715698
199,SHEN-AP8NJL,Pho 99 Express,12837 76 Ave,Surrey,Restaurant,49.14118576,-122.8666687
200,HCAR-BLXMYK,Tandoori Town Indian Kitchen,8050 128th St,Surrey,Restaurant,49.14875797,-122.86677848
201,NDAA-ALQN84,Crawford Manor,10010 128 St,Surrey,Restaurant,49.18468094,-122.86738586
202,SWOD-AF3QGR,Pacific Pizza,12817 Old Yale Rd,Surrey,Restaurant,49.19783783,-122.86701965
203,A018261    ,Dhoom Restaurant & Bar,7938 128 St,Surrey,Restaurant,49.14687347,-122.86576843
204,SWOD-9Y2MB7,Lahori Sweets & Restaurant,12877 80 Ave,Surrey,Restaurant,49.14842987,-122.86514282
205,A013876    ,Gurdwara Sahib Dasmesh Darbar,12885 85 Ave,Surrey,Restaurant,49.1578064,-122.86528015
206,ACAK-8XKQ6L,Sikh Academy,12895 85 Ave,Surrey,Restaurant,49.15761185,-122.86500549
207,KSMH-AQWTG2,Pizza 85,8553 132 St,Surrey,Restaurant,49.15823746,-122.85771179
208,SPLH-9P8V42,GB Foods & Sherlocks Imports,13369 72 Ave,Surrey,Restaurant,49.13383484,-122.85309601
209,A019219    ,Whalley Ball Park Green Concession,13350 105A Ave,Surrey,Restaurant,49.19308472,-122.85269165
210,SDFO-8LBUNQ,Gateway Java,13401 108 Ave,Surrey,Restaurant,49.19909286,-122.85025787
211,HCAR-AU9VCN,Nesters Market - Deli Department,10835 City Pky,Surrey,Restaurant,49.19953156,-122.84906006
212,SNOE-AE2SZG,Divine Delicacies,13483 78 Ave,Surrey,Restaurant,49.14465332,-122.84850311
213,NDAA-9BXTB7,Blenz Central City,13450 102 Ave,Surrey,Restaurant,49.18791962,-122.84877014
214,SHEN-B5KSUZ,Umami Ramen,10302 City Pky,Surrey,Restaurant,49.18995667,-122.84738922
215,GEDS-7ELT6P,Hilton Villa Care Centre Partnership,13525 Hilton Rd,Surrey,Restaurant,49.20227814,-122.8470459
216,A018086    ,McDonald's #8250,13565 72 Ave,Surrey,Restaurant,49.13372421,-122.84680939
217,GEDS-673PBP,Subway #30456,13578 88 Ave,Surrey,Restaurant,49.16252518,-122.84701538
218,HCAR-BEUT8B,Union Latinos Food,13569 105A Ave,Surrey,Restaurant,49.19459534,-122.84626007
219,SDFO-8MCPDC,Ken's Tea House,10692 135A St,Surrey,Restaurant,49.19701004,-122.84669495
220,SHEN-9PHPWJ,King George Pizza,7093 King George Blvd,Surrey,Restaurant,49.13100433,-122.84599304
221,HCAR-BS2PXM,Organic Warehouse - Juices & Smoothies,7093 King George Blvd,Surrey,Restaurant,49.13100319,-122.84598983
222,GEDS-6A5QDU,Tim Hortons #2530,7195 King George Blvd,Surrey,Restaurant,49.13306427,-122.84596252
223,GEDS-78BTNS,X-Fuel Nutrition Inc,7635 King George Blvd,Surrey,Restaurant,49.14163971,-122.84596252
224,SPLH-9KKLFZ,Mac's Convenience Store #11159,8007 King George Blvd,Surrey,Restaurant,49.14850998,-122.84605408
225,MARO-AZEUHB,Dairy Queen #27001,9436 King George Blvd,Surrey,Restaurant,49.17441177,-122.84552765
226,SPLH-A9VTH3,Browns Socialhouse (Surrey Centre),9666 King George Blvd,Surrey,Restaurant,49.17871857,-122.84526062
227,A019835   ,Boston Pizza #74,1081 Central City,Surrey,Restaurant,49.18592247,-122.84584777
228,A018782    ,Subway #17467,10153 King George Blvd,Surrey,Restaurant,49.18592072,-122.84584808
229,SHEN-A7TNAC,Wal-mart Supercentre #1205 - Deli,10153 King George Blvd,Surrey,Restaurant,49.18592072,-122.84584808
230,ACAK-8XGT5P,PSI Sushi & Roll,10245 King George Blvd,Surrey,Restaurant,49.188797,-122.84552765
231,HCAR-B5GM6G,Rickshaw Chinese Food Whalley Co,10505 King George Blvd,Surrey,Restaurant,49.19345474,-122.84566498
232,SDFO-8MXQXX,Di Reggae Cafe,13593 King George Blvd,Surrey,Restaurant,49.19931412,-122.8455658
233,A020062    ,Ronnie's Restaurant,6542 King George Blvd,Surrey,Restaurant,49.12158585,-122.84510803
234,SYOG-5M57T4,Greco's Specialty Foods Ltd,6886 King George Blvd,Surrey,Restaurant,49.12775803,-122.84516144
235,NDAA-8ZRNLV,Pho Tau Bay Restaurant,7322 King George Blvd,Surrey,Restaurant,49.13534927,-122.84516144
236,GEDS-7W4PCC,Subway #44714,8050 King George Blvd,Surrey,Restaurant,49.14889145,-122.84525299
237,SWOD-AHGN6F,Tim Horton's #106868,9900 King George Blvd,Surrey,Restaurant,49.18235779,-122.84490967
238,A020396    ,Dell Lanes,10576 King George Blvd,Surrey,Restaurant,49.19523239,-122.84492493
239,NDAA-9EBMZR,Surrey Urban Mission Society,10776 King George Blvd,Surrey,Restaurant,49.19846725,-122.84494781
240,NDAA-9NYPNB,New Express Pizza,13654 Grosvenor Rd,Surrey,Restaurant,49.19969177,-122.84375763
241,GEDS-7UWVFC,Suncreek Village,13687 62 Ave,Surrey,Restaurant,49.11563873,-122.84282684
242,SDFO-8MXR43,Newton Arena,7120 136B St,Surrey,Restaurant,49.13203049,-122.84320831
243,SHEN-AU9QAR,Fab Burgers,7320 137 St,Surrey,Restaurant,49.13598633,-122.84268188
244,GEDS-82XQBH,Maxxine Wright Community Health Centre,13733 92 Ave,Surrey,Restaurant,49.1702652,-122.84243011
245,DMIL-AC3L9S,Boulevard Shelter,10677 Whalley Blvd,Surrey,Restaurant,49.19652939,-122.84266663
246,GEDS-6BEQNQ,The Gateway,13787 100 Ave,Surrey,Restaurant,49.1844635,-122.84039307
247,DMIL-9PBSFT,Garcha Bros Meat Shop,13767 72 Ave,Surrey,Restaurant,49.13376236,-122.83986664
248,DMIL-9QHPY5,Circle K #12207,7175 138 St,Surrey,Restaurant,49.13303375,-122.83917236
249,GEDS-7QVQDQ,Planet India Restaurant,13775 72 Ave,Surrey,Restaurant,49.13378906,-122.83907318
250,GEDS-6SYPL6,Imperial Place Residences,13853 102 Ave,Surrey,Restaurant,49.18792725,-122.8383255
251,GEDS-666UND,New Frontier Club House,9803 140 St,Surrey,Restaurant,49.18060303,-122.83461761
252,GEDS-7R5P2M,Soo's Grocery,13980 108 Ave,Surrey,Restaurant,49.19866943,-122.83459473
253,SHEN-ACXME6,Junior Scholars Educational Childcare,5728 142 St,Surrey,Restaurant,49.10693741,-122.8285675
254,A016986    ,Surrey Pretrial Centre #60614,14323 57 Ave,Surrey,Restaurant,49.10680771,-122.82605743
255,NDAA-A7TQMD,Triple O's Burgers,14350 64 Ave,Surrey,Restaurant,49.11891937,-122.82463074
256,A019121    ,Pho Hoa Restaurant (Surrey),14357 104 Ave,Surrey,Restaurant,49.1917305,-122.82376862
257,GEDS-7YZN48,7-Eleven #34339,14410 108 Ave,Surrey,Restaurant,49.19859695,-122.82250977
258,NDAA-9QERMR,Sources Connection Cafe & Catering,14601 20 Ave,Surrey,Restaurant,49.03981018,-122.81861877
259,GEDS-69GNPL,Valley View Funeral Home,14660 72 Ave,Surrey,Restaurant,49.13357162,-122.81693268
260,HCAR-BA8QHR,Seriously Good Catering (Rotary Field House),2197 148 St,Surrey,Restaurant,49.0403862,-122.81508636
261,SHEN-AU2UNF,Sheila's Catering,2201 148 St,Surrey,Restaurant,49.04327393,-122.81479645
262,SHEN-AP5NAA,Softball City Extra Innings - Sport & Grill,2201 148 St,Surrey,Restaurant,49.04327393,-122.81479645
263,GEDS-5YFNWJ,Malaysian Hut Restaurant,14727 108 Ave,Surrey,Restaurant,49.1988945,-122.81445313
264,PNEL-8SNLX7,Texx Big Burger,14783 108 Ave,Surrey,Restaurant,49.19887924,-122.81312561
265,NDAA-9YQU3K,Lee's Express Chinese Food,9181 148 St,Surrey,Restaurant,49.16969299,-122.81243134
266,NDAA-9RFNPY,Bonny Castle Childrens Center,10706 148 St,Surrey,Restaurant,49.19706726,-122.81210327
267,ACAK-8XGSTR,Guildford Pizza & Pasta,10790 148 St,Surrey,Restaurant,49.19814301,-122.81225586
268,SPLH-9KJSG4,Momotaro Japanese Restaurant,3189 King George Blvd,Surrey,Restaurant,49.05963898,-122.81161499
269,A017441    ,Classic OP Pizza,3189 King George Blvd,Surrey,Restaurant,49.05963898,-122.81161499
270,MARO-AZ3TU9,Choices Market (#787) - Deli,3248 King George Blvd,Surrey,Restaurant,49.06103134,-122.81198883
271,GEDS-7J4MNB,Freedom Place,10342 148 St,Surrey,Restaurant,49.19020081,-122.81169891
272,SHEN-AGKQYB,McDonald's #8688,3104 King George Blvd,Surrey,Restaurant,49.05869293,-122.80918121
273,NDAA-9GUN4K,Sportica's Excellent Ice - Snack Bar,15000 54A Ave,Surrey,Restaurant,49.10157776,-122.80802155
274,HCAR-B93S2H,Cora Breakfast and Lunch (Surrey),15133 No 10 Hwy,Surrey,Restaurant,49.10516994,-122.80578608
275,SHEN-AP5PB8,Kaffina Coffee,2950 King George Blvd,Surrey,Restaurant,49.05568314,-122.80555725
276,HCAR-BCUQXS,Okonomiyaki Pon,2950 King George Blvd,Surrey,Restaurant,49.05568314,-122.80555725
277,A019462    ,Come Share Centre (26th Ave),15008 26 Ave,Surrey,Restaurant,49.04891968,-122.80419922
278,ACAK-9BETPK,Migoto Sushi/Guildford,10355 152 St,Surrey,Restaurant,49.19192505,-122.80426788
279,NDAA-9BHRSB,A&W #749,10355 152 St,Surrey,Restaurant,49.19192505,-122.80426788
280,HCAR-BEUST8,Chachi's Sandwiches at Guildford Town Centre,10355 152 St,Surrey,Restaurant,49.19192505,-122.80426788
281,SHEN-BBWR8Q,The Pantry Restaurant #04,10355 152 St,Surrey,Restaurant,49.19192505,-122.80426788
282,NDAA-9QTQG2,Edo Japan,10355 152 St,Surrey,Restaurant,49.19192505,-122.80426788
283,KSMH-ARJTF9,COBS Bread (Guildford Town Centre),10355 152 St,Surrey,Restaurant,49.19192505,-122.80426788
284,SHEN-B5KUMV,Famoso Neapolitan Pizzeria,10355 152 St,Surrey,Restaurant,49.19192505,-122.80426788
285,HCAR-B9JUC2,Seriously Good Catering (Peace Portal Alliance Church),15128 27B Ave,Surrey,Restaurant,49.05269623,-122.80344391
286,PNEL-6HRRVX,Peace Portal Alliance Church - Servery,15128 27B Ave,Surrey,Restaurant,49.05269623,-122.80344391
287,GEDS-85MNT9,White Spot #651,15157 No 10 Hwy,Surrey,Restaurant,49.10533058,-122.80273842
288,HCAR-B93S8S,Blenz Guildford Recreation Centre,15105 105 Ave,Surrey,Restaurant,49.19341278,-122.80253601
289,A014724    ,Starbucks Coffee #4406,3061 152 St,Surrey,Restaurant,49.05755997,-122.80210114
290,PNEL-8RHMTB,Bharat Sweets & Restaurant,15166 Fraser Hwy,Surrey,Restaurant,49.16628647,-122.80239105
291,GEDS-7MU2N7,Murchie's Tea & Coffee,1711 152 St,Surrey,Restaurant,49.03311539,-122.80166626
292,PNEL-8RZMFC,Blenz Coffee (152nd),1711 152 St,Surrey,Restaurant,49.03311539,-122.80166626
293,GEDS-7BJQJ5,Dairy Queen #27173,2071 152 St,Surrey,Restaurant,49.039619450000004,-122.80145264
294,A019571    ,Newton Girls Softball Concession (Sullivan Park),6272 152 St,Surrey,Restaurant,49.11688232,-122.8007431
295,A018362    ,Guildford Golf & Country Club Concession,7929 152 St,Surrey,Restaurant,49.14458466,-122.80138397
296,HPAR-9ZZTHE,Circle K Store #11156,10020 152nd St,Surrey,Restaurant,49.18460091,-122.80059474
297,HCAR-BJAVC6,Red Robin Gourmet Burgers (Guildford),10237 152 St,Surrey,Restaurant,49.18841553,-122.80130005
298,GEDS-6A2PN7,Tim Hortons #2608,10320 152 St,Surrey,Restaurant,49.19010925,-122.80059814
299,HCAR-BJTP2Z,Pho Hoa Restaurant,1724 152 St,Surrey,Restaurant,49.03325272,-122.80094147
300,GEDS-6U4TBQ,Pizza Hut #31106,1738 152 St,Surrey,Restaurant,49.03363419,-122.80104828
301,HCAR-BMJL3F,Boston Pizza #62,1956 152nd St,Surrey,Restaurant,49.03760224,-122.80095989
302,NDAA-A67QA4,Quiznos Sub #7833,2670 152 St,Surrey,Restaurant,49.05026627,-122.80093384
303,SHEN-APFUUQ,Cooking Secret Restaurant,2982 152 St,Surrey,Restaurant,49.05569839,-122.80091095
304,HCAR-BD3QD4,Pizza Empire,2982 152 St,Surrey,Restaurant,49.05569839,-122.80091095
305,NDAA-9QXQR7,Cefa Early Learning,5446 152 St,Surrey,Restaurant,49.1013298,-122.80073547
306,HCAR-BEFNCD,Rocky Mountain Flatbread Co,5570 152 St,Surrey,Restaurant,49.10346603,-122.80067444
307,GEDS-6J6MB7,Guildford Sushi House,10330 152 St,Surrey,Restaurant,49.19026947,-122.8000946
308,GEDS-7FATXC,Ruben's Restaurant,15282 Fraser Hwy,Surrey,Restaurant,49.16501617,-122.79908752
309,A019565    ,On Yuen Chinese Restaurant,9014 152 St,Surrey,Restaurant,49.16697311,-122.79924011
310,HCAR-AW6SGS,RoDem Korea,15277 100 Ave,Surrey,Restaurant,49.18444061,-122.79878998
311,SWOD-AMVU3K,The Modern General Store Inc,3388 Rosemary Heights Cres,Surrey,Restaurant,49.06333542,-122.798172
312,A018898    ,Royal Oak Pizza and Steak House,15336 Fraser Hwy,Surrey,Restaurant,49.16437531,-122.7976532
313,HCAR-BGBPER,Amica White Rock - Food Service,15333 16 Ave,Surrey,Restaurant,49.03132629,-122.797966
314,HCAR-BGCT83,Teamo,15355 24 Ave,Surrey,Restaurant,49.0458374,-122.79750824
315,GEDS-78JP6B,Booster Juice (Surrey),15355 24 Ave,Surrey,Restaurant,49.0458374,-122.79750824
316,GEDS-82GN63,Academics preKindergarten,15300 Croydon Dr,Surrey,Restaurant,49.05992889,-122.79803467
317,A016834    ,Guildford Station Pub,10176 154 St,Surrey,Restaurant,49.18758774,-122.79506683
318,GEDS-7KFM8D,Red Rose Restaurant,2381 King George Blvd,Surrey,Restaurant,49.04478836,-122.79414368
319,NDAA-9DGPS6,Whitecliff Residence Foods Services,15501 16 Ave,Surrey,Restaurant,49.0312767,-122.79307556
320,RORS-63ZMXY,Assini Pizza Restaurant Ltd,15551 Fraser Hwy,Surrey,Restaurant,49.16241837,-122.79125977
321,HCAR-BMFNK2,Ricky's Country Restaurant (King George Blvd),2160 King George Blvd,Surrey,Restaurant,49.0414101,-122.78780138
322,A020247    ,Morgan Creek Golf Course - Snack Bar,3500 Morgan Creek Way,Surrey,Restaurant,49.06494904,-122.78195953
323,A020246    ,Morgan Creek Golf Course - Lounge,3500 Morgan Creek Way,Surrey,Restaurant,49.06494904,-122.78195953
324,HCAR-AW72DJ,Fresh Street Market - Deli,15930 Fraser Hwy,Surrey,Restaurant,49.15706635,-122.78188324
325,SWOD-AQFQD7,Scott's 96 Pizza,15932 96 Ave,Surrey,Restaurant,49.17674637,-122.78082275
326,SHEN-B7BQ5V,Roadhouse Social Lounge,1781 King George Blvd,Surrey,Restaurant,49.03425598,-122.78005219
327,GEDS-7SDM3H,Wok Box (Grandview Corners),2285 160 St,Surrey,Restaurant,49.04321289,-122.78006744
328,NDAA-AN9QFX,Wendy's #12,15959 Fraser Hwy,Surrey,Restaurant,49.15824127,-122.7793045
329,SPLH-9KKTA9,Subway #60205,2525 160 St,Surrey,Restaurant,49.04756927,-122.77952576
330,SPLH-AV62J6,Popeye's Supplements (Surrey),16030 24 Ave,Surrey,Restaurant,49.04521942,-122.77797699
331,SPLH-9P8MJG,CEFA - Fleetwood,16050 Fraser Hwy,Surrey,Restaurant,49.15664673,-122.77745056
332,HCAR-B6KRT3,Pho Hung Restaurant (Surrey),16033 108 Ave,Surrey,Restaurant,49.19896698,-122.77775574
333,HCAR-B8BVF7,Nutri-Dough Pizza,16033 108 Ave,Surrey,Restaurant,49.19896698,-122.77775574
334,SHEN-AZ7MAQ,Big Star Sandwich Co (24th Ave),16050 24 Ave,Surrey,Restaurant,49.04470444,-122.77767944
335,SHEN-AU2Q9Y,Islands Cafe,16041 24 Ave,Surrey,Restaurant,49.0463028,-122.77770233
336,SHEN-APFUB3,S & L Kitchen & Bar South Surrey,16051 24 Ave,Surrey,Restaurant,49.04582596,-122.77749634
337,SWOD-AETSW7,Bento Nouveau,2332 160 St,Surrey,Restaurant,49.04383087,-122.77640533
338,A016687    ,Turkey House & Deli,1433 King George Blvd,Surrey,Restaurant,49.02808762,-122.77243042
339,GEDS-6E3N2T,Crescent Gardens Food Service,1222 King George Blvd,Surrey,Restaurant,49.02445221,-122.7667923
340,SHEN-AGNP8P,Darbar Sri Guru Granth Sahibji Surrey,8820 168 St,Surrey,Restaurant,49.16347504,-122.75631714
341,SHEN-AZMPT4,Tynehead Esso - Tim Hortons #6352,16815 96 Ave,Surrey,Restaurant,49.17726517,-122.75585938
342,HCAR-B8RUZG,Flying Cup Coffee & Dessert,10422 168 St,Surrey,Restaurant,49.19205856,-122.7562561
343,SWOD-APSP3X,104 Sushi & Co.,10422 168 St,Surrey,Restaurant,49.19205856,-122.7562561
344,A019654    ,Peace Portal Golf Course Lounge,16900 4 Ave,Surrey,Restaurant,49.00906754,-122.75300598
345,A019528    ,Peace Portal Golf Course Restaurant,16900 4 Ave,Surrey,Restaurant,49.00906754,-122.75300598
346,A016764    ,Royal Canadian Legion Branch #6 Kitchen,17567 57 Ave,Surrey,Restaurant,49.10616684,-122.73640442
347,SDFO-886NQ3,Bennett Craft & Kitchen,187 176 St,Surrey,Restaurant,49.00522995,-122.73581696
348,NDAA-9C5T5J,Tim Hortons #4373 Country Woods,3233 176 St,Surrey,Restaurant,49.06053543,-122.73584747
349,SDFO-8LML24,Panago #80,5669 176A St,Surrey,Restaurant,49.10533524,-122.73387909
350,GEDS-69UQZB,Dragon Village Restaurant,5678 176 St,Surrey,Restaurant,49.10560989,-122.7347641
351,SWOD-AF3Q48,Hansel Deli,5804 176 St,Surrey,Restaurant,49.10792542,-122.73477173
352,NDAA-8R8V4H,Boston Pizza #020,6486 176 St,Surrey,Restaurant,49.12017059,-122.73455811
353,SDFO-8KTTGY,Salty's Fish & Chips,17750 56 Ave,Surrey,Restaurant,49.10394287,-122.73042297
354,ACAK-96MPND,Elements Casino - Foodies,17755 60 Ave,Surrey,Restaurant,49.11171722,-122.72962952
355,A018613    ,A&W #0662,17830 56 Ave,Surrey,Restaurant,49.10399628,-122.72846985
356,NDAA-ALUNEN,HappyCakes CupCakes & More,18640 Fraser Hwy,Surrey,Restaurant,49.12546158,-122.70609283
357,GEDS-76LQ6B,Tim Hortons #3077,18682 Fraser Hwy,Surrey,Restaurant,49.1245842,-122.70441437
358,GEDS-6MFQTB,Subway #23526,18775 Fraser Hwy,Surrey,Restaurant,49.12479401,-122.70209503
359,A020208    ,Path to Freedom Treatment Centre,19030 56 Ave,Surrey,Restaurant,49.1042099,-122.69551086
360,MARO-B37PB7,Quesada #148,2711 192 St,Surrey,Restaurant,49.05150986,-122.69181824
361,HCAR-AUXPC5,Ambros Subway,19188 72 Ave,Surrey,Restaurant,49.13346481,-122.6915741
362,KSMH-ASJPMA,Baron's Manor Pub,9568 192 St,Surrey,Restaurant,49.17632294,-122.69012451
363,GEDS-85SR8F,Tim Hortons #3676,19218 96 Ave,Surrey,Restaurant,49.17677689,-122.69007874
364,SPLH-ARZV5U,Black Tiger Coffee Co,19255 Fraser Hwy,Surrey,Restaurant,49.11894608,-122.68943024
365,HCAR-BD2P37,Tian Tian Restaurant,19289 No 10 Hwy,Surrey,Restaurant,49.1055069,-122.68824768
366,SHEN-B32QLT,Panago Pizza #34,7310 120 St,Surrey,Restaurant,49.13578796,-122.89000702
367,SHEN-A7GVK6,Curry & Kabab Indian Cuisine,7500 120 St,Surrey,Restaurant,49.13913727,-122.89006805
368,A020395    ,Sachdeva Sweets & Restaurant,7500 120 St,Surrey,Restaurant,49.13913727,-122.89006805
369,HCAR-BM4PHM,Purple Tulip,8140 120th St,Surrey,Restaurant,49.15114002,-122.89006646
370,NDAA-9P9TD5,Taco Time (120th St),8942 120 St,Surrey,Restaurant,49.16539001,-122.89007568
371,HCAR-BCUPTK,Namdhari's Punjabi Spice,9172 120 St,Surrey,Restaurant,49.16998291,-122.88999176
372,SDFO-8LQSRL,Thai By Thai Restaurant,9164 120 St,Surrey,Restaurant,49.16981125,-122.8899765
373,HCAR-AU9V4X,Hot Millions Pizza & Cafe,9200 120 St,Surrey,Restaurant,49.17059326,-122.89001465
374,GEDS-7MMUPB,Pizza 24 (Surrey),9514 120 St,Surrey,Restaurant,49.17605209,-122.88986969
375,GEDS-7QXLV4,Popular Fish House,9532 120 St,Surrey,Restaurant,49.17628479,-122.88986206
376,MARO-AWVP8R,Oh So Sweet Sugar Boutique,12101 72 Ave,Surrey,Restaurant,49.1350174,-122.88764191
377,HHIN-BBXPFN,Crescent Supermarket Ltd. - Meat Dept.,12074 96 Ave,Surrey,Restaurant,49.17699051,-122.88774109
378,GEDS-7E5PJ5,Fish Net #1,12211 Beecher St,Surrey,Restaurant,49.05259323,-122.88368225
379,A018553    ,Fong's Eatery,12308 Beecher St,Surrey,Restaurant,49.05281067,-122.88084412
380,GEDS-6732QE,Shree Sanata Dharam Sabha (Fiji) of BC,8473 124 St,Surrey,Restaurant,49.15709686,-122.87944794
381,GEDS-66Z2DP,Khalsa School Cafeteria,6933 124 St,Surrey,Restaurant,49.12960434,-122.87927246
382,SPLH-ASHT5Z,Haryana Sweets & Catering Service,12448 82 Ave,Surrey,Restaurant,49.15185165,-122.87780762
383,SHEN-9TFPMS,Barcelos Chicken,12499 88 Ave,Surrey,Restaurant,49.16335678,-122.87666321
384,SHEN-AGKNPK,Pizza Hut #31152,12477 88 Ave,Surrey,Restaurant,49.16395187,-122.87705231
385,SWOD-AG5UGV,"Green Indian Cuisine, Pizza & Sweets",12565 88 Ave,Surrey,Restaurant,49.16401672,-122.87477875
386,SHEN-B5KRFP,Vegan Pizza House,11267 125A St,Surrey,Restaurant,49.2073822,-122.87468719
387,GEDS-6D8TJW,Gulberg Tandoor & Donair,12578 72 Ave,Surrey,Restaurant,49.13327408,-122.87416077
388,HCAR-BCSTPX,Royal Curry Restaurant & Sweets,12588 72 Ave,Surrey,Restaurant,49.13370895,-122.87384033
389,SDFO-89RTBJ,Tim Hortons (Surrey Campus),12666 72 Ave,Surrey,Restaurant,49.13362122,-122.87132263
390,ACAK-98UPSS,Bridgeview Community Centre,11475 126A St,Surrey,Restaurant,49.21140671,-122.8710556
391,SHEN-9Z3L58,Java Hut Cafe,7728 128 St,Surrey,Restaurant,49.14276505,-122.86766815
392,A019423    ,Grand Taj Banquet Centre,8388 128 St,Surrey,Restaurant,49.15488815,-122.86769867
393,HCAR-AWERFN,Mezbaan (Indo Chinese Food),12790 96 Ave,Surrey,Restaurant,49.17702866,-122.86846161
394,KSMH-AK2REG,Ethical Addiction,1558 128 St,Surrey,Restaurant,49.03060532,-122.86736298
395,A019364    ,Delitalia Fine Foods,1629 128 St,Surrey,Restaurant,49.03178024,-122.86773682
396,JCOE-67H9B8,Starbucks Coffee #142,1658 128 St,Surrey,Restaurant,49.03233719,-122.86727142
397,GEDS-7V3R4H,Barney's Pizza & Chicken,8140 128 St,Surrey,Restaurant,49.15063477,-122.86732483
398,SPLH-AAAUX2,Royal's Pizza,12837 88 Ave,Surrey,Restaurant,49.16276169,-122.8671875
399,A019866    ,Pak Punjab Sweets & Somosas House,12835 96 Ave,Surrey,Restaurant,49.17731857,-122.86660004
400,SHEN-A85RZ3,Crystal Ball Room/Crystal Banquet Hall,12888 80 Ave,Surrey,Restaurant,49.147994999999995,-122.86605072
401,GEDS-7UDLSN,Maharaja Catering,8148 128 St,Surrey,Restaurant,49.15057755,-122.86483002
402,SPLH-9P9LLM,Pakwan House,13030 76 Ave,Surrey,Restaurant,49.14081573,-122.86117554
403,GEDS-5ZZMJS,Puccinos,7495 132 St,Surrey,Restaurant,49.13903809,-122.85697174
404,GEDS-5Z6MPG,Canadian Singh Sabha Gurdwara Society,8115 132 St,Surrey,Restaurant,49.15020752,-122.85710907
405,SYOG-5M55P6,St Bernadette Parish Hall,6555 132 St,Surrey,Restaurant,49.12138367,-122.85668182
406,PNEL-8R2MJU,Saggi Sweet & Restaurant,7248 132 St,Surrey,Restaurant,49.13451004,-122.85640717
407,A020029    ,Kwantlen Park Secondary School Cafeteria,10441 132 St,Surrey,Restaurant,49.19221878,-122.85668182
408,S003239    ,Whalley Little League Concession - Major Diamond,13350 105A Ave,Surrey,Restaurant,49.19308472,-122.85269165
409,NDAA-8WQS48,Catering Visions,13375 115 Ave,Surrey,Restaurant,49.21175003,-122.85179138
410,PGOO-63CUDS,Guru Lucky Snacks & Sweets,7660 134 St,Surrey,Restaurant,49.14197159,-122.85095978
411,GEDS-6E8STL,TREES,13479 76 Ave,Surrey,Restaurant,49.1410141,-122.84900665
412,GEDS-66KMAS,Central City Brewing Company,13450 102 Ave,Surrey,Restaurant,49.18791962,-122.84877014
413,SYOG-5M59J9,CRESST South Fraser,13525 98 Ave,Surrey,Restaurant,49.18068695,-122.8476181
414,HCAR-B3WQT7,Potemia,10277 City Pky,Surrey,Restaurant,49.18955231,-122.84788513
415,GEDS-75FV9W,Top King's Chinese Restaurant and Cafe,10294 City Pky,Surrey,Restaurant,49.1897049,-122.84739685
416,GEDS-6KSUZ7,Surrey Catering,10528 City Pky,Surrey,Restaurant,49.19396973,-122.84793854
417,JDSO-ACPLSA,Anjali's Dosa Garden,13560 77 Ave,Surrey,Restaurant,49.14253616,-122.84706116
418,SDFO-8FAUQX,Bear Creek Market (88th Ave),13578 88 Ave,Surrey,Restaurant,49.16252518,-122.84701538
419,HCAR-BG7R7C,Pardesi Sweets and Restaurant,13588 88 Ave,Surrey,Restaurant,49.16252899,-122.84686279
420,SWOD-AHS22K,Koco Espresso,13585 16 Ave,Surrey,Restaurant,49.03142548,-122.84624481
421,PGOO-66GTL6,The Roost,13582 68 Ave,Surrey,Restaurant,49.12607956,-122.84603882
422,NDAA-9GYQWB,Training Day Cafe,8077 King George Blvd,Surrey,Restaurant,49.14945984,-122.84601593
423,HCAR-BKDPLR,Pizza Hub,9436 King George Blvd,Surrey,Restaurant,49.17441177,-122.84552765
424,MMAR-7YMNCT,OPA Souvlaki of Greece (Surrey),10153 King George Blvd,Surrey,Restaurant,49.18592072,-122.84584808
425,PNEL-8R5UF2,Burger King #18301,10153 King George Hwy,Surrey,Restaurant,49.18592072,-122.84584808
426,GEDS-6HKV3L,KFC #018-004,10153 King George Blvd,Surrey,Restaurant,49.18592072,-122.84584808
427,A020459    ,Wings Tap And Grill,7124 King George Blvd,Surrey,Restaurant,49.13216782,-122.84503937
428,SHEN-A7WQC8,Kelly's Pub,7218 King George Blvd,Surrey,Restaurant,49.13433075,-122.84521484
429,ACAK-97GPH7,Wild Wing,7322 King George Blvd,Surrey,Restaurant,49.13534927,-122.84516144
430,A019329    ,Starbucks Coffee #144,7380 King George Blvd,Surrey,Restaurant,49.13673782,-122.84520721
431,ACAK-8VLMLT,Pho Newton,7488 King George Blvd,Surrey,Restaurant,49.13853836,-122.84525299
432,KSMH-AU6VQG,Chopped Leaf,9900 King George Hwy,Surrey,Restaurant,49.18235779,-122.84490967
433,NDAA-9P7SJ7,Starbucks Coffee Company #21565,9908 King George Blvd,Surrey,Restaurant,49.18334579,-122.84499359
434,SWOD-AHGU84,Freshslice Pizza - Park Place,9908 King George Hwy,Surrey,Restaurant,49.18334579,-122.84499359
435,A020410    ,Esso Whalley - Tim Hortons,10416 King George Blvd,Surrey,Restaurant,49.19204712,-122.84506989
436,SWOD-AQAKLU,7-ElevenStore and Gas Bar (Canada Store #37875H),10416 King George Blvd,Surrey,Restaurant,49.19204712,-122.84506989
437,HCAR-B6HVDN,Nancy Gerard Building (Site #1),10662 King George Blvd,Surrey,Restaurant,49.19640732,-122.84495544
438,SDFO-8P6URP,Pizza Point,13651 100 Ave,Surrey,Restaurant,49.18442917,-122.84391022
439,SHEN-B55U5J,Mal Li Jang Sung,13648 105A Ave,Surrey,Restaurant,49.19427872,-122.8440094
440,NDAA-9H7NNW,Tasty Donair & Company Inc.,13711 72 Ave,Surrey,Restaurant,49.13375854,-122.84255981
441,A019780    ,Surrey Arts Centre (Bar Concession),13750 88 Ave,Surrey,Restaurant,49.1621666,-122.84241486
442,HCAR-BK5NVL,Laurel Place Food Service,9688 137A St,Surrey,Restaurant,49.17842102,-122.84178162
443,SWOD-A3HQFP,Tomato Shack Pizza,10322 Whalley Blvd,Surrey,Restaurant,49.19020081,-122.84170532
444,NDAA-A4VRMG,Bharat Parmar Sweet Shop & Restaurant,13745 72 Ave,Surrey,Restaurant,49.13376617,-122.84112549
445,GEDS-6U4Q7U,Pizza Hut #31123,13753 72 Ave,Surrey,Restaurant,49.13376999,-122.8405838
446,SHEN-9YPQN6,Don Chepe's Restaurant,13780 104 Ave,Surrey,Restaurant,49.19140625,-122.84050751
447,NDAA-93ARHG,An Pho Vietnamese Restaurant,13784 104 Ave,Surrey,Restaurant,49.19140625,-122.84041595
448,PNEL-8SRNSV,Amenida Seniors Community,13855 68 Ave,Surrey,Restaurant,49.12674713,-122.83893585
449,NDAA-A2KMBQ,Bolivar Heights Gas Bar,13916 Grosvenor Rd,Surrey,Restaurant,49.20368576,-122.83634949
450,NDAA-986SEL,Bear Creek Villa,8233 140 St,Surrey,Restaurant,49.15269089,-122.83494568
451,SDFO-8L8SZK,7-Eleven #34907,13993 Fraser Hwy,Surrey,Restaurant,49.17928314,-122.83482361
452,SWOD-A58ML4,Corporate Classics Caterers,14123 92 Ave,Surrey,Restaurant,49.17026901,-122.83100891
453,A018928    ,Chrysalis 22 Food Service,14122 113 Ave,Surrey,Restaurant,49.20750427,-122.83097839
454,JDSO-ADTMFH,Subway #50726,14370 64 Ave,Surrey,Restaurant,49.11891556,-122.82421875
455,PNEL-8RBQFL,Tasty Sandwich,14351 104 Ave,Surrey,Restaurant,49.19172668,-122.8241806
456,HCAR-BCNQ6T,Popeyes Louisiana Kitchen (Surrey),14380 64 Ave,Surrey,Restaurant,49.11891556,-122.82378387
457,GEDS-65FUQU,Parkland Food Market,8270 144 St,Surrey,Restaurant,49.1533699,-122.82312775
458,GEDS-6VRPUD,Tim Hortons #2956,14445 64 Ave,Surrey,Restaurant,49.11930466,-122.82268524
459,NDAA-9CDPEY,Punjabi Masihi Church,14488 72 Ave,Surrey,Restaurant,49.13354492,-122.82070923
460,A016828    ,South Surrey Ice Arena - Upper Concession,2199 148 St,Surrey,Restaurant,49.04156876,-122.81524658
461,GEDS-6CFT6B,Jolly Mac's,14815 108 Ave,Surrey,Restaurant,49.199439999999996,-122.81214142
462,NDAA-9ENQTN,Aji Sushi Family Kitchen,3268 King George Blvd,Surrey,Restaurant,49.06108856,-122.8120575
463,SWOD-AJ6RHL,Rosie's Country Cafe,3033 King George Blvd,Surrey,Restaurant,49.05684662,-122.80812836
464,SPLH-9KHS7E,Landmark Cinemas 12 Guildford Surrey - Pizza Pizza,15051 101 Ave,Surrey,Restaurant,49.18627167,-122.80501556
465,SPLH-9KHPNC,Landmark Cinemas 12 Guildford Surrey - Concession,15051 101 Ave,Surrey,Restaurant,49.18627167,-122.80501556
466,NDAA-9BGPR8,KFC #017-001,10355 152 St,Surrey,Restaurant,49.19192505,-122.80426788
467,SHEN-A6LW3S,Carl's Jr. Restaurants,10355 152 St,Surrey,Restaurant,49.19192505,-122.80426788
468,ACAK-9BEUV9,Bourbon Street Grill (Guildford),10355 152 St,Surrey,Restaurant,49.19192505,-122.80426788
469,NDAA-9R8Q9Z,Starbucks Coffee #4473,10355 152 St,Surrey,Restaurant,49.19192505,-122.80426788
470,HCAR-BQ8UGU,Dairy Queen/Orange Julius #27385,10355 152nd St,Surrey,Restaurant,49.19192586,-122.8042654
471,HCAR-BGMTVD,Mucho Burrito Fresh Mexican Grill (Panorama Village),15157 56 Ave,Surrey,Restaurant,49.10533142,-122.802742
472,HCAR-B9DNXR,Pho Guildford Restaurant,15138 100 Ave,Surrey,Restaurant,49.18397903,-122.80252838
473,SHEN-ABJTGL,Il Uk Jo Restaurant Ltd.,15188 Fraser Hwy,Surrey,Restaurant,49.16616058,-122.80203247
474,SHEN-BCSUAK,Browns Socialhouse (Guildford),15146 100 Ave,Surrey,Restaurant,49.18396759,-122.80224609
475,NDAA-9E4S4N,Browns Socialhouse Semiahmoo,1601 152 St,Surrey,Restaurant,49.03116989,-122.80130768
476,A019600    ,White Spot #633,1681 152 St,Surrey,Restaurant,49.03298187,-122.80167389
477,GEDS-65SNSU,Fortune Wok (Surrey),1711 152 St,Surrey,Restaurant,49.03311539,-122.80166626
478,SYOG-5M562C,Tim Hortons #446,1767 152 St,Surrey,Restaurant,49.03378677,-122.80164337
479,ACAK-8XKTKS,IHOP #309,2429 152 St,Surrey,Restaurant,49.04616547,-122.80150604
480,PNEL-8R4MZJ,Golden Panda Restaurant,6355 152 St,Surrey,Restaurant,49.11819839,-122.80139923
481,ACAK-9CAMQN,Safeway #4920 - Starbucks Coffee,8860 152 St,Surrey,Restaurant,49.1637764,-122.80132294
482,A019020    ,Ricky's All Day Grill #2,8958 152 St,Surrey,Restaurant,49.16545105,-122.80114746
483,HCAR-B9MRTP,Subway #13302,10070 152 St,Surrey,Restaurant,49.18541336,-122.80059814
484,HCAR-ASNP97,Snowy Village (Surrey),10090 152 St,Surrey,Restaurant,49.18575287,-122.80058289
485,GEDS-68T2FB,Starbucks Coffee #4468,10174 152 St,Surrey,Restaurant,49.18723297,-122.80063629
486,SDFO-8JBLH9,Papa John's Pizza #009770 (Surrey),10320 152 St,Surrey,Restaurant,49.19010925,-122.80059814
487,A016904    ,Starbucks Coffee #194,1730 152 St,Surrey,Restaurant,49.0334053,-122.80092621
488,KHON-6RKPB6,COBS Bread (152nd St),2990 152 St,Surrey,Restaurant,49.05622864,-122.80089569
489,SWOD-ALRRB2,Rosemary Heights Seniors Village (Main Kitchen),15240 34 Ave,Surrey,Restaurant,49.06355667,-122.80059052
490,SHEN-AJUUR2,West Village Cafe,5620 152 St,Surrey,Restaurant,49.10489655,-122.80062866
491,GEDS-7VRLJL,Dairy Queen #27348,5630 152 St,Surrey,Restaurant,49.10523224,-122.80044556
492,GEDS-65FPRC,Kim Hoang Restaurant,10330 152 St,Surrey,Restaurant,49.19026947,-122.8000946
493,NDAA-8QSTSA,Prairie Cafe,15280 Fraser Hwy,Surrey,Restaurant,49.16505051,-122.79917145
494,HCAR-AZVMLX,Cuatro Coffee,9014 152 St,Surrey,Restaurant,49.16697311,-122.79924011
495,NDAA-9NVSPB,Little Tea House (Surrey),15277 100 Ave,Surrey,Restaurant,49.18444061,-122.79878998
496,GEDS-6UPMUE,Fresh Hair Concepts,15252 32 Ave,Surrey,Restaurant,49.06100845,-122.79846954
497,A018178    ,Church's Chicken #5621,15318 Fraser Hwy,Surrey,Restaurant,49.16467285,-122.79827881
498,HCAR-BANTTS,Sushi Mori Japanese Restaurant (South Surrey),15355 24 Ave,Surrey,Restaurant,49.0458374,-122.79750824
499,NDAA-8ZMPNB,Pho Sunrise Vietnamese Cuisine,15355 24 Ave,Surrey,Restaurant,49.0458374,-122.79750824
500,SWOD-AFXQQ6,The Whole Bowl Health Bar,15345 56 Ave,Surrey,Restaurant,49.10525513,-122.79768372
501,HCAR-BHNP4F,Pacific Carlton - Food Service,15366 17 Ave,Surrey,Restaurant,49.03276443,-122.79637146
502,PNEL-8QMN5H,Sushi Train Restaurant,15380 102A Ave,Surrey,Restaurant,49.18859482,-122.79624939
503,SPLH-987TB4,Crispy Falafel (Surrey),2408 King George Blvd,Surrey,Restaurant,49.04586792,-122.79332733
504,SHEN-A7GRE8,The Carvery,2430 King George Blvd,Surrey,Restaurant,49.04649353,-122.79410553
505,A019968    ,Asia Restaurant,15551 Fraser Hwy,Surrey,Restaurant,49.16241837,-122.79125977
506,GEDS-82CUR9,Thrifty Foods #9472 - Deli & Cheese Section,15745 Croydon Dr,Surrey,Restaurant,49.04809189,-122.78588104
507,SHEN-9T5QBB,Citrus Bar & Grill,10410 158 St,Surrey,Restaurant,49.19205093,-122.78391266
508,GEDS-6SAQMH,Holiday Inn Express Surrey - Breakfast Area,15808 104 Ave,Surrey,Restaurant,49.19136429,-122.7833786
509,SHEN-B55PW9,Goru Goru,15930 Fraser Hwy,Surrey,Restaurant,49.15706635,-122.78188324
510,GEDS-7HQPTW,Tim Hortons #3225,2355 160 St,Surrey,Restaurant,49.04439163,-122.78143311
511,GEDS-7LM26E,Subway #42292,2285 160 St,Surrey,Restaurant,49.04321289,-122.78006744
512,GEDS-85ZPJW,The Residence at Morgan Heights - Bistro,15955 27 Ave,Surrey,Restaurant,49.05117798,-122.77987671
513,GEDS-6HLMTJ,Asian Noodle Island,15988 Fraser Hwy,Surrey,Restaurant,49.15724945,-122.77954102
514,JDSO-ACHLL4,Saini Sweets & Restaurant,15988 Fraser Hwy,Surrey,Restaurant,49.15724945,-122.77954102
515,HCAR-BS6NBX,The Great Indian Cuisine,15953 Fraser Hwy,Surrey,Restaurant,49.15879416,-122.78014591
516,A018926    ,Helping Hands Children's Centre Food Service,9012 160 St,Surrey,Restaurant,49.16698456,-122.77852631
517,GEDS-82XN83,Parkland Fellowship,9574 160 St,Surrey,Restaurant,49.17636871,-122.77856445
518,SHEN-A6LRKW,A&W Restaurant #0767,16033 108 Ave,Surrey,Restaurant,49.19896698,-122.77775574
519,HCAR-ASJM82,Afghan Kitchen,16120 24 Ave,Surrey,Restaurant,49.04472351,-122.77613831
520,HCAR-AW9VDF,Blenz Coffee,16855 24 Ave,Surrey,Restaurant,49.04596329,-122.75524139
521,ACAK-8VPPA4,Quiznos Classic Subs #12964,17455 No 10 Hwy,Surrey,Restaurant,49.10436862,-122.73959754
522,NDAA-9H7NFY,Hawthorne Beer Market & Bistro,5633 176 St,Surrey,Restaurant,49.10484314,-122.73519897
523,PGOO-69BTQX,Ken's Cafe,5695 176 St,Surrey,Restaurant,49.10577011,-122.7352066
524,HCAR-BJCUNS,Coast & Country Diner,17608 56 Ave,Surrey,Restaurant,49.10399246,-122.73468018
525,PNEL-8QKN5F,Canuel Caterers - Stetson Bowl,6050A 176 St,Surrey,Restaurant,49.11225891,-122.73472595
526,GEDS-6LD2F9,Honeybee Centre - Kitchen,7480 176 St,Surrey,Restaurant,49.13885498,-122.73415375
527,A017403    ,Subway #10985,17700 56 Ave,Surrey,Restaurant,49.10389709,-122.73266602
528,NDAA-92VQNS,Pizza Hut #31146,17700 Hwy 10,Surrey,Restaurant,49.1038986,-122.73266352
529,SHEN-A2FL98,King Tut's Donair and Pizza,5691 177B St,Surrey,Restaurant,49.10579681,-122.73053741
530,A017781    ,Elements Casino - Homestretch,17755 60 Ave,Surrey,Restaurant,49.11171722,-122.72962952
531,SDFO-896MB7,Contracted Food Service Provider,5500 180 St,Surrey,Restaurant,49.10172272,-122.72354126
532,A018954    ,Hazelmere Golf & Tennis Club Lounge/Kitchen,18150 8 Ave,Surrey,Restaurant,49.01621628,-122.71914673
533,A017390    ,Clover Hill Market,5996 184 St,Surrey,Restaurant,49.11122513,-122.71237183
534,HCAR-B3ARDF,Wuyang Kitchen,18640 Fraser Hwy,Surrey,Restaurant,49.12546158,-122.70609283
535,KSMH-ASMT2M,Port Kells Nurseries,18730 88 Ave,Surrey,Restaurant,49.16254044,-122.7035675
536,GEDS-6XLQY8,Dublin Crossing Irish Pub,18789 Fraser Hwy,Surrey,Restaurant,49.12428665,-122.70225525
537,SPLH-AS8TP6,Nielsen's Your Independent Grocer - Deli,18765 Fraser Hwy,Surrey,Restaurant,49.12528992,-122.70236206
538,HCAR-B55RB5,Clayton Gate Pizza,6820 188 St,Surrey,Restaurant,49.12660599,-122.70143127
539,HCAR-BA9R6L,The Bean Factory,18812 96 Ave,Surrey,Restaurant,49.17684555,-122.70088959
540,NDAA-93UU5A,Tim Hortons #4510,2711 192 St,Surrey,Restaurant,49.05150986,-122.69181824
541,SWOD-AJP25M,Pizza Hut #R39801,2711 192 St,Surrey,Restaurant,49.05150986,-122.69181824
542,SHEN-A3NLE3,One Up Cafe,2755 192 St,Surrey,Restaurant,49.05247498,-122.69181824
543,SPLH-A9VMPY,Tim Hortons #6270,19171 Fraser Hwy,Surrey,Restaurant,49.11948395,-122.6914978
544,A018392    ,Port Kells Cafe,9531 192 St,Surrey,Restaurant,49.17562866,-122.69084167
545,HCAR-AU7R9T,Miltomates,9613 192 St,Surrey,Restaurant,49.17736053,-122.6907196
546,MARO-AWUQ2U,D-Plus Pizza (192nd St),7228 192 St,Surrey,Restaurant,49.13415527,-122.69047546
547,A019048    ,Samz Neighborhood Pub,19580 56 Ave,Surrey,Restaurant,49.10422134,-122.68049622
548,SHEN-AP8PBW,H-Mart Hot Food,19555 Fraser Hwy,Surrey,Restaurant,49.11473846,-122.6811142
549,SHEN-9QASUV,Pearl Fever Tea House,7310 120 St,Surrey,Restaurant,49.13578796,-122.89000702
550,A019941    ,De Dutch Pannekoek House #25,7310 120 St,Surrey,Restaurant,49.13578796,-122.89000702
551,RORS-5Y9NE5,Tim Hortons #458,8080 120 St,Surrey,Restaurant,49.15013504,-122.89001465
552,A018356    ,IHOP #312,8170 120 St,Surrey,Restaurant,49.15202332,-122.89007568
553,A019244    ,Kam Wah Restaurant,9340 120 St,Surrey,Restaurant,49.17281723,-122.8899231
554,SHEN-A3NP96,New Asian Spice,9436 120 St,Surrey,Restaurant,49.174366,-122.88994598
555,HCAR-BGKUB2,Taste of Lahore Restaurant & Sweets,9526 120 St,Surrey,Restaurant,49.17621231,-122.88986969
556,PNEL-8QX26S,Quiznos Sub #7277,10355 120 St,Surrey,Restaurant,49.19095612,-122.8907547
557,GEDS-7HVTQV,Tim Hortons #3226,6422 120 St,Surrey,Restaurant,49.11967468,-122.88996124
558,SWOD-AHYRYX,Quizno's Classic Subs #671,12077 72 Ave,Surrey,Restaurant,49.13428497,-122.88837433
559,MARO-B39UC5,Desh Punjab Sweets & Restaurant,12047 80 Ave,Surrey,Restaurant,49.14874268,-122.88873291
560,SHEN-9SSP8G,Donair Affair,12080 Nordel Way,Surrey,Restaurant,49.16109848,-122.88860321
561,GEDS-83VU7U,Crown Palace Banquet Hall,12025 Nordel Way,Surrey,Restaurant,49.16237259,-122.88889313
562,GEDS-6FCSSR,Martino's Cappuccino and Coffee Bar,12211 Beecher St,Surrey,Restaurant,49.05259323,-122.88368225
563,SPLH-AAATM9,Lighthouse Fresh & Tasty (88th Ave Surrey),12499 88 Ave,Surrey,Restaurant,49.16335678,-122.87666321
564,A016603    ,Crescent Beach Yacht Club,12555 Crescent Rd,Surrey,Restaurant,49.05628586,-122.87133026
565,A019805    ,Dhaliwal Sweets Ltd,8430 128 St,Surrey,Restaurant,49.15584183,-122.86769867
566,NDAA-8WPTK6,Venetis Pizza,9591 128 St,Surrey,Restaurant,49.1766243,-122.86824799
567,GEDS-65GNXR,Lighthouse Fish & Chips,9631 128 St,Surrey,Restaurant,49.17753983,-122.8680954
568,SHEN-BCSQS2,Le Jardin Restaurant,1677 128 St,Surrey,Restaurant,49.03285599,-122.86779785
569,A018064    ,Newton Pizza,6828 128 St,Surrey,Restaurant,49.12696075,-122.86753082
570,SDFO-88QSPT,Ocean Park Pizza (72nd Ave),12818 72 Ave,Surrey,Restaurant,49.13371277,-122.86737823
571,HCAR-BLGP6A,Billy's Pizza & Curry House,8140 128 St,Surrey,Restaurant,49.15063477,-122.86732483
572,A014053    ,Little Caesars Pizza #456-004,12830 96 Ave,Surrey,Restaurant,49.17696762,-122.86709595
573,GEDS-6NKTCW,Sanja Punjab Sweet House,12830 96 Ave,Surrey,Restaurant,49.17696762,-122.86709595
574,SHEN-AP5Q5S,World Famous Chicken World,12842 96 Ave,Surrey,Restaurant,49.17696381,-122.86654663
575,SHEN-BGYRBJ,Panago #65,12840 16 Ave,Surrey,Restaurant,49.03113937,-122.86620331
576,GEDS-7NQMLP,Afghan Chopan,12888 80 Ave,Surrey,Restaurant,49.147994999999995,-122.86605072
577,ACAK-8YCPMD,Akash Chaat House & Restaurant,12877 80 Ave,Surrey,Restaurant,49.14842987,-122.86514282
578,HCAR-ASQMHF,Desi Bites Restaurants,12877 80 Ave,Surrey,Restaurant,49.14842987,-122.86514282
579,SHEN-B9XU28,Royal Paan,8148 128 St,Surrey,Restaurant,49.15057755,-122.86483002
580,GEDS-7R4QDM,The Royal King Palace & Convention Centre,8158 128 St,Surrey,Restaurant,49.15125275,-122.86511993
581,GEDS-7A3RL8,Kimbelee Place,12935 96 Ave,Surrey,Restaurant,49.17733765,-122.86410522
582,SYOG-5M598H,Irmandade Portuguesa Do Santo Cultural Society,12918 112 Ave,Surrey,Restaurant,49.20610809,-122.86432648
583,PNEL-8R2TQT,Imitating Christ Training Centre,12969 Crescent Rd,Surrey,Restaurant,49.05502701,-122.86314392
584,GEDS-7UDPRX,Sources Life Skills Resource Centre,12996 60 Ave,Surrey,Restaurant,49.11169815,-122.86225128
585,GEDS-7UULCR,Jon's Newtrition Kitchen,8145 130 St,Surrey,Restaurant,49.15057755,-122.86253357
586,ACAK-985U78,Subway #57253,13245 72 Ave,Surrey,Restaurant,49.13385391,-122.85542297
587,HCAR-BGKPDU,Main Choice Chinese Restaurant,13393 72 Ave,Surrey,Restaurant,49.13381195,-122.85180664
588,NDAA-9FLQ9K,Sushi Plus,10777 University Dr,Surrey,Restaurant,49.19836044,-122.85109711
589,SDFO-8MLMNB,Cafe Central,10350 University Dr,Surrey,Restaurant,49.1906662,-122.84945679
590,SDFO-8P2P32,Sunrise Cafe,13458 107A Ave,Surrey,Restaurant,49.19718552,-122.84978485
591,SHEN-B32QUF,Curry Bistro,13448 108 Ave,Surrey,Restaurant,49.19874954,-122.8493576
592,JDSO-AEFNMX,Spice of Nepal,13486 72 Ave,Surrey,Restaurant,49.13339233,-122.84879303
593,HCAR-AWDUMS,Civic Hotel - Catering Kitchen 2nd Floor,13483 103rd Ave,Surrey,Restaurant,49.19029236,-122.84810638
594,NDAA-BC2QPR,Donair Hub,10277 City Parkway,Surrey,Restaurant,49.18955231,-122.84788513
595,HCAR-BJDMAG,Gong Cha Bubble Tea Shop,10294 City Pky,Surrey,Restaurant,49.1897049,-122.84739685
596,SWOD-9Y2R2N,The Lookout Emergency Aid Society,10667 135A St,Surrey,Restaurant,49.19638062,-122.84705353
597,SYOG-5M553P,Queen Elizabeth Secondary School Cafeteria,9457 136th St,Surrey,Restaurant,49.17448202,-122.84658981
598,HCAR-ASV26J,Huyen Coffee Shop,13551 105A Ave,Surrey,Restaurant,49.1946106,-122.8466568
599,SWOD-A3NPVR,Alebi African Cuisine,10694 135A St,Surrey,Restaurant,49.19704056,-122.84670258
600,A017472    ,McDonald's #8606,6333 King George Blvd,Surrey,Restaurant,49.11831665,-122.84583282
601,RORS-5ZXQPD,Omega Pizza & Wings,7577 King George Blvd,Surrey,Restaurant,49.14042282,-122.84593964
602,HCAR-BFAMWG,Canadian Surrey Veggie Pizza & Curry House,8077 King George Blvd,Surrey,Restaurant,49.14945984,-122.84601593
603,NDAA-9B2SJL,Cultures,10153 King George Blvd,Surrey,Restaurant,49.18592072,-122.84584808
604,GEDS-7YSU36,Starbucks Coffee #4941,10153 King George Blvd,Surrey,Restaurant,49.18592072,-122.84584808
605,GEDS-6FYVJP,White Spot #658,13580 102 Ave,Surrey,Restaurant,49.18766785,-122.84597778
606,MARO-B3LPN4,Grandt Kitchen,10257 King George Blvd,Surrey,Restaurant,49.1892395,-122.84575653
607,A018869    ,Whalley Round-up Cafe,10449 King George Blvd,Surrey,Restaurant,49.19258881,-122.84564209
608,SHEN-AKAW3E,Spicy Bowl Restaurant Inc,10725 King George Blvd,Surrey,Restaurant,49.19747162,-122.8456955
609,HCAR-BE6QHR,Freshslice Pizza (King George Blvd),7218 King George Blvd,Surrey,Restaurant,49.13433075,-122.84521484
610,HCAR-ATYPHV,Fraserview Meats,7218 King George Blvd,Surrey,Restaurant,49.13433075,-122.84521484
611,A017293    ,A&W #0338,7330 King George Blvd,Surrey,Restaurant,49.13603973,-122.8452301
612,GEDS-66JRRA,Brewster's Pub,7380 King George Blvd,Surrey,Restaurant,49.13673782,-122.84520721
613,A016919    ,Burger King #08302,7488 King George Blvd,Surrey,Restaurant,49.13853836,-122.84525299
614,A020094    ,Boston Pizza #73,7488 King George Blvd,Surrey,Restaurant,49.13853836,-122.84525299
615,GEDS-6TKTH5,Izumo Sushi Japanese Restaurant,13631 100 Ave,Surrey,Restaurant,49.1844368,-122.84428406
616,MARO-AZJM7Z,Burger King,10344 King George Blvd,Surrey,Restaurant,49.19041443,-122.84506989
617,GEDS-672V2W,Subway #27914,10392 King George Blvd,Surrey,Restaurant,49.19137573,-122.8451004
618,A016526    ,Church's Chicken #1715,10542 King George Blvd,Surrey,Restaurant,49.19418335,-122.84498596
619,SHEN-AZUMHY,Papa John's (Surrey),10558 King George Blvd,Surrey,Restaurant,49.19478989,-122.84494019
620,GLAE-9WERHV,Doni Korean Restaurant,10592 King George Blvd,Surrey,Restaurant,49.19548798,-122.8441925
621,HCAR-BANU4F,Adana Grill,13647 72 Ave,Surrey,Restaurant,49.13373566,-122.84420013
622,SDFO-8EHMF4,Nahm Thai Bistro,13650 102 Ave,Surrey,Restaurant,49.1876564,-122.84368134
623,GEDS-6HPQAD,Bozzini's Restaurant (Surrey),13655 104 Ave,Surrey,Restaurant,49.19173431,-122.84373474
624,SWOD-A8QVAV,Quesada - Burritos & Tacos,13737 96 Ave,Surrey,Restaurant,49.17720795,-122.84275055
625,NDAA-9NUQZV,Starbucks Coffee #22435,13737 96 Ave,Surrey,Restaurant,49.17720795,-122.84275055
626,SWOD-A8TQQ4,Bon Ga Korean Restaurant,10356 Whalley Blvd,Surrey,Restaurant,49.1908226,-122.84171295
627,SHEN-9PAVDQ,Manis Restaurant,10768 Whalley Blvd,Surrey,Restaurant,49.19795227,-122.84208679
628,NDAA-98TQ7G,Arbourside Court,13751 74 Ave,Surrey,Restaurant,49.13739777,-122.84046173
629,GEDS-6U4THW,Pizza Hut #31104,13786 104 Ave,Surrey,Restaurant,49.19140625,-122.84037018
630,SDFO-8LHV7L,Timbergrove Kitchen,13922 101 Ave,Surrey,Restaurant,49.18577957,-122.83625793
631,GEDS-85ZT62,Gurdwara Sahib Brookside Temple,8365 140 St,Surrey,Restaurant,49.15472794,-122.83496857
632,A017226    ,Aling Mary's Filipino Restaurant,13979 104 Ave,Surrey,Restaurant,49.19166183,-122.83464813
633,HCAR-BGUV5C,Blenz Coffee Kiosk (140th St),9750 140 St,Surrey,Restaurant,49.17972565,-122.83382416
634,SHEN-AP5M2Q,Porto Fino Express,14016 32 Ave,Surrey,Restaurant,49.06010437,-122.83346558
635,GEDS-69G2FV,Occasions at the Pond,14245 56 Ave,Surrey,Restaurant,49.10531998,-122.82796478
636,HCAR-BETR5V,Dhesi Meats,14330 64 Ave,Surrey,Restaurant,49.1185112,-122.8252182
637,NDAA-9MCRET,Subway #55162,14313 Crescent Rd,Surrey,Restaurant,49.06762695,-122.82500458
638,HCAR-BLRPH3,Tasty BBQ,14351 104th Ave,Surrey,Restaurant,49.19172668,-122.8241806
639,MARO-B3LRLU,Argyll Lodge,14590 106A Ave,Surrey,Restaurant,49.19588089,-122.81782532
640,A018373    ,Bonnycastle Montessori Day Care Food Service,14630 107A Ave,Surrey,Restaurant,49.19768524,-122.81700134
641,GEDS-7AGRER,Polonia Bakery & Deli (Surrey),14641 108 Ave,Surrey,Restaurant,49.19890594,-122.81658173
642,SWOD-AENN54,Sarpanch Sweets And Restaurant,14645 108 Ave,Surrey,Restaurant,49.19888306,-122.81641388
643,HCAR-BKDNLJ,Greek Island Pizza,14657 108th Ave,Surrey,Restaurant,49.19891357,-122.81608582
644,SHEN-ALXSDR,The Guildford Shelter,14716 104 Ave,Surrey,Restaurant,49.19127274,-122.81420135
645,JDSO-AE8L4A,Subway #37799,3278 King George Blvd,Surrey,Restaurant,49.06115723,-122.81214905
646,SWOD-9Y7LFB,Mac's Convenience Store #11096,14820 108 Ave,Surrey,Restaurant,49.19856644,-122.81190491
647,NDAA-8YKME8,Sushi Zen,14839 108 Ave,Surrey,Restaurant,49.19942856,-122.81071471999999
648,SWOD-A54NS4,Scott's Landing,14877 108 Ave,Surrey,Restaurant,49.19944763,-122.8092804
649,HCAR-B84R8K,Pizza Hut #31156,15133 56 Ave,Surrey,Restaurant,49.1051712,-122.80578613
650,GEDS-84RPVZ,Surrey Damiko Sushi,2950 King George Blvd,Surrey,Restaurant,49.05568314,-122.80555725
651,SHEN-AKQP9B,Yogen Fruz (Guildford),10355 152 St,Surrey,Restaurant,49.19192505,-122.80426788
652,SDFO-8KMTQB,Kwantlen Pizza Sweets & Snacks,15122 72 Ave,Surrey,Restaurant,49.1335144,-122.8026123
653,HCAR-BFJL65,Sanhao BBQ Delight,15138 100 Ave,Surrey,Restaurant,49.18397903,-122.80252838
654,GEDS-69F2AU,Hanako Japanese Restaurant,15135 101 Ave,Surrey,Restaurant,49.18629837,-122.80270386
655,SHEN-AJDMQL,The Chopped Leaf,15161 Hwy 10,Surrey,Restaurant,49.10471729,-122.80253006
656,HCAR-BPYT9Z,Bikaner Indian Cuisine & Sweets,15161 Hwy 10,Surrey,Restaurant,49.10471729,-122.80253006
657,HCAR-B2MR8U,Imperial Garden Chinese Cuisine,1625 152 St,Surrey,Restaurant,49.03239822,-122.80168915
658,HCAR-BEZRQR,Pick & Chews,1711 152 St,Surrey,Restaurant,49.03311539,-122.80166626
659,HCAR-BJZMT2,Mastro Pizza,1959 152 St,Surrey,Restaurant,49.03727341,-122.8014679
660,PGOO-662TRV,Kiki's Restaurant,1959 152 St,Surrey,Restaurant,49.03727341,-122.8014679
661,A020308    ,Eagle Quest Golf Centers Creekside Grill,7778 152 St,Surrey,Restaurant,49.14390564,-122.80072021
662,HCAR-BD5TQ5,Greek Islands Restaurant,9547 152 St,Surrey,Restaurant,49.17590332,-122.80128479
663,A019458    ,Canadian 2 For 1 Pizza (152nd St),10070 152 St,Surrey,Restaurant,49.18541336,-122.80059814
664,GEDS-69FS3G,Bubble World (Surrey),10090 152 St,Surrey,Restaurant,49.18575287,-122.80058289
665,NDAA-AN9PBZ,Wendy's #9,10125 152 St,Surrey,Restaurant,49.18645859,-122.80117035
666,GEDS-6ACQMD,Earl's Guildford,10160 152 St,Surrey,Restaurant,49.18699646,-122.80051422
667,SHEN-B7BNSR,Lee Yuen Seafood Restaurant,1812 152 St,Surrey,Restaurant,49.03508377,-122.80086517
668,SYOG-5M5482,Royal Canadian Legion Branch #8 - Lounge,2290 152 St,Surrey,Restaurant,49.04346848,-122.8009491
669,SHEN-AZEVE8,Joyful Indulgence Cafe,15222 32 Ave,Surrey,Restaurant,49.06141663,-122.80017853
670,HCAR-BEVQV8,Mary Brown's #4020,5680 152 St,Surrey,Restaurant,49.10559845,-122.80055999999999
671,KSMH-AQCTH5,Tae Yang Gak Restaurant,10330 152 St,Surrey,Restaurant,49.19026947,-122.8000946
672,SDFO-8BD247,Be'Wiched,15230 No 10 Hwy,Surrey,Restaurant,49.10418577,-122.7997067
673,SHEN-9UJU2N,Save On Foods #918 - Kitchen,9014 152 St,Surrey,Restaurant,49.16697311,-122.79924011
674,NDAA-9B3QS3,Kwan Kee Noodle House,15277 100 Ave,Surrey,Restaurant,49.18444061,-122.79878998
675,SHEN-AU2T45,Isshin Sushi,15335 No 10 Hwy,Surrey,Restaurant,49.1046896,-122.79808571
676,SWOD-AFTSDT,Quizno's Classic Subs #7266,15335 56 Ave,Surrey,Restaurant,49.10469055,-122.79808807
677,NDAA-9A7QNA,Spice Kings,15325 56 Ave,Surrey,Restaurant,49.10524368,-122.7984314
678,SHEN-A72QX9,Archies BBQ,10180 153rd St,Surrey,Restaurant,49.18759537,-122.79788208
679,SPLH-ASUT3X,Yamako Japanese Restaurant,15355 24 Ave,Surrey,Restaurant,49.0458374,-122.79750824
680,HCAR-BEET35,Xiyu Restaurant,15355 24 Ave,Surrey,Restaurant,49.0458374,-122.79750824
681,ACAK-9CAMF5,Safeway #4914 - Starbucks Coffee,15355 24 Ave,Surrey,Restaurant,49.0458374,-122.79750824
682,SYOG-5M57NR,Johnston Heights Secondary School Cafeteria,15350 99 Ave,Surrey,Restaurant,49.18238831,-122.79671478
683,GEDS-78Z28W,Toyota Cafe,15389 Guildford Dr,Surrey,Restaurant,49.19677353,-122.79506683
684,A018984    ,Tim Hortons #311,15551 Fraser Hwy,Surrey,Restaurant,49.16241837,-122.79125977
685,GEDS-69UQBR,Fleetwood Triple O,15588 Fraser Hwy,Surrey,Restaurant,49.16171265,-122.79063416
686,GEDS-82CUW2,Thrifty Foods #9472 - Meat & Seafood Section,15745 Croydon Dr,Surrey,Restaurant,49.04809189,-122.78588104
687,NDAA-9CCPX5,Sammy J's Grill & Bar,15770 Croydon Dr,Surrey,Restaurant,49.04654694,-122.78452301
688,SPLH-9KHTLN,My Shanti,15869 Croydon Dr,Surrey,Restaurant,49.04600906,-122.7824707
689,SDFO-8HKPEW,Subway #50417,15905 Fraser Hwy,Surrey,Restaurant,49.15907288,-122.78175354
690,HCAR-BFHPG5,Manohar Vegetarian Bakery - Fleetwood,15905 Fraser Hwy,Surrey,Restaurant,49.15907288,-122.78175354
691,GEDS-7UWV6W,The Residence at Morgan Heights - Main Kitchen,15955 27 Ave,Surrey,Restaurant,49.05117798,-122.77987671
692,SPLH-98CNQM,Chui Hong Korean Chinese Restaurant,15976 108 Ave,Surrey,Restaurant,49.19859314,-122.77942657
693,GEDS-7E5SWY,Subway #28648,15976 108 Ave,Surrey,Restaurant,49.19859314,-122.77942657
694,SDFO-8DFUST,Launching Pad,984 160 St,Surrey,Restaurant,49.01996994,-122.7789917
695,SWOD-AHBR8X,Papa John's Pizza (South Surrey),2245 160 St,Surrey,Restaurant,49.04289246,-122.77955627
696,SDFO-87TMCK,Five Guys Burgers & Fries,2245 160 St,Surrey,Restaurant,49.04289246,-122.77955627
697,NDAA-95LSNV,Edith and Arthur Public House,8410 160 St,Surrey,Restaurant,49.15567017,-122.77858734
698,HCAR-BFAP7J,Mac's Convenience Store #11187,16013 Fraser Hwy,Surrey,Restaurant,49.15736771,-122.77831268
699,SPLH-9P8Q6K,Yoko Sushi & Noodle House,16013 Fraser Hwy,Surrey,Restaurant,49.15736771,-122.77831268
700,HCAR-AWNVE9,Starbucks Coffee #52925,16010 24 Ave,Surrey,Restaurant,49.04523087,-122.77856445
701,LCAL-64WQUJ,Fleetwood Place Food Service,16011 83rd Ave,Surrey,Restaurant,49.15378571,-122.77799225
702,HCAR-AW6UVW,Doma Sushi Restaurant,16033 108 Ave,Surrey,Restaurant,49.19896698,-122.77775574
703,MARO-AZ7VFD,Barcelo's Flame Grilled Chicken (24th Ave),16070 24 Ave,Surrey,Restaurant,49.04520035,-122.77735138
704,A019745    ,Fraser Heights Secondary School Cafeteria,16060 108 Ave,Surrey,Restaurant,49.19859695,-122.77693176
705,HCAR-AVHUXX,A&W Restaurant #0789,2332 160 St,Surrey,Restaurant,49.04383087,-122.77640533
706,GEDS-7M6PXX,Tim Hortons #3304,16141 24 Ave,Surrey,Restaurant,49.0458107,-122.77575684
707,SPLH-AEPLC8,Kin Thai Kitchen & Bar,2443 161A St,Surrey,Restaurant,49.04699326,-122.77529907
708,GEDS-775L8C,Holy Cross Regional Secondary School,16193 88 Ave,Surrey,Restaurant,49.16295242,-122.77380371
709,ACAK-8WDT8J,Chef's Kebab Restaurant,16225 Fraser Hwy,Surrey,Restaurant,49.15490341,-122.77200317
710,NDAA-BC5MC3,Booster Juice #565,16555 Fraser Hwy,Surrey,Restaurant,49.15194321,-122.76410675
711,GEDS-7ANM86,Clover Ridge Pizza,5989 168 St,Surrey,Restaurant,49.11117172,-122.75683594
712,NDAA-9YLSGB,Cloverdale Minor Softball Association Concession #2,6330 168 St,Surrey,Restaurant,49.11721802,-122.75643158
713,SPLH-9P2SK9,Golden Sweets & Restaurant,6377 168 St,Surrey,Restaurant,49.11811066,-122.75689697
714,A019337    ,Meridian Par 3,1054 168 St,Surrey,Restaurant,49.0211792,-122.75635529
715,ACAK-8XLNGA,Vera's Burger Shack (Brickyard),17449 56 Ave,Surrey,Restaurant,49.10437012,-122.73987579
716,HCAR-BM4QZK,Ruby Siam Thai Kitchen,5723 176th St,Surrey,Restaurant,49.10638809,-122.73519135
717,JDSO-ACNPRH,MasQueSolo Sushi and Kitchen,5827 176 St,Surrey,Restaurant,49.10833359,-122.73518372
718,SWOD-9UHPGQ,Republica Coffee Roasters,5674 176 St,Surrey,Restaurant,49.10548019,-122.73477173
719,NDAA-8ZRPYH,The Henry Public House - Bar,5708 176 St,Surrey,Restaurant,49.10625076,-122.73474884
720,GEDS-6KHW57,7-Eleven #26517,17638 60 Ave,Surrey,Restaurant,49.1113205,-122.73426819
721,HCAR-BD8TDN,Freshii (Cloverdale Mall Surrey),6476 176 St,Surrey,Restaurant,49.12001038,-122.73457336
722,NDAA-9LCTP9,Aaron's Steak & Pizza,17665 57 Ave,Surrey,Restaurant,49.1061058,-122.73323822
723,HCAR-B6H25D,Clover Lanes,5814 176A St,Surrey,Restaurant,49.10794067,-122.73347473
724,A018520    ,McDonald's #8616,17635 64 Ave,Surrey,Restaurant,49.11896896,-122.73375702
725,SHEN-9SSQ9R,Rangoli Catering & Sweets Ltd.,17665 66A Ave,Surrey,Restaurant,49.12352371,-122.7332077
726,HCAR-BM4QK9,Salty's Fish & Chips (56th Ave),17750 56th Ave,Surrey,Restaurant,49.10394287,-122.73042297
727,NDAA-A6USGM,Elements Casino - Molson Canadian Lounge,17755 60 Ave,Surrey,Restaurant,49.11171722,-122.72962952
728,GEDS-68HREG,McDonald's (Cloverdale),17960 56 Ave,Surrey,Restaurant,49.10399246,-122.72524261
729,A018350    ,Starbucks Coffee #139,17967 56 Ave,Surrey,Restaurant,49.10433578,-122.72502899
730,ACAK-99FQMH,Clover Heights Retirement Home,6209 184 St,Surrey,Restaurant,49.11513901,-122.71285248
731,HCAR-BCKQX9,Vera's Burger Shack (Fraser Hwy),18660 Fraser Hwy,Surrey,Restaurant,49.12517166,-122.70550537
732,HCAR-BKDQCL,Yotii Frozen Yogurt & Bubble Tea,18696 Fraser Hwy,Surrey,Restaurant,49.12429047,-122.70365906
733,HCAR-BCLQF8,Sockeye Sushi,18818 68 Ave,Surrey,Restaurant,49.12601089,-122.70109558
734,MARO-B8MT96,O My Tea Cafe,6820 188 St,Surrey,Restaurant,49.12660599,-122.70143127
735,SHEN-9YTQ9N,Tobiko Sushi,2711 192 St,Surrey,Restaurant,49.05150986,-122.69181824
736,HCAR-B7YVBD,Ike Sushi,19188 72 Ave,Surrey,Restaurant,49.13346481,-122.6915741
737,NDAA-9DNQLJ,Diamond Sweets & Restaurant,7228 192 St,Surrey,Restaurant,49.13415527,-122.69047546
738,NDAA-92MTDP,Domino's Pizza #10024,19475 Fraser Hwy,Surrey,Restaurant,49.11542511,-122.6827774
739,SHEN-AU2T99,Maple Pizza and Grace Market,10063 117 St,Surrey,Restaurant,49.18562317,-122.89888763
740,ACAK-9AJSSH,Rama Sweets & Restaurant,7028 120 St,Surrey,Restaurant,49.13087082,-122.89004517
741,DMIL-96GQWF,Spice Meats,7028 120 St,Surrey,Restaurant,49.13087082,-122.89004517
742,GEDS-69LMHM,Non Stop Pizza (120th St),7500 120 St,Surrey,Restaurant,49.13913727,-122.89006805
743,GEDS-6VJPCQ,Keg Steakhouse & Bar (Scott Rd),7948 120 St,Surrey,Restaurant,49.14744949,-122.89006805
744,SDFO-894NSA,Nav Sweets and Restaurant,8140 120 St,Surrey,Restaurant,49.15113831,-122.89006805
745,SHEN-A6QNHL,Chongqing Restaurant,8220 120 St,Surrey,Restaurant,49.15256882,-122.89004517
746,HCAR-BJKMKQ,Sri Periyava Dosa Bhavan Restaurant,8556 120 St,Surrey,Restaurant,49.15831757,-122.89006805
747,HCAR-AVKSJF,Crustos Pizza & Wings,8910 120 St,Surrey,Restaurant,49.1651535,-122.89006805
748,SHEN-A7LSB9,Royal Pacific Restaurant Ltd.,9190 120 St,Surrey,Restaurant,49.17021942,-122.88998413
749,SHEN-ATTUV4,The Madinaz Restaurant,9320 120 St,Surrey,Restaurant,49.17223358,-122.88991547
750,SHEN-ABMQFG,Scott Hill Pizza,9380 120 St,Surrey,Restaurant,49.17352676,-122.8899231
751,ACAK-8TMV2A,Mama Mia Gelato / Noor Mahal,7130 120 St,Surrey,Restaurant,49.13256454,-122.88946533
752,GEDS-7N929H,Nordel Sushi,12080 Nordel Way,Surrey,Restaurant,49.16109848,-122.88860321
753,SHEN-9PATK5,Golden Samosa Bakery,12025 Nordel Way,Surrey,Restaurant,49.16237259,-122.88889313
754,NDAA-966PCS,Outtakes,12161 72 Ave,Surrey,Restaurant,49.13501358,-122.8864975
755,GEDS-66S2CD,Save On Foods #939 - Deli,12130 Nordel Way,Surrey,Restaurant,49.16125107,-122.8860321
756,SWOD-AQFTDZ,Wally Lucie and Sons,12171 Sullivan St,Surrey,Restaurant,49.05577469,-122.88475037
757,RORS-65WV39,Subway #32336,12355 Pattullo Pl,Surrey,Restaurant,49.20327759,-122.87979889
758,JDSO-AC7T7X,McDonald's # 40141,12451 88 Ave,Surrey,Restaurant,49.16571045,-122.87768555
759,NDAA-8Y2SCD,Subway #52643,12477 88 Ave,Surrey,Restaurant,49.16395187,-122.87705231
760,GEDS-6S3UVB,Burger King #15397,12525 88 Ave,Surrey,Restaurant,49.16333771,-122.87573242
761,JDSO-AD4MWR,A & W #0755,8811 126 St,Surrey,Restaurant,49.16337585,-122.87378693
762,A020392    ,Grassroots Cafe,12666 72 Ave,Surrey,Restaurant,49.13362122,-122.87132263
763,NDAA-94NTVX,Veggie Hut Pizza & Pasta,7025 128 St,Surrey,Restaurant,49.13016891,-122.86815643
764,A017427    ,Subway #15577,7750 128 St,Surrey,Restaurant,49.14358139,-122.86765289
765,SDFO-8MXMMA,Calgary Sweets,7928 128 St,Surrey,Restaurant,49.14675522,-122.86766815
766,A019043    ,Shagun Sweets (Surrey),8388 128 St,Surrey,Restaurant,49.15488815,-122.86769867
767,MARO-B2LMZC,Cuisine and Company,2643 128 St,Surrey,Restaurant,49.05052948,-122.86760712
768,SWOD-AHBRRB,Satya Asha Fusion Bar & Restaurant,12818 72 Ave,Surrey,Restaurant,49.13371277,-122.86737823
769,HCAR-BA6LWN,Dragon Wok,8140 128 St,Surrey,Restaurant,49.15063477,-122.86732483
770,GEDS-77FUY9,Bollywood Banquet Hall,8166 128 St,Surrey,Restaurant,49.15130615,-122.86739349
771,HCAR-BEVSX8,Saba Foods,12889 84 Ave,Surrey,Restaurant,49.15556717,-122.86573029
772,SWOD-9X7QKV,Camy's Pizza,12849 96 Ave,Surrey,Restaurant,49.17731476,-122.86594391
773,MARO-B3ER9D,L'Aromas Coffee / Malone's,12901 16 Ave,Surrey,Restaurant,49.03150177,-122.86510468
774,NDAA-8YSPY4,Navraj Sweets & Restaurant,8148 128 St,Surrey,Restaurant,49.15057755,-122.86483002
775,JDSO-AC3PRJ,Basant Sweet,8148 128 St,Surrey,Restaurant,49.15057755,-122.86483002
776,SPLH-AUXN5M,Warehouse Lunch and Catering,8625 130 St,Surrey,Restaurant,49.15988159,-122.86274719
777,HCAR-BJ5PGE,Gulberg Catering & Production Centre,8322 130 St,Surrey,Restaurant,49.15374756,-122.86203766
778,HCAR-BFANGW,White Hart Public House,8593 132 St,Surrey,Restaurant,49.15844727,-122.85743713
779,NDAA-99WMTF,7-Eleven Canada Store #36676,9583 132 St,Surrey,Restaurant,49.17681885,-122.85715485
780,GEDS-83MVDP,Pizza 64,13190 64 Ave,Surrey,Restaurant,49.11884689,-122.85695648
781,ACAK-9C6MAB,Bon Accord Care Services Ltd,13350 Old Yale Rd,Surrey,Restaurant,49.18612289,-122.8526001
782,NDAA-9PPT45,Domino's Pizza #10085,13391 72 Ave,Surrey,Restaurant,49.13381577,-122.85191345
783,NDAA-8WQRZD,Railway Cafe,13375 115 Ave,Surrey,Restaurant,49.21175003,-122.85179138
784,HCAR-B7YVJY,Cafe Nelly,13401 108 Ave,Surrey,Restaurant,49.19909286,-122.85025787
785,JDSO-ACMLL6,Corporate Classic Caterers (Nav Canada),7421 135 St,Surrey,Restaurant,49.13725662,-122.84864807
786,GEDS-6KQRHX,Bombay Banquet Hall,7475 135 St,Surrey,Restaurant,49.13828659,-122.8487854
787,GEDS-7RLVLS,Freshslice Pizza (Surrey),10252 City Pky,Surrey,Restaurant,49.18909454,-122.84738922
788,SYOG-5M563K,Guildford Pizza & Restaurant,10727 135A St,Surrey,Restaurant,49.19752884,-122.84725952
789,HCAR-BF7Q6L,D-Plus Pizza (88th Ave),13588 88 Ave,Surrey,Restaurant,49.16252899,-122.84686279
790,GEDS-6BENH6,Surrey House of Grace,13557 King George Blvd,Surrey,Restaurant,49.19992447,-122.84647369
791,GEDS-7V3QGQ,Price Pro - Snack Bar,6899 King George Blvd,Surrey,Restaurant,49.1280365,-122.84596252
792,HCAR-BCUQRD,B & B Restaurant,8077 King George Blvd,Surrey,Restaurant,49.14945984,-122.84601593
793,NDAA-8Z8PDS,Freshslice,10153 King George Blvd,Surrey,Restaurant,49.18592072,-122.84584808
794,SWOD-A59RBM,Blenz Coffee (Central City South),10153 King George Blvd,Surrey,Restaurant,49.18592072,-122.84584808
795,MARO-AWURFL,Quesada - Burritos & Tacos,10153 King George Blvd,Surrey,Restaurant,49.18592072,-122.84584808
796,HCAR-BD2RZV,Coco Fresh Tea & Juice,10153 King George Blvd,Surrey,Restaurant,49.18592072,-122.84584808
797,SWOD-9YXM77,Go Grill,10153 King George Blvd,Surrey,Restaurant,49.18592072,-122.84584808
798,HCAR-BD9T8J,Steve's Poke Bar (Central City),10153 King George Blvd,Surrey,Restaurant,49.18592072,-122.84584808
799,SDFO-8MYVG8,Bubble 88,10209 King George Blvd,Surrey,Restaurant,49.18806458,-122.84606171
800,HCAR-BPZLWZ,Yogi's Kitchen Food Services Limited,10537 King George Blvd,Surrey,Restaurant,49.19396554,-122.84560273
801,MARO-B3ETMC,Lucky Supermarket - Fast Food,10628 King George Blvd,Surrey,Restaurant,49.19567871,-122.84516144
802,HCAR-BJLQMC,Sushi Shogun Japanese Restaurant,13591 King George Blvd,Surrey,Restaurant,49.19938278,-122.84561157
803,ACAK-8XGPZ4,Select Pizza (72nd Ave),13635 72 Ave,Surrey,Restaurant,49.13383484,-122.84434509
804,GEDS-6L7MRP,Sushi Line Japanese Restaurant,7380 King George Blvd,Surrey,Restaurant,49.13673782,-122.84520721
805,SWOD-AEVR4M,Kids & Company (King George),9900 King George Blvd,Surrey,Restaurant,49.18235779,-122.84490967
806,SWOD-A53UKG,A&W #0768,9900 King George Blvd.,Surrey,Restaurant,49.18235779,-122.84490967
807,SHEN-A72QKH,Pita Pit #235,9908 King George Blvd,Surrey,Restaurant,49.18334579,-122.84499359
808,HCAR-AVPVK9,Merienda Bakeshop,10059 Whalley Blvd,Surrey,Restaurant,49.18533707,-122.84367371
809,HCAR-BP4UGF,Espresso Cafe,7330 137th St,Surrey,Restaurant,49.13602606,-122.84257911
810,GEDS-6N4RWE,Espresso Cafe,7330 137 St,Surrey,Restaurant,49.13602448,-122.8425827
811,A018835    ,Surrey Memorial Hospital Food Service,13750 96 Ave,Surrey,Restaurant,49.17682266,-122.84243774
812,RORS-67JU29,Surrey Memorial Hospital Cafeteria #63229,13750 96 Ave,Surrey,Restaurant,49.17682266,-122.84243774
813,SWOD-A83PU8,Kids & Company (Surrey Professional),13737 96 Ave,Surrey,Restaurant,49.17720795,-122.84275055
814,SWOD-9UKPY4,Subway #63408,13737 96 Ave,Surrey,Restaurant,49.17720795,-122.84275055
815,LCAL-6TNQTM,Lucky Horse Restaurant (72nd Ave),13737 72 Ave,Surrey,Restaurant,49.13374329,-122.84177399
816,HCAR-BR5MAW,Tuan Hang Deli and Catering,13744 104th Ave,Surrey,Restaurant,49.19140423,-122.84126453
817,SWOD-AHFN3G,Captain Meat & Poultry Ltd (72nd Ave),13753 72 Ave,Surrey,Restaurant,49.13376999,-122.8405838
818,A017823    ,Dairy Queen #27109,7115 138 St,Surrey,Restaurant,49.13203812,-122.83917999
819,SHEN-AZUMAU,Taste of Himalayas,7115 138 St,Surrey,Restaurant,49.13203812,-122.83917999
820,SHEN-AZ7NZN,World Famous Chicken World (72nd Ave),13775 72 Ave,Surrey,Restaurant,49.13378906,-122.83907318
821,SPLH-ASQP6M,Taste of Pho,13979 104 Ave,Surrey,Restaurant,49.19166183,-122.83464813
822,SHEN-BCSUVC,Bacayon Chibugan,13979 104 Ave,Surrey,Restaurant,49.19166183,-122.83464813
823,SPLH-A9TUJR,Pizza Nation,13980 108 Ave,Surrey,Restaurant,49.19866943,-122.83459473
824,NDAA-8RKSYR,Polonia Sausage Deli,14045 104 Ave,Surrey,Restaurant,49.19169235,-122.83292389
825,A018912    ,Chrysalis 24 Food Service,14124 113 Ave,Surrey,Restaurant,49.20750427,-122.83097839
826,HCAR-BJ9NJN,Maria Sol Hospice 31 - Food Service,14131 Grosvenor Rd,Surrey,Restaurant,49.20719147,-122.83055115
827,HCAR-BL2SJ6,Dr Calorie Cafe,5891 144 St,Surrey,Restaurant,49.10948181,-122.82371521
828,GEDS-6TJMVF,Sullivan Heights Secondary School Food Service,6248 144 St,Surrey,Restaurant,49.11574554,-122.82294464
829,A013790    ,Enver Creek Secondary School Cafeteria,14505 84 Ave,Surrey,Restaurant,49.15582657,-122.82025146
830,A014243    ,Gracepoint Community Church,3487 King George Blvd,Surrey,Restaurant,49.06520081,-122.81843567
831,SWOD-AKBUJF,Guildford Seniors Village Food Service,14568 104A Ave,Surrey,Restaurant,49.19257736,-122.81834412
832,A019207    ,Real Canadian Superstore #1556 - Deli,14650 104 Ave,Surrey,Restaurant,49.19123459,-122.81602478
833,A016829    ,South Surrey Ice Arena - Lower Concession,2199 148 St,Surrey,Restaurant,49.04156876,-122.81524658
834,SHEN-A79QF4,Cabizerra Bistro,14775 108 Ave,Surrey,Restaurant,49.19888687,-122.8134079
835,HCAR-BANUBQ,UR Restaurant,14752 108A Ave,Surrey,Restaurant,49.19953156,-122.81371307
836,GEDS-84NQEZ,Nagoya,9175 148 St,Surrey,Restaurant,49.16977692,-122.81250763
837,GEDS-72BNAT,Rasoi Fine Indian Cuisine,3268 King George Blvd,Surrey,Restaurant,49.06108856,-122.8120575
838,GEDS-7NPR5Q,The Ellendale Program (Liz's House),11187 Ellendale Dr,Surrey,Restaurant,49.20612717,-122.81184387
839,HCAR-BLQQDV,Mauna Sushi,14839 108th Ave,Surrey,Restaurant,49.19943029,-122.81071832
840,KSMH-AQNNLT,Kids Play Cafe & Cafe Artistico,14885 60 Ave,Surrey,Restaurant,49.11196899,-122.80992126
841,A017564    ,Church's Chicken #4475,14877 108 Ave,Surrey,Restaurant,49.19944763,-122.8092804
842,NDAA-8Y9UZA,Mek's Delight,14910 104 Ave,Surrey,Restaurant,49.1913414,-122.80856323
843,GEDS-6X9W53,Cactus Club Cafe (South Point),15079 32 Ave,Surrey,Restaurant,49.06027985,-122.80492401
844,GEDS-66CQRA,Subway #23705,15141 No 10 Hwy,Surrey,Restaurant,49.10474746,-122.80495827
845,HCAR-BGKP49,Boba Boy (Surrey),15127 Hwy 10,Surrey,Restaurant,49.10542516,-122.8052317
846,A018215    ,Pacific Life Bible College Cafeteria,15100 66A Ave,Surrey,Restaurant,49.12335587,-122.80362701
847,A019248    ,Boston Pizza #61,15125 100 Ave,Surrey,Restaurant,49.1844101,-122.80340576
848,JDSO-ABZT44,Rocky Mountain Chocolate Factory (Guildford),10355 152 St,Surrey,Restaurant,49.19192505,-122.80426788
849,HCAR-BJ6UQJ,Stuffies Pastry Cafe,10355 152 St,Surrey,Restaurant,49.19192505,-122.80426788
850,SPLH-9KKNN4,Cinnzeo,10355 152 St,Surrey,Restaurant,49.19192505,-122.80426788
851,NDAA-9H3PTE,Curry Indian Cuisine,10355 152 St,Surrey,Restaurant,49.19192505,-122.80426788
852,NDAA-9BNNTT,Freshii,10355 152 St,Surrey,Restaurant,49.19192505,-122.80426788
853,GEDS-68TMF7,Moxie's Classic Grill (Surrey),10680 151A St,Surrey,Restaurant,49.19631195,-122.8024292
854,PNEL-8QKM26,Elevation Fitness,15110 54A Ave,Surrey,Restaurant,49.10151291,-122.80271149
855,NDAA-9RWU3U,BBQ King Delight Inc,8973 152 St,Surrey,Restaurant,49.16574097,-122.80180359
856,ACAK-98STQ8,Domino's Pizza #10052,15155 101 Ave,Surrey,Restaurant,49.18629837,-122.80223083
857,HCAR-BKDN84,Jav's Kaldero Authentic Filipino Cuisine,15155 101 Ave,Surrey,Restaurant,49.18629837,-122.80223083
858,SWOD-A35RCT,Sapporo Kitchen,1625 152 St,Surrey,Restaurant,49.03239822,-122.80168915
859,SWOD-A3GLTE,Taco Del Mar (Surrey),1797 152 St,Surrey,Restaurant,49.03448105,-122.8014679
860,GEDS-7XGU9Z,Time Out - Baskin Robbins,6351 152 St,Surrey,Restaurant,49.11798096,-122.80127716
861,MARO-B3ALPA,New York New York Greek Restaurant,6361 152 St,Surrey,Restaurant,49.11847305,-122.8013916
862,GEDS-7P929P,Sofi's Shawarma & Donairs,8928 152 St,Surrey,Restaurant,49.16516495,-122.80115509
863,JDSO-AD3QH2,Leaf Tea,1618 152 St,Surrey,Restaurant,49.03148651,-122.80089569
864,GEDS-6HQPVN,Starbucks Coffee #4593,2670 152 St,Surrey,Restaurant,49.05026627,-122.80093384
865,NDAA-9C4RHK,Subway #26341,2990 152 St,Surrey,Restaurant,49.05622864,-122.80089569
866,SWOD-ALRRJG,Rosemary Heights Seniors Village (Assisted Living Kitchen),15240 34 Ave,Surrey,Restaurant,49.06355667,-122.80059052
867,SPLH-ASQTDV,C-Lovers Fish and Chips (South Surrey),2655 King George Blvd,Surrey,Restaurant,49.05031586,-122.7999115
868,GEDS-7RSNY3,Garcha Bros Meat Shop (68th Ave),15299 68 Ave,Surrey,Restaurant,49.12656403,-122.79923248
869,HCAR-B6GVC8,Royal Punjab Sweets,15299 68 Ave,Surrey,Restaurant,49.12656403,-122.79923248
870,GEDS-7NJ2JT,Original Bhaia Sweet Shop,15299 68 Ave,Surrey,Restaurant,49.12656403,-122.79923248
871,HCAR-BKDQJ3,Al & Jan's Fish & Chips,9014 152 St,Surrey,Restaurant,49.16697311,-122.79924011
872,NDAA-93AV3A,Big Chicken Town,15280 101 Ave,Surrey,Restaurant,49.18597412,-122.79860687
873,NDAA-9E9SK8,Cefa Guildford,10172 152A St,Surrey,Restaurant,49.18732071,-122.79925537
874,HCAR-B8BV64,Lele Cafe,15300 105 Ave,Surrey,Restaurant,49.19317627,-122.79771423
875,HCAR-BJ9P56,Sunnyside Manor - Food Service,15340 17 Ave,Surrey,Restaurant,49.0328064,-122.79737854
876,MARO-AZMPRS,Papa Murphy`s Pizza,15355 24 Ave,Surrey,Restaurant,49.0458374,-122.79750824
877,SWOD-APTQFP,Suncrest Retirement Community,2567 King George Blvd,Surrey,Restaurant,49.0485611,-122.7977829
878,MARO-B8MS4M,Hannam Supermarket Restaurant,15357 104 Ave,Surrey,Restaurant,49.1917038,-122.79665375
879,SWOD-AKARQ2,Peace Portal Seniors Village,15441 16 Ave,Surrey,Restaurant,49.0312767,-122.79452515
880,NDAA-94NRF7,Domino's Pizza #10088,2389 King George Blvd,Surrey,Restaurant,49.04498291,-122.79437256
881,SDFO-8HVQQ6,A&W #0575,2303 King George Blvd,Surrey,Restaurant,49.0438385,-122.79200745
882,HCAR-BD2M2W,Ocean West Catering,2336 King George Blvd,Surrey,Restaurant,49.04468155,-122.79203033
883,A016854    ,Subway #11642,15551 Fraser Hwy,Surrey,Restaurant,49.16241837,-122.79125977
884,A018173    ,Evergreen Hamlets - Main Kitchen,8382 156 St,Surrey,Restaurant,49.15520859,-122.78984833
885,SDFO-89YT2W,Mink A Chocolate Cafe,15775 Croydon Dr,Surrey,Restaurant,49.04768753,-122.78492737
886,SDFO-8MYUXQ,Sushi Castle,15785 Croydon Dr,Surrey,Restaurant,49.04726791,-122.78437042
887,SHEN-B55Q3P,Active Body Express,15850 26 Ave,Surrey,Restaurant,49.04901123,-122.78305054
888,HCAR-BELQAW,Morgan Play Center,15850 26 Ave,Surrey,Restaurant,49.04901123,-122.78305054
889,SHEN-9SGNXL,Fleetwood Sushi Restaurant,15930 Fraser Hwy,Surrey,Restaurant,49.15706635,-122.78188324
890,SHEN-AZMPFK,Ok Hee Bae Food Co,15930 Fraser Hwy,Surrey,Restaurant,49.15706635,-122.78188324
891,NDAA-9EBQJ6,Full Ramen Japanese Cuisine,15925 Fraser Hwy,Surrey,Restaurant,49.1586113,-122.78131104
892,GEDS-7HQP4F,Wal-Mart #5853 - Deli/Bakery,2355 160 St,Surrey,Restaurant,49.04439163,-122.78143311
893,SPLH-9P7SUH,Dae-Ji,15940 Fraser Hwy,Surrey,Restaurant,49.15704346,-122.78096771
894,GEDS-7SDLR2,Kami Japanese Restaurant,2215 160 St,Surrey,Restaurant,49.04205704,-122.7797699
895,SDFO-8AULF9,7-Eleven #34633,15961 Fraser Hwy,Surrey,Restaurant,49.15789413,-122.77936554
896,SWOD-AHFSWE,Marble Slab Creamery (160th St),2245 160 St,Surrey,Restaurant,49.04289246,-122.77955627
897,HCAR-ATQPHX,Sal y Limon Mexican Cuisine,2428 160 St,Surrey,Restaurant,49.0464859,-122.77880859
898,GEDS-68HQ9E,McDonald's (Tynehead),9638 160 St,Surrey,Restaurant,49.17750168,-122.77845764
899,HCAR-BETMLH,Curry Lounge,16030 24 Ave,Surrey,Restaurant,49.04521942,-122.77797699
900,SHEN-APFQLS,Khalsa Rasoyee and Sweets,16055 Fraser Hwy,Surrey,Restaurant,49.15694046,-122.77709961
901,HCAR-AU2VFF,Glenwood Pizza & Curry House,16793 60 Ave,Surrey,Restaurant,49.11167526,-122.75748444
902,SHEN-9SGNQT,7-Eleven #34501,6021 168 St,Surrey,Restaurant,49.1117897,-122.7569046
903,GEDS-772UVP,Pacific Academy,10238 168 St,Surrey,Restaurant,49.18891907,-122.75624084
904,A017877    ,Royal Canadian Legion Branch #6 Bar,17567 57 Ave,Surrey,Restaurant,49.10616684,-122.73640442
905,HCAR-BKKN4C,Chaska Restaurant,5737 176 St,Surrey,Restaurant,49.10660172,-122.73519135
906,A018637    ,Elena's Country Kitchen,5630 176 St,Surrey,Restaurant,49.10466003,-122.73475647
907,PNEL-8SCPDC,Sushi King House,17617 56 Ave,Surrey,Restaurant,49.10429382,-122.73436737
908,GEDS-74DUWT,Starbucks Coffee #4775,6476 176 St,Surrey,Restaurant,49.12001038,-122.73457336
909,JDSO-AE2MNU,Golden Medal Restaurant,5619 176A St,Surrey,Restaurant,49.10463715,-122.73383331
910,A016814    ,Cloverdale Bakery,5780 176A St,Surrey,Restaurant,49.10748291,-122.73348999
911,GEDS-6VZNPH,Save On Foods #2215 - Deli,17745 64 Ave,Surrey,Restaurant,49.11971664,-122.73192596
912,SWOD-A4ZPMN,Save On Foods #2215 - Kitchen,17745 64 Ave,Surrey,Restaurant,49.11971664,-122.73192596
913,GEDS-75PLQX,Rusty's Neighbourhood Pub,17770 56 Ave,Surrey,Restaurant,49.10255432,-122.73039246
914,JCOE-67H9A8,Ricky's All Day Grill #20,17830 56 Ave,Surrey,Restaurant,49.10399628,-122.72846985
915,A018953    ,Hazelmere Golf & Tennis Club Snack Bar,18150 8 Ave,Surrey,Restaurant,49.01621628,-122.71914673
916,HCAR-B6KS2K,Salish Secondary Cafeteria,7278 184 St,Surrey,Restaurant,49.13515472,-122.71205139
917,JDSO-ACVPWV,Booster Juice (Fraser Hwy),18640 Fraser Hwy,Surrey,Restaurant,49.12546158,-122.70609283
918,HCAR-B8NUS9,Mary Brown's Famous Chicken & Taters,18655 Fraser Hwy,Surrey,Restaurant,49.1256485,-122.70528412
919,NDAA-99YMF5,Village Sushi,18690 Fraser Hwy,Surrey,Restaurant,49.12446976,-122.70401764
920,SDFO-88ESVK,5 Star Catering,5640 188 St,Surrey,Restaurant,49.10544968,-122.70131683
921,A020119    ,La Charcuterie Deli,19080 96 Ave,Surrey,Restaurant,49.17683792,-122.69441223
922,SHEN-9SZQZX,A&W Restaurant (Campbell Heights),2725 192 St,Surrey,Restaurant,49.05220032,-122.69181824
923,HCAR-BCGPK4,Chilli Bar,2755 192 St,Surrey,Restaurant,49.05247498,-122.69181824
924,JDSO-ACHTG3,Pizza Knight,19161 Fraser Hwy,Surrey,Restaurant,49.11961365,-122.69181824
925,NDAA-9PMT9A,Bright Path - Clayton Hills,7239 192 St,Surrey,Restaurant,49.13410568,-122.69113159
926,GEDS-82BRGL,Pizza Inn,19390 68 Ave,Surrey,Restaurant,49.12623978,-122.68582153
927,GEDS-7KMPWY,Delicious Korean Chicken,19475 Fraser Hwy,Surrey,Restaurant,49.11542511,-122.6827774
928,SHEN-AP5QTE,Galini Greek Kouzina & Grill,19475 Fraser Hwy,Surrey,Restaurant,49.11542511,-122.6827774
929,A019679    ,Kimchi Palace Restaurant,6019 196 St,Surrey,Restaurant,49.11155701,-122.68026733
930,A013601    ,Brownsville Bar Marine Pub,11940 Old Yale Rd,Surrey,Restaurant,49.20355988,-122.89170074
931,HCAR-BH7U4H,Anjan's Delights,6350 120 St,Surrey,Restaurant,49.11815643,-122.89006042
932,GEDS-65VTRU,Guru Nanak Sikh Gurdwara Temple,7050 120 St,Surrey,Restaurant,49.13132477,-122.88998413
933,HCAR-BJHVJ9,Westin Pizza,7182 120th St,Surrey,Restaurant,49.13365173,-122.89012146
934,A020068    ,A&W #0389,8488 120 St,Surrey,Restaurant,49.15703583,-122.89009857
935,NDAA-9NVPPU,Super Pho VN Cuisine,9544 120 St,Surrey,Restaurant,49.17643738,-122.88986206
936,NDAA-9RPTJE,East West Fusion Kitchen,12043 88 Ave,Surrey,Restaurant,49.1633873,-122.88908386
937,HCAR-BCGTSR,Triple O's Burger Restaurant (Scott Rd),10388 Scott Rd,Surrey,Restaurant,49.19232178,-122.88954926
938,JRON-6M3P9A,Fraserway Meat,12047 80 Ave,Surrey,Restaurant,49.14874268,-122.88873291
939,GEDS-67NPGB,Subway #7665,12080 Nordel Way,Surrey,Restaurant,49.16109848,-122.88860321
940,GEDS-7W7V3T,Starbucks Coffee #4976,12025 Nordel Way,Surrey,Restaurant,49.16237259,-122.88889313
941,NDAA-95HQ6Q,Kami Strawberry Hill Japanese Restaurant,12101 72 Ave,Surrey,Restaurant,49.1350174,-122.88764191
942,JRON-67B26M,Save On Foods #939 - Seafood Section,12130 Nordel Way,Surrey,Restaurant,49.16125107,-122.8860321
943,SDFO-8FEUYM,Hooked Fish Bar,12157 Beecher St,Surrey,Restaurant,49.05231094,-122.88477325
944,GEDS-6AAPTZ,Gurdwara Amrit Prakash Sikh Temple,7990 123A St,Surrey,Restaurant,49.14785767,-122.8802948
945,GEDS-66K2CZ,Community Access-Arcus Community Resources Food Service,12388 Pattullo Pl,Surrey,Restaurant,49.20246887,-122.87985992
946,A017233    ,McDonald's #8550,11011 Scott Rd,Surrey,Restaurant,49.20265579,-122.87916565
947,ACAK-8VQTQF,Turf Hotel Lounge,12411 King George Blvd,Surrey,Restaurant,49.20660019,-122.87798309
948,SWOD-A3YVCN,Turf Hotel 1967 Ltd.,12411 King George Blvd,Surrey,Restaurant,49.20660019,-122.87798309
949,SHEN-A2FN38,Pizza 64,12499 88 Ave,Surrey,Restaurant,49.16335678,-122.87666321
950,A018007    ,Sangam Palace,11267 125A St,Surrey,Restaurant,49.2073822,-122.87468719
951,SHEN-9TNMS5,Gulberg Mediterranean & Persian Grill,12578 72 Ave,Surrey,Restaurant,49.13327408,-122.87416077
952,A017154    ,Tamanawis Secondary School Cafeteria,12600 66 Ave,Surrey,Restaurant,49.122715,-122.87242889
953,GEDS-73JSZZ,H Anmol Sweet & Restaurant,8363 128 St,Surrey,Restaurant,49.1546669,-122.86936188
954,PNEL-8PJRAV,Mughal Garden Sweets & Restaurant,12788 76A Ave,Surrey,Restaurant,49.14218903,-122.86856079
955,SYOG-5M59W3,Shri Durga Mandir,7750 128 St,Surrey,Restaurant,49.14358139,-122.86765289
956,GEDS-69MQ7C,Vege Garden Pizza & Coffee Shop,8383 128 St,Surrey,Restaurant,49.15512466,-122.86833191
957,A019335    ,New Life Child Care Centre,8868 128 St,Surrey,Restaurant,49.16375351,-122.86780548
958,HCAR-BAEUWY,Sunflower Catering,2643 128 St,Surrey,Restaurant,49.05052948,-122.86760712
959,HCAR-BA7U2C,Seriously Good Catering (Royal Cdn Legion),2643 128 St,Surrey,Restaurant,49.05052948,-122.86760712
960,SYOG-5M56PQ,Punjab Sweet House,12818 72 Ave,Surrey,Restaurant,49.13371277,-122.86737823
961,SPLH-9SZQG4,KSP Shahi Catering & Sweets,12815 85 Ave,Surrey,Restaurant,49.15759659,-122.86743927
962,GEDS-6HKMMM,Subway #10105,12842 96 Ave,Surrey,Restaurant,49.17696381,-122.86654663
963,A017695    ,Princess Margaret Secondary School Cafeteria,12870 72 Ave,Surrey,Restaurant,49.13357925,-122.86538696
964,NDAA-98FRJN,Maharaja Banquet Hall,8148 128 St,Surrey,Restaurant,49.15057755,-122.86483002
965,SWOD-A3NQNT,Indian Tandoori Flare,7638 129A St,Surrey,Restaurant,49.14111527,-122.86245869
966,SWOD-APVTT6,Taj Park Convention Centre,8580 132 St,Surrey,Restaurant,49.15857697,-122.85548401
967,A016864    ,Newton Canadian Baseball Association,13313 68 Ave,Surrey,Restaurant,49.1265831,-122.8538208
968,A018866    ,Happy Farm Group Centre for Children Food Service,9458 134 St,Surrey,Restaurant,49.17457199,-122.85119629
969,HCAR-BL927Q,Dairy Queen/Orange Julius (Central City),2591C,Surrey,Restaurant,49.18791904,-122.84876653
970,NDAA-9BXPQ9,Blenz SFU Kiosk,13450 102 Ave,Surrey,Restaurant,49.18791962,-122.84877014
971,HCAR-B7KUTN,Central Cafe,10252 City Pky,Surrey,Restaurant,49.18909454,-122.84738922
972,GEDS-5SQS5N,Hyland House Food Service,6595 King George Blvd,Surrey,Restaurant,49.12268448,-122.84592438
973,ACAK-8T9NSX,KFC #1820/Taco Bell,13577 73rd Ave,Surrey,Restaurant,49.13524246,-122.84601593
974,GEDS-6N4UKL,Costco Wholesale (Surrey) Snack Bar,7423 King George Blvd,Surrey,Restaurant,49.13845062,-122.84597778
975,SHEN-A63QD6,Barcelos Flame Grilled Chicken (King George),7577 King George Blvd,Surrey,Restaurant,49.14042282,-122.84593964
976,ACAK-985LYR,Neptune Seafood Restaurant & Neptune Wonton Noodle,10153 King George Blvd,Surrey,Restaurant,49.18592072,-122.84584808
977,SHEN-A2FSZ2,Booster Juice #232,10153 King George Blvd,Surrey,Restaurant,49.18592072,-122.84584808
978,HCAR-BEJRCY,Big Orange (Central City),10153 King George Blvd,Surrey,Restaurant,49.18592072,-122.84584808
979,HCAR-BC9TWR,A&W #0735,10153 King George Hwy,Surrey,Restaurant,49.18592072,-122.84584808
980,RORS-64MN7M,Subway #27963,6468 King George Blvd,Surrey,Restaurant,49.12029648,-122.84518433
981,GEDS-775V2T,Tim Hortons #3083,7288 King George Blvd,Surrey,Restaurant,49.13492203,-122.84513855
982,GEDS-79JU38,Save On Foods #910 - Deli,7320 King George Blvd,Surrey,Restaurant,49.13512802,-122.84513855
983,HCAR-AW722C,Veneto's Cakes & Pastries,7380 King George Blvd,Surrey,Restaurant,49.13673782,-122.84520721
984,SYOG-5M5622,Real Canadian Superstore #1521 - Deli,7550 King George Blvd,Surrey,Restaurant,49.1396637,-122.84526062
985,A016716    ,Fresgo Inn,10102 King George Blvd,Surrey,Restaurant,49.18621826,-122.8451004
986,JDSO-AC4M2W,McDonald's Restaurant of Canada # 1196,10240 King George Blvd,Surrey,Restaurant,49.18861771,-122.84507751
987,SHEN-AGKN4N,Hot Pan Pizza,13634 104 Ave,Surrey,Restaurant,49.1914444,-122.84429169
988,MARO-B25NSM,Kyoto Sushi Japanese Restaurant,13651 72 Ave,Surrey,Restaurant,49.13373566,-122.8440094
989,HCAR-ASGSZD,Fraser Region Aboriginal Friendship Centre,10095 Whalley Blvd,Surrey,Restaurant,49.18594742,-122.84348297
990,GEDS-6TSR35,Scott Hill Pizza (137th St),7330 137 St,Surrey,Restaurant,49.13602448,-122.8425827
991,SHEN-AP8NDS,The Jin Sushi Japanese Restaurant,7360 137 St,Surrey,Restaurant,49.13640213,-122.84263611
992,A018909    ,North Surrey Minor Football Track Concession,13750 88 Ave,Surrey,Restaurant,49.1621666,-122.84241486
993,HCAR-B6VVH9,Surrey Memorial Hospital - Tim Horton's #8450,13750 96 Ave,Surrey,Restaurant,49.17682266,-122.84243774
994,SHEN-BDJU3G,Freshii CC2,9639 137A St,Surrey,Restaurant,49.17801666,-122.84231567
995,JDSO-ADQPYF,Madras Club House,13737 72 Ave,Surrey,Restaurant,49.13374329,-122.84177399
996,HCAR-BHNPET,Captain's Oven Pizza,9637 137A St,Surrey,Restaurant,49.17761993,-122.84222412
997,HCAR-BJLQCW,Annie's Chinese Restaurant,10320 Whalley Blvd,Surrey,Restaurant,49.19005203,-122.84169006
998,SDFO-8JQQA2,Afghan Bakery and Fast Food,13748 104 Ave,Surrey,Restaurant,49.19140244,-122.84115601
999,GEDS-7X2MK9,Pacific Billiards and Snookers,13774 104 Ave,Surrey,Restaurant,49.19141006,-122.84064484
1000,HCAR-B7224Z,Udupi Palace Restaurant,13767 72 Ave,Surrey,Restaurant,49.13376236,-122.83986664
1001,HCAR-BLGQR2,Spice Villa,7115 138 St,Surrey,Restaurant,49.13203812,-122.83917999
1002,NDAA-8YSTH8,New Hollywood Cinema,7125 138 St,Surrey,Restaurant,49.13221741,-122.83916473
1003,GEDS-6BEQ5E,Little Caesars Pizza #456-003,7135 138 St,Surrey,Restaurant,49.13246536,-122.8391571
1004,HCAR-B9MQS9,King Do Restaurant,13922 104 Ave,Surrey,Restaurant,49.1913414,-122.8365097
1005,A014563    ,Westminster House Food Service,1653 140 St,Surrey,Restaurant,49.03243637,-122.83638763
1006,GEDS-68DU3X,Vedic Hindu Cultural Society,8321 140 St,Surrey,Restaurant,49.15294647,-122.83495331
1007,NDAA-A4NNSC,Circle K #11109,13983 16 Ave,Surrey,Restaurant,49.03139496,-122.83462524
1008,HCAR-BGUV24,Blenz Coffee Cafe,9750 140 St,Surrey,Restaurant,49.17972565,-122.83382416
1009,HCAR-BA9QLB,Belles Cafe,14007 32 Ave,Surrey,Restaurant,49.06040573,-122.83325195
1010,HCAR-BJ9NCE,Maria Sol Hospice 29 - Food Service,14129 Grosvenor Rd,Surrey,Restaurant,49.20719147,-122.83055115
1011,MARO-B3TM53,Lyra Lou Cakes,14370 64 Ave,Surrey,Restaurant,49.11891556,-122.82421875
1012,HCAR-BANTEG,Subkuchh Convenience Store,14390 64 Ave,Surrey,Restaurant,49.11849594,-122.8237915
1013,A013627    ,Cedar Grove Child Development Centre Food Service,10330 144 St,Surrey,Restaurant,49.19047546,-122.82282257
1014,JDSO-ACAMN8,McDonald's #22357,14476 104 Ave,Surrey,Restaurant,49.1913147,-122.82080078
1015,A013869    ,Growing Together Day Care - Food Service,10707 146 St,Surrey,Restaurant,49.19694901,-122.81782532
1016,SHEN-9X3LYQ,WRSSBA (White Rock South Surrey Baseball Association) Concessio,14600 20 Ave,Surrey,Restaurant,49.03803253,-122.8159256
1017,GEDS-6XZP8T,Song Huong Vietnamese Restaurant,14667 108 Ave,Surrey,Restaurant,49.19887924,-122.81590271
1018,SHEN-9SZRRW,Rotary Field House,2197 148 St,Surrey,Restaurant,49.0403862,-122.81508636
1019,SWOD-AHZUMF,Lee Yuen Seafood Restaurant,14755 104 Ave,Surrey,Restaurant,49.19166946,-122.81369019
1020,SHEN-ABMTMD,Viet City Restaurant,14779 108 Ave,Surrey,Restaurant,49.19889069,-122.81326294
1021,GEDS-6Y2SA8,Man Seng Kitchen,14770 108A Ave,Surrey,Restaurant,49.19952774,-122.81343842
1022,HCAR-BJTPH5,Gangnam Sikdang,14787 108 Ave,Surrey,Restaurant,49.19888306,-122.81300354
1023,A019660    ,Panago #07,14851 108 Ave,Surrey,Restaurant,49.19943619,-122.81019592
1024,NDAA-93ES27,Townhall Public House South Surrey,3140 King George Blvd,Surrey,Restaurant,49.05918503,-122.80989838
1025,GEDS-6DSQ6B,Sabai Thai Restaurant,10391 150 St,Surrey,Restaurant,49.19105911,-122.806633
1026,ACAK-9BETLP,Subway (Guildford Mall),10355 152 St,Surrey,Restaurant,49.19192505,-122.80426788
1027,SHEN-A7GQWB,Saint Germain Bakery,10355 152 St,Surrey,Restaurant,49.19192505,-122.80426788
1028,SPLH-9CWVB6,Freshslice Pizza (152nd St Surrey),10355 152 St,Surrey,Restaurant,49.19192505,-122.80426788
1029,NDAA-9BFS8W,Starbucks Coffee #19771,10355 152 St,Surrey,Restaurant,49.19192505,-122.80426788
1030,SPLH-9LFPJW,OPA! of Greece,10355 152 St,Surrey,Restaurant,49.19192505,-122.80426788
1031,HCAR-AW6UF4,CoCo Fresh Tea & Juice,10355 152 St,Surrey,Restaurant,49.19192505,-122.80426788
1032,NDAA-9RTTCV,Milestones Restaurants,10355 152 St,Surrey,Restaurant,49.19192505,-122.80426788
1033,SHEN-A7LVFF,Chipotle Mexican Grill,10355 152 St,Surrey,Restaurant,49.19192505,-122.80426788
1034,NDAA-9NKTFG,Kernels,10355 152 St,Surrey,Restaurant,49.19192505,-122.80426788
1035,GEDS-6A5PPP,Milestone's (South Point),3085 152 St,Surrey,Restaurant,49.05783463,-122.80213165
1036,NDAA-ANGQWK,Wendy's #19,3077 152 St,Surrey,Restaurant,49.05767822,-122.80210876
1037,GEDS-69PR95,Keg Steakhouse & Bar #131,15180 32 Ave,Surrey,Restaurant,49.06140137,-122.80214691
1038,NDAA-A4FVF4,Menchie's #633,15146 100 Ave,Surrey,Restaurant,49.18396759,-122.80224609
1039,NDAA-9RNU4U,Seoul Grill House,15155 101 Ave,Surrey,Restaurant,49.18629837,-122.80223083
1040,A019397    ,Save On Foods #2235 - Kitchen,1641 152 St,Surrey,Restaurant,49.03252411,-122.80168915
1041,SHEN-B55NWZ,COBS Bread (Semiahmoo),1711 152 St,Surrey,Restaurant,49.03311539,-122.80166626
1042,GEDS-7E5PUV,Subway #10452,1797 152 St,Surrey,Restaurant,49.03448105,-122.8014679
1043,A017345    ,Danica's Bistro,1959 152 St,Surrey,Restaurant,49.03727341,-122.8014679
1044,HCAR-BGSPHD,Pizza Pizza (152nd St),5717 152 St,Surrey,Restaurant,49.10654449,-122.80143738
1045,GEDS-7XGUJU,Time Out - California Gourmet Pizza,6351 152 St,Surrey,Restaurant,49.11798096,-122.80127716
1046,A019772    ,Eagle Quest Golf Centers Main Banquet Kitchen,7778 152 St,Surrey,Restaurant,49.14390564,-122.80072021
1047,A017915    ,Starbucks Coffee #175,8898 152 St,Surrey,Restaurant,49.16465759,-122.80117035
1048,ACAK-8VATBP,Dairy Queen #27172,9110 152 St,Surrey,Restaurant,49.16855621,-122.80107117
1049,SYOG-5M58ZM,Johnston Heights Church,9612 152 St,Surrey,Restaurant,49.17741394,-122.8007431
1050,HCAR-BDGRHU,Bubble Tea Share Tea,9965 152 St,Surrey,Restaurant,49.18379211,-122.80126953
1051,SPLH-9NKPBX,Palmyra Mediterranean Grill,10020 152 St,Surrey,Restaurant,49.18460083,-122.80059814
1052,SHEN-A47S4X,Maguro Japanese Restaurant,10090 152 St,Surrey,Restaurant,49.18575287,-122.80058289
1053,GEDS-6Q4UFR,White Spot #629,10181 152 St,Surrey,Restaurant,49.18706512,-122.80131531
1054,SWOD-AF3QQF,Ay Chihuahua Mexican Food,1726 152 St,Surrey,Restaurant,49.03329849,-122.80093384
1055,NDAA-9KDS9C,Branch 8 Canteen,2290 152 St,Surrey,Restaurant,49.04346848,-122.8009491
1056,HCAR-B83S78,Pizza Pizza #551,2370 152 St,Surrey,Restaurant,49.04507446,-122.80095673
1057,NDAA-9S2VV2,Hanaya Japanese Restaurant,2828 152 St,Surrey,Restaurant,49.0532608,-122.80090332
1058,SHEN-BCSM8W,Nando's Chicken (White Rock),3010 152 St,Surrey,Restaurant,49.05677414,-122.80092621
1059,GEDS-85UR69,Big Ridge Brewing Company,5580 152 St,Surrey,Restaurant,49.10381699,-122.80067444
1060,SPLH-ASUNJH,Relate Church,6788 152 St,Surrey,Restaurant,49.12579727,-122.80067444
1061,GEDS-76HV2F,Gurdwara Dukh Nivaran Sahib Society,15255 68 Ave,Surrey,Restaurant,49.12656403,-122.79989624
1062,GEDS-642SW4,Pearl Fever (Surrey),10330 152 St,Surrey,Restaurant,49.19026947,-122.8000946
1063,SPLH-AZ8NW8,Mindful Juice Bar,10330 152 St,Surrey,Restaurant,49.19026947,-122.8000946
1064,HCAR-BJKP2Z,Super Vege Pizza (Unit 117),15299 68 Ave,Surrey,Restaurant,49.12656403,-122.79923248
1065,A017919    ,Little Caesars Pizza #456-006,8888 152A St,Surrey,Restaurant,49.16418076,-122.79941559
1066,SPLH-ARLUG4,Lazeez Pizza,9014 152 St,Surrey,Restaurant,49.16697311,-122.79924011
1067,SHEN-AP8QAU,Coffee Monster,15285 101 Ave,Surrey,Restaurant,49.18638611,-122.79867554
1068,ACAK-8HLT5U,Semiahmoo House Society,15306 24 Ave,Surrey,Restaurant,49.04543686,-122.79802704
1069,ACAK-9CAMG4,Safeway #4914 - China Kitchen,15355 24 Ave,Surrey,Restaurant,49.0458374,-122.79750824
1070,HCAR-BDQT2A,Quesada #188,5577 153A St,Surrey,Restaurant,49.10347366,-122.79729462
1071,HCAR-BN2NYF,Hangry Health Bar,15380 102A Ave,Surrey,Restaurant,49.18859323,-122.79625235
1072,HHIN-BD2Q4V,Garcha Bros Meat Shop and Poultry,15428 Fraser Hwy,Surrey,Restaurant,49.16326523,-122.79471588
1073,GEDS-7D3TRN,Golden Lion Restaurant,2377 King George Blvd,Surrey,Restaurant,49.04494858,-122.79332733
1074,SHEN-B7BQC5,Best Western Peace Arch Inn,2293 King George Blvd,Surrey,Restaurant,49.04345703,-122.79142761
1075,GEDS-7BLPWS,Bucky's West Coast Pizzeria,15562 24 Ave,Surrey,Restaurant,49.04542542,-122.79137421
1076,SHEN-A3BV36,Menchies Frozen Yogurt - Morgan Crossing,15775 Croydon Dr,Surrey,Restaurant,49.04768753,-122.78492737
1077,SHEN-B23UYW,Menzou Ramen,15785 Croydon Dr,Surrey,Restaurant,49.04726791,-122.78437042
1078,HCAR-ATHUTY,Noodlebox,15785 Croydon Dr,Surrey,Restaurant,49.04726791,-122.78437042
1079,NDAA-9HDSBY,Famoso Neapolitan,15865 Croydon Dr,Surrey,Restaurant,49.04587173,-122.78246307
1080,GEDS-7CVR6H,CareLife Fleetwood - Food Service,8265 159 St,Surrey,Restaurant,49.15269089,-122.78202057
1081,GEDS-6E3SXC,Tobiko Sushi,15951 Fraser Hwy,Surrey,Restaurant,49.15815735,-122.78025055
1082,GEDS-6U4QJY,Pizza Hut #31122,15951 Fraser Hwy,Surrey,Restaurant,49.15815735,-122.78025055
1083,A016730    ,North Surrey Secondary School Cafeteria,15945 96 Ave,Surrey,Restaurant,49.1770668,-122.7803421
1084,GEDS-7LLUH7,McJac's Roadhouse Grille Restaurant,1781 King George Blvd,Surrey,Restaurant,49.03425598,-122.78005219
1085,A017335    ,A&W #0348,15988 Fraser Hwy,Surrey,Restaurant,49.15724945,-122.77954102
1086,SPLH-9KKLS7,Salty's Fish And Chips,15953 Fraser Hwy,Surrey,Restaurant,49.1587944,-122.78014374
1087,SHEN-9ZWSSQ,Bakeshop and Cafe,16011 Fraser Hwy,Surrey,Restaurant,49.15740967,-122.77842712
1088,MARO-AWVUPN,Crispy Falafel,16050 24 Ave,Surrey,Restaurant,49.04470444,-122.77767944
1089,HCAR-B7YPEQ,Papa Joe's Pizza,16055 Fraser Hwy,Surrey,Restaurant,49.15694046,-122.77709961
1090,GEDS-6JTQZT,Baselines Pub,8233 166 St,Surrey,Restaurant,49.15164185,-122.76197052
1091,A018273    ,Northview Golf & Country Club (Kitchen/Duffey's Sports Grill),6857 168 St,Surrey,Restaurant,49.12596512,-122.75822449
1092,GEDS-7ZPMT4,Otter Gas Bar @ Surrey,16788 104 Ave,Surrey,Restaurant,49.19146729,-122.75688934
1093,SHEN-A76R64,Fraserview Meats,6377 168 St,Surrey,Restaurant,49.11811066,-122.75689697
1094,SYOG-5M55QD,Cloverdale Minor Baseball Association Concession,17333 61A Ave,Surrey,Restaurant,49.11375049,-122.74210265
1095,SHEN-9W7N2C,Charcoal & Woodz,17530 64 Ave,Surrey,Restaurant,49.11854172,-122.73720551
1096,HCAR-B3WMVR,Pizza Boss,5775 176 St,Surrey,Restaurant,49.10733795,-122.73518372
1097,A017608    ,Nikko Sushi (Cloverdale),5676 176 St,Surrey,Restaurant,49.10555267,-122.7347641
1098,NDAA-8ZRP23,The Henry Public House,5708 176 St,Surrey,Restaurant,49.10625076,-122.73474884
1099,GEDS-7NJ23W,Umami Sushi,17725 64 Ave,Surrey,Restaurant,49.11896133,-122.73213959
1100,SCOH-AVBP5R,Bill Reid Place,17752 Colebrook Rd,Surrey,Restaurant,49.09910202,-122.73046112
1101,HCAR-B6KN9C,Sugar Patisserie,17767 64 Ave,Surrey,Restaurant,49.11898422,-122.73023987
1102,ACAK-96MQ4H,Dragon Lounge,17755 60 Ave,Surrey,Restaurant,49.11171722,-122.72962952
1103,NDAA-9H4SAQ,Sharondale Lodge,17826 57 Ave,Surrey,Restaurant,49.10591507,-122.7287674
1104,NDAA-AN9QXE,Wendy's #25,17911 56 Ave,Surrey,Restaurant,49.10441208,-122.72669983
1105,A018910    ,Hazelmere Golf & Tennis Club Main Dining Room,18150 8 Ave,Surrey,Restaurant,49.01621628,-122.71914673
1106,GEDS-738QQL,Newton Pizza (64th Ave),18408 64 Ave,Surrey,Restaurant,49.11859131,-122.71199036
1107,GEDS-6NLNUT,Starbucks Coffee #4620,18737 Fraser Hwy,Surrey,Restaurant,49.1246376,-122.70301819
1108,SDFO-88VM3L,COBS Bread (Fraser Hwy),18775 Fraser Hwy,Surrey,Restaurant,49.12479401,-122.70209503
1109,A017685    ,Clayton Heights Secondary School Cafeteria,7003 188 St,Surrey,Restaurant,49.12921524,-122.70191193
1110,SPLH-9KKPBC,Little Greek Restaurant,19110 96 Ave,Surrey,Restaurant,49.17682648,-122.6931839
1111,NDAA-9GVU9Z,Kalamaki Greek Grill,2711 192 St,Surrey,Restaurant,49.05150986,-122.69181824
1112,MARO-AZHTMX,Hugo's Mexican Kitchen,19181 Fraser Hwy,Surrey,Restaurant,49.11938095,-122.69120789
1113,NDAA-9NUPG4,Subway Sandwiches,19186 96 Ave,Surrey,Restaurant,49.1768074,-122.69107056
1114,SHEN-A7GQGT,Tomu Sushi,9613 192 St,Surrey,Restaurant,49.17736053,-122.6907196
1115,HCAR-BK2RDU,Snack Stop & Convenience Store,9613 192 St,Surrey,Restaurant,49.17736053,-122.6907196
1116,HCAR-BLHNUB,Yakko Sushi,19537 Fraser Hwy,Surrey,Restaurant,49.11499575,-122.68167777
1117,GEDS-7VFVD6,Brookside Lodge,19550 Fraser Hwy,Surrey,Restaurant,49.11413956,-122.68094635
1118,HCAR-BGET7R,Agoongyi Korean Restaurant,19555 Fraser Hwy,Surrey,Restaurant,49.11473846,-122.6811142
1119,GEDS-6RUV4W,Mongolie Grill,19583 Fraser Hwy,Surrey,Restaurant,49.11431503,-122.68019867
1120,SHEN-A79US9,Spice of Punjab Sweets & Restaurant,6350 120 St,Surrey,Restaurant,49.11815643,-122.89006042
1121,GEDS-65GQZK,Superior Produce,6350 120 St,Surrey,Restaurant,49.11815643,-122.89006042
1122,NDAA-BCKQA9,Krishna's Dosa Palace,7500 120 St,Surrey,Restaurant,49.13913727,-122.89006805
1123,SYOG-5M5942,7-Eleven #26365,7986 120 St,Surrey,Restaurant,49.14818954,-122.89022064
1124,JDSO-ADSL2J,Miyagi Japanese Restaurant,8556 120 St,Surrey,Restaurant,49.15831757,-122.89006805
1125,GEDS-75NVFM,Krishnas Dosa Grill,8910 120 St,Surrey,Restaurant,49.1651535,-122.89006805
1126,KSMH-ATMS8A,Rana Catering,8910 120 St,Surrey,Restaurant,49.1651535,-122.89006805
1127,NDAA-8RNNVR,555 Pizza Ltd,9192 120 St,Surrey,Restaurant,49.17027283,-122.88998413
1128,HCAR-BHDPQM,Mac's Convenience Store #11020,9194 120 St,Surrey,Restaurant,49.17032242,-122.8899765
1129,GEDS-6ZBMVJ,Mahek Restaurant & Lounge,9470 120 St,Surrey,Restaurant,49.17490387,-122.88991547
1130,PNEL-8Q9REB,Burger King #18332,10355 120 St,Surrey,Restaurant,49.19095612,-122.8907547
1131,SHEN-AMTPVU,Starbucks Coffee #29383,10385 120 St,Surrey,Restaurant,49.19157791,-122.89069366
1132,NDAA-9QCMD8,Flex Fitness Club,7130 120 St,Surrey,Restaurant,49.13256454,-122.88946533
1133,SHEN-AJDQCL,One More Thai Restaurant,7158 120 St,Surrey,Restaurant,49.13337326,-122.8899231
1134,MARO-B3LULE,Zaiqa Halal BBQ Restaurant,9450 120 St,Surrey,Restaurant,49.17459869,-122.88900757
1135,HCAR-ATHRE5,Domino's Pizza #10063,9450 120 St,Surrey,Restaurant,49.17459869,-122.88900757
1136,NDAA-9C5SN9,Pizza Plus 96,12050 96 Ave,Surrey,Restaurant,49.17699814,-122.88746643
1137,SODN-65HTBW,Tim Hortons #2656,12110 Nordel Way,Surrey,Restaurant,49.16168976,-122.88694
1138,HCAR-BCZV29,Cotto Al Mare,2728 O'Hara Lane,Surrey,Restaurant,49.05250931,-122.88487244
1139,A013615    ,Alexandra Neighbourhood House (Main Dining Hall),2916 McBride Ave,Surrey,Restaurant,49.05540466,-122.8850708
1140,GEDS-6L7TYA,Sunflower Organics & Deli,12310 Beecher St,Surrey,Restaurant,49.05290222,-122.88077545
1141,SPLH-9SZU57,Aria Banquet & Convention Centre,12350 Pattullo Pl,Surrey,Restaurant,49.20319748,-122.88030243
1142,SHEN-ABMQBQ,Kairali Village Restaurant,12414 82 Ave,Surrey,Restaurant,49.15186691,-122.87853241
1143,GEDS-6MNMCW,Kamal Sweets & Tandoori Hut,6977 128 St,Surrey,Restaurant,49.12968445,-122.86806488
1144,PNEL-8RHMJZ,La Tandoori Pick & Go Restaurant,7743 128 St,Surrey,Restaurant,49.14345932,-122.86817169
1145,SHEN-AP5SUE,Vegetarian Delite Bakery (Surrey),8078 128 St,Surrey,Restaurant,49.1493454,-122.86766052
1146,A017303    ,Subway #13542,1623 128 St,Surrey,Restaurant,49.03162766,-122.86772156
1147,JCOE-67H9A4,Royal Canadian Legion Branch #240,2643 128 St,Surrey,Restaurant,49.05052948,-122.86760712
1148,GEDS-68RU3A,Dhaliwal Banquet Hall,8166 128 St,Surrey,Restaurant,49.15130615,-122.86739349
1149,HCAR-BVNNEX,Donair Dude (Surrey),12830 96th Ave,Surrey,Restaurant,49.17696905,-122.86709444
1150,A020053    ,Kid's Play Daycare Centre Food Service,12819 Old Yale Rd,Surrey,Restaurant,49.19765472,-122.86695862
1151,SDFO-8HKP7E,Pattullo A&W,12808 King George Blvd,Surrey,Restaurant,49.20610809,-122.86680603
1152,SHEN-AZ7U52,COBS Bread (16th Ave),12857 16 Ave,Surrey,Restaurant,49.03150558,-122.86585236
1153,A019243    ,McDonald's #8249,12930 96 Ave,Surrey,Restaurant,49.17695618,-122.86463165
1154,NDAA-9P3PZH,Riverside Signature Banquet Hall,13030 76 Ave,Surrey,Restaurant,49.14081573,-122.86117554
1155,HCAR-BFVTU5,Tiny Wings Children's Centre - Food Service,13047 24 Ave,Surrey,Restaurant,49.04592896,-122.8605957
1156,JDSO-ACGS7Y,Ocean Park Pizza,13186 104 Ave,Surrey,Restaurant,49.19151306,-122.85719299
1157,GEDS-6TEV3Q,Panorama Ridge Secondary School Food Service,13220 64 Ave,Surrey,Restaurant,49.11878967,-122.8549881
1158,JDSO-AC4SZY,Freshslice Pizza,10777 University Dr,Surrey,Restaurant,49.19836044,-122.85109711
1159,HCAR-B6J27A,Steve Cobon Building (Site #3),13455 107A Ave,Surrey,Restaurant,49.19756699,-122.84953308
1160,RORS-5UYPM9,Elgin Park Secondary School Cafeteria,13484 24 Ave,Surrey,Restaurant,49.0455513,-122.84858704
1161,GEDS-6M4MKD,Sub Garden #1,13482 72 Ave,Surrey,Restaurant,49.13339233,-122.84889221
1162,NDAA-AC3N6U,Pop Up Soup Kitchen,13483 72 Ave,Surrey,Restaurant,49.13375473,-122.84889221
1163,HCAR-BGMQU2,Next Level Fitness,13569 76 Ave,Surrey,Restaurant,49.1409874,-122.8470459
1164,GEDS-7V3QCJ,Price Pro - Deli,6899 King George Blvd,Surrey,Restaurant,49.1280365,-122.84596252
1165,HCAR-BEFQ6Q,QianDao,10153 King George Blvd,Surrey,Restaurant,49.18592072,-122.84584808
1166,GEDS-6NLQMW,T&T Supermarket #13 - Hot Deli Section,10153 King George Blvd,Surrey,Restaurant,49.18592072,-122.84584808
1167,GEDS-6NLQRN,T&T Supermarket #13 - Sushi Section,10153 King George Blvd,Surrey,Restaurant,49.18592072,-122.84584808
1168,ACAK-8UASYF,D-Plus Pizza (King George Blvd),10207 King George Blvd,Surrey,Restaurant,49.1879921,-122.84606171
1169,SWOD-A45NPC,Mahaveer Chef's Choice,10227 King George Blvd,Surrey,Restaurant,49.18849945,-122.84571075
1170,ACAK-9CALNC,Safeway #4900 - Starbucks Coffee,10355 King George Blvd,Surrey,Restaurant,49.1907196,-122.84580231
1171,GEDS-7A2PK4,Taste of Africa,10663 King George Blvd,Surrey,Restaurant,49.19643402,-122.8455658
1172,NDAA-9B3TGR,Pacific Kabab Hut & Catering,10731 King George Blvd,Surrey,Restaurant,49.19765472,-122.84570313
1173,SHEN-BCSV32,Royal Canadian Legion Branch #229 (King George Blvd),10767 King George Blvd,Surrey,Restaurant,49.19833755,-122.84600067
1174,SWOD-AHGRV8,Red Rose Restaurant,6914 King George Blvd,Surrey,Restaurant,49.12821579,-122.84516907
1175,HCAR-B9QS7W,Peaceful Restaurant,7320 King George Blvd,Surrey,Restaurant,49.13512802,-122.84513855
1176,A017856    ,Subway #22635,7550 King George Blvd,Surrey,Restaurant,49.1396637,-122.84526062
1177,SDFO-8BWQEE,Vlassis Souvlaki & Greek Taverna,10028 King George Blvd,Surrey,Restaurant,49.18496704,-122.8449707
1178,HCAR-BRZN5A,Chic Chic Chicken,13647 72nd Ave,Surrey,Restaurant,49.13373657,-122.84420289
1179,SPLH-ASQPK5,What The Pho,13655 72 Ave,Surrey,Restaurant,49.13373947,-122.84391785
1180,JDSO-ACPLHD,Taste Of Punjab Restaurant,10009 Whalley Blvd,Surrey,Restaurant,49.1848526,-122.84347534
1181,SWOD-AKEM7K,BBQ Nation,7238 137 St,Surrey,Restaurant,49.13453293,-122.84261322
1182,HHIN-BE4R69,Bear Creek Park Train & Mini Golf,13750 88 Ave,Surrey,Restaurant,49.1621666,-122.84241486
1183,HCAR-BJASBB,Sub and Me,13744 104 Ave,Surrey,Restaurant,49.19140244,-122.84126282
1184,SWOD-AFPRZP,Subway #7752,13745 72 Ave,Surrey,Restaurant,49.13376617,-122.84112549
1185,GEDS-6HJTPV,Bhaia Sweet & Restaurant,13753 72 Ave,Surrey,Restaurant,49.13376999,-122.8405838
1186,ACAK-9BEQ5F,Go Bananas/Funky Monkey Playcenter (Surrey),13853 104 Ave,Surrey,Restaurant,49.1917038,-122.8380661
1187,SYOG-5M5624,Bear Creek Market,8776 140 St,Surrey,Restaurant,49.16246033,-122.83440399
1188,NDAA-92XPX8,Green Timbers Market (RCMP),14200 Green Timbers Way,Surrey,Restaurant,49.17966843,-122.82991791
1189,SHEN-ANSLB4,Top In Town Pizza,14330 64 Ave,Surrey,Restaurant,49.1185112,-122.8252182
1190,JDSO-AD4M9J,Donair Affair,14350 64 Ave,Surrey,Restaurant,49.11891937,-122.82463074
1191,SPLH-9NEUHG,Zugba Flame Grilled Chicken,14351 104 Ave,Surrey,Restaurant,49.19172668,-122.8241806
1192,NDAA-948T7W,Four Seasons,14351 104 Ave,Surrey,Restaurant,49.19172668,-122.8241806
1193,SWOD-AHBPCH,Dawood's Meat & Pizzaria,14620 64 Ave,Surrey,Restaurant,49.118927,-122.81710052
1194,HCAR-BEFPJF,Softball City - Bullpen,2201 148 St,Surrey,Restaurant,49.04327393,-122.81479645
1195,SHEN-AZ7P7E,Gateway Pizza & Curry House,9183 148 St,Surrey,Restaurant,49.16994095,-122.8125
1196,GEDS-6ZXNY3,Subway #17012,14806 108 Ave,Surrey,Restaurant,49.19856644,-122.81211853
1197,SYOG-5M59T6,Guildford Gardens Daycare,14921 107A Ave,Surrey,Restaurant,49.198326109999996,-122.80867767
1198,NDAA-9GUMV3,Sportica's Excellent Ice - On Ice Grill,15000 54A Ave,Surrey,Restaurant,49.10157776,-122.80802155
1199,GEDS-6KQRZZ,Akasaka Japanese Restaurant (Surrey),15110 101 Ave,Surrey,Restaurant,49.18597031,-122.80339813
1200,NDAA-9C3S9V,Thai Express,10355 152 St,Surrey,Restaurant,49.19192505,-122.80426788
1201,NDAA-8PYQHK,Subway #52889,15122 72 Ave,Surrey,Restaurant,49.1335144,-122.8026123
1202,NDAA-9R9MQD,Scott Hill Pizza,15154 Fraser Hwy,Surrey,Restaurant,49.16640091,-122.80266571
1203,GEDS-68TMHX,M Bar,10680 151A St,Surrey,Restaurant,49.19631195,-122.8024292
1204,MARO-AZFTJ5,Freshslice Pizza (152nd St),1711 152 St,Surrey,Restaurant,49.03311539,-122.80166626
1205,HCAR-BP6UHP,Freshii (152nd St),1767 152nd St,Surrey,Restaurant,49.03378679,-122.80164304
1206,SWOD-AFTRCP,McDonald's #8240,1789 152 St,Surrey,Restaurant,49.0341301,-122.8014679
1207,A018363    ,Guildford Golf & Country Club Lounge,7929 152 St,Surrey,Restaurant,49.14458466,-122.80138397
1208,A018364    ,Guildford Golf & Country Club Restaurant,7929 152 St,Surrey,Restaurant,49.14458466,-122.80138397
1209,ACAK-9CAMPV,Safeway #4920 - Deli,8860 152 St,Surrey,Restaurant,49.1637764,-122.80132294
1210,ACAK-8T9PGA,KFC #1818/Taco Bell,9056 152 St,Surrey,Restaurant,49.16740036,-122.80096436
1211,SHEN-AZMSSS,Steve's Poke Bar,9965 152 St,Surrey,Restaurant,49.18379211,-122.80126953
1212,A019861    ,Tasters Bakery,10090 152 St,Surrey,Restaurant,49.18575287,-122.80058289
1213,A018937    ,Jade Valley Restaurant,10090 152 St,Surrey,Restaurant,49.18575287,-122.80058289
1214,HCAR-B9RRK2,Sushi Tengoku,10194 152 St,Surrey,Restaurant,49.18767929,-122.80063629
1215,HCAR-BAHMN8,Mr. Tonkatsu,10320 152 St,Surrey,Restaurant,49.19010925,-122.80059814
1216,GEDS-6VQNPM,Baselines Pub,1938 152 St,Surrey,Restaurant,49.03725052,-122.80091858
1217,NDAA-A4NQ5T,Maguroguy Asian Cuisine,2670 152 St,Surrey,Restaurant,49.05026627,-122.80093384
1218,LCAL-7FFQXD,De Dutch Pannekoek House (Fraser Hwy),15235 Fraser Hwy,Surrey,Restaurant,49.16586304,-122.80028534
1219,GEDS-7HVQF2,Super Vege Pizza,15299 68 Ave,Surrey,Restaurant,49.12656403,-122.79923248
1220,A019703    ,T&T (Surrey) Bakery,15277 100 Ave,Surrey,Restaurant,49.18444061,-122.79878998
1221,SWOD-9Z3M5P,Sashimi & Sushi Express,15277 100 Ave,Surrey,Restaurant,49.18444061,-122.79878998
1222,HCAR-B7MRKA,Jin Soo Sung Chan Korean Restaurant,10312 152A St,Surrey,Restaurant,49.18971634,-122.79924774
1223,GEDS-66BRLC,Sheraton Vancouver Guildford Hotel - Fresh Lounge,15269 104 Ave,Surrey,Restaurant,49.19170761,-122.79884338
1224,GEDS-66BRNT,Sheraton Vancouver Guildford Hotel - Fresh Restaurant,15269 104 Ave,Surrey,Restaurant,49.19170761,-122.79884338
1225,GEDS-646TNK,Notti Biscotti,15252 32 Ave,Surrey,Restaurant,49.06100845,-122.79846954
1226,NDAA-9QJQ4J,Sources Women's Place,15318 20 Ave,Surrey,Restaurant,49.0381813,-122.79801941
1227,ACAK-9CAME9,Safeway #4914 - Deli,15355 24 Ave,Surrey,Restaurant,49.0458374,-122.79750824
1228,SHEN-AGNMSP,Seniors Come Share Society Day Program for Adults,15355 102A Ave,Surrey,Restaurant,49.18894958,-122.79663849
1229,LCAL-6TFPM4,Tap Urban Cafe & Lounge,15350 34 Ave,Surrey,Restaurant,49.06361008,-122.79698944
1230,A019546    ,Surrey Canadian Baseball (Lionel Courchene Park),99 Ave & 154 St,Surrey,Restaurant,49.18255615,-122.79538727
1231,A016843    ,McDonald's #8434,15574 Fraser Hwy,Surrey,Restaurant,49.16195679,-122.79133606
1232,A019324    ,Ricky's Country Restaurant,2160 King George Blvd,Surrey,Restaurant,49.04140854,-122.78780365
1233,NDAA-9K2Q6R,Bamboo Restaurant,15785 Croydon Dr,Surrey,Restaurant,49.04726791,-122.78437042
1234,A018410    ,Fleetwood Park Fastpitch Concession,15802 80 Ave,Surrey,Restaurant,49.14807892,-122.78314972
1235,GEDS-7N9MKV,The Palms Bistro,9008 158 St,Surrey,Restaurant,49.16662979,-122.78337096999999
1236,NDAA-93TW5R,Starbucks Coffee #18290,15850 26 Ave,Surrey,Restaurant,49.04901123,-122.78305054
1237,SHEN-AGKQRM,McDonald's #8957,2355 160 St,Surrey,Restaurant,49.04439163,-122.78143311
1238,SHEN-AKQNEW,Quizno's #674,15940 Fraser Hwy,Surrey,Restaurant,49.15704346,-122.78096771
1239,HCAR-AZXTPE,Freshii (Fleetwood),15940 Fraser Hwy,Surrey,Restaurant,49.15704346,-122.78096771
1240,SDFO-8EAUE3,Starbucks Coffee #4105,15941 Fraser Hwy,Surrey,Restaurant,49.15831757,-122.78059387
1241,HCAR-BQ9U6G,Delight Indian Bistro,2215 160th St,Surrey,Restaurant,49.0420561,-122.77977157
1242,GEDS-77ZUHF,Starbucks Coffee #4811,15976 108 Ave,Surrey,Restaurant,49.19859314,-122.77942657
1243,SHEN-9PQPQM,Pizza Pit,15989 108 Ave,Surrey,Restaurant,49.19895935,-122.77929688
1244,JDSO-ACANKX,Dad's Donair & Specialty Foods,15989 108 Ave,Surrey,Restaurant,49.19895935,-122.77929688
1245,HCAR-AWLS36,Don Asian Kitchen,2181 160 St,Surrey,Restaurant,49.0415802,-122.7795639
1246,SPLH-AZWSP7,Top In Town Pizza (Fraser Hwy),16016 Fraser Hwy,Surrey,Restaurant,49.15693283,-122.77828217
1247,HCAR-ATMPPQ,Freshii (24th Ave),16030 24 Ave,Surrey,Restaurant,49.04521942,-122.77797699
1248,NDAA-A6HSNT,Tim Hortons #1095,16033 108 Ave,Surrey,Restaurant,49.19896698,-122.77775574
1249,HCAR-BP5QNJ,Chicago Pizza,16033 108th Ave,Surrey,Restaurant,49.1989669,-122.77775438
1250,GEDS-7RRUYU,Starbucks Coffee #4865,2453 161A St,Surrey,Restaurant,49.04708099,-122.77611542
1251,SPLH-9KJPHF,De Dutch #10,2433 161A St,Surrey,Restaurant,49.04668045,-122.77529907
1252,PLAE-7SQTAA,Five Corner Convenience,5989 168 St,Surrey,Restaurant,49.11117172,-122.75683594
1253,HCAR-BFBPNN,Boothroyd Heritage Coffee,16811 60 Ave,Surrey,Restaurant,49.11169815,-122.75632477
1254,SWOD-9YWMPT,Surrey Golf Club Bar,7700 168 St,Surrey,Restaurant,49.14223862,-122.75631714
1255,GEDS-6R5QMX,Fraser Glen Pizza,16814 104 Ave,Surrey,Restaurant,49.19147491,-122.75605011
1256,SWOD-AN6QEV,Lighthouse Fresh and Tasty (Hwy 10),17433 Hwy 10,Surrey,Restaurant,49.1043698,-122.74012182
1257,GEDS-7NQ2E6,Bethshan Gardens,17528 59 Ave,Surrey,Restaurant,49.10942841,-122.73727417
1258,SHEN-9T8MWG,The Rustic Rooster,5723 176 St,Surrey,Restaurant,49.10638809,-122.73519135
1259,SHEN-9Z5V5E,Chaba Thai Restaurant,5723 176 St,Surrey,Restaurant,49.10638809,-122.73519135
1260,A016586    ,Cloverdale Ice Arena,6090 176 St,Surrey,Restaurant,49.11322403,-122.73436737
1261,GEDS-6VYU4Q,Subway #33525,17755 64 Ave,Surrey,Restaurant,49.1189537,-122.73146057
1262,PGOO-68KPB5,Mirage Banquet Hall,17767 64 Ave,Surrey,Restaurant,49.11898422,-122.73023987
1263,ACAK-96MQ7L,Elements Casino - Main Kitchen,17755 60 Ave,Surrey,Restaurant,49.11171722,-122.72962952
1264,ACAK-96MPZY,Elements Casino - Diamond Buffet,17755 60 Ave,Surrey,Restaurant,49.11171722,-122.72962952
1265,NDAA-9FJTXM,Pacific Community Church,5337 180 St,Surrey,Restaurant,49.0997963,-122.72419739
1266,HCAR-BCSPHK,The Lunch Lady (Surrey),18651 52 Ave,Surrey,Restaurant,49.09727478,-122.70622253
1267,GEDS-7MKUBS,Save On Foods #2263 - Deli,18710 Fraser Hwy,Surrey,Restaurant,49.1242218,-122.70339203
1268,SHEN-A7PRKW,The Clayton Public House,5640 188 St,Surrey,Restaurant,49.10544968,-122.70131683
1269,SHEN-AP5QBH,Denji Japanese Restaurant,6820 188 St,Surrey,Restaurant,49.12660599,-122.70143127
1270,HCAR-AZYNBW,Home Slice Pizza,7170 188 St,Surrey,Restaurant,49.13292313,-122.70134735
1271,SDFO-87ZM4C,Subway #47192,2725 192 St,Surrey,Restaurant,49.05220032,-122.69181824
1272,NDAA-9L2T78,7-Eleven #36022H,19188 72 Ave,Surrey,Restaurant,49.13346481,-122.6915741
1273,HCAR-BRDPWS,Snack Stop Convenience Store,9613 192nd St,Surrey,Restaurant,49.17736128,-122.69071803
1274,HCAR-BJKMZZ,Sugar Free IQ,9613 192 St,Surrey,Restaurant,49.17736053,-122.6907196
1275,GEDS-76LVCK,Ricky's Country Restaurant - Cloverdale,19219 56 Ave,Surrey,Restaurant,49.10427856,-122.69015503
1276,NDAA-9A6NSR,Tastefully Yours By Jeff,19329 Enterprise Way,Surrey,Restaurant,49.10834503,-122.68784332
1277,SDFO-8ACT64,Mercy Ministries - Residential Care Service,19465 16 Ave,Surrey,Restaurant,49.03128433,-122.68419647
1278,NDAA-9C6M25,Pho 99,19533 Fraser Hwy,Surrey,Restaurant,49.11505508,-122.68180846999999
1279,NDAA-9EWU8F,Chili House Restaurant,19571 Fraser Hwy,Surrey,Restaurant,49.11450577,-122.68063354
1280,GEDS-65VQV3,Green Lettuce Restaurant,6350 120 St,Surrey,Restaurant,49.11815643,-122.89006042
1281,SPLH-9KKRYF,GNJ Vegetarian Bistro,7310 120 St,Surrey,Restaurant,49.13578796,-122.89000702
1282,SWOD-APSPEM,Just Cakes Bakeshop,7548 120 St,Surrey,Restaurant,49.13980865,-122.89000702
1283,SHEN-ABJT3T,Ultimate Banquet Hall Ltd.,8072 120 St,Surrey,Restaurant,49.14987946,-122.8900528
1284,A013656    ,Church's Chicken #3630,8434 120 St,Surrey,Restaurant,49.15658951,-122.89008331
1285,HPAR-AE2Q87,7-Eleven Store # 37868,6422 120 St,Surrey,Restaurant,49.11967468,-122.88996124
1286,SWOD-A5GVJT,Spice 72 Indian Restaurant & Lounge,12025 72 Ave,Surrey,Restaurant,49.1342659,-122.88969421
1287,NDAA-93RQHM,Subway #55832,9538 120 St,Surrey,Restaurant,49.17636108,-122.88985443
1288,SPLH-9LFRR7,Subway #61612,7350 120 St,Surrey,Restaurant,49.13641357,-122.88850403000001
1289,SDFO-8C524N,Bread Garden Catering,12117 86 Ave,Surrey,Restaurant,49.15976715,-122.88712311
1290,SHEN-AKHSUG,Boston Pizza #18 - Nordel Way,12060 Nordel Way,Surrey,Restaurant,49.16171646,-122.88780212
1291,A017349    ,A&W #0339,12133 72 Ave,Surrey,Restaurant,49.13426971,-122.88670349
1292,A018397    ,Tim Hortons #2172,12169 72 Ave,Surrey,Restaurant,49.13422012,-122.88586426
1293,A016961    ,LA Matheson Secondary School,9484 122 St,Surrey,Restaurant,49.17529297,-122.88439941
1294,HCAR-BDSNEP,Crescent Coffee House,12219 Beecher St,Surrey,Restaurant,49.05263138,-122.88327026
1295,SPLH-A9UTKA,Crescent Harbour House Restaurant,12233 Beecher St,Surrey,Restaurant,49.05270004,-122.88304901
1296,A017534    ,Crescent Beach Bistro,12251 Beecher St,Surrey,Restaurant,49.05282974,-122.88240051
1297,MARO-B36VDN,Toor Sweets Ltd,12736 80 Ave,Surrey,Restaurant,49.14802933,-122.86972046
1298,SDFO-8GPUJX,Top in Town Pizza,12788 76A Ave,Surrey,Restaurant,49.14218903,-122.86856079
1299,GEDS-7NXTJY,Piquant Gourmet Foods,1627 128 St,Surrey,Restaurant,49.03172302,-122.86773682
1300,ACAK-962S88,Beast & Brine Local Provisions,12823 Crescent Rd,Surrey,Restaurant,49.0532074,-122.86698151
1301,GEDS-7HXQ8S,Esquires Coffee House (Crescent Rd),12823 Crescent Rd,Surrey,Restaurant,49.0532074,-122.86698151
1302,DMIL-92PTGQ,Dhaliwal Bakery,12824 Anvil Way,Surrey,Restaurant,49.14451599,-122.86726379
1303,GEDS-6PNPVF,Garcha Bros Meat Shop,8166 128 St,Surrey,Restaurant,49.15130615,-122.86739349
1304,SHEN-ABUP3P,The Samosa House,12837 88 Ave,Surrey,Restaurant,49.16276169,-122.8671875
1305,NDAA-A9KQFU,Fraserview Meats,12837 88 Ave,Surrey,Restaurant,49.16276169,-122.8671875
1306,GEDS-7D4VHM,Starbucks Coffee #4715,12830 96 Ave,Surrey,Restaurant,49.17696762,-122.86709595
1307,ACAK-9CANVB,Safeway #4939 - Deli,12825 16 Ave,Surrey,Restaurant,49.03149033,-122.86670685
1308,DMIL-8L2MUQ,Manohar Vegetarian Bakery,8120 128 St,Surrey,Restaurant,49.1493988,-122.86605072
1309,MARO-B39S2C,Ocean Park Donair,12867 16 Ave,Surrey,Restaurant,49.03150177,-122.86575317
1310,HCAR-BG7PJE,King Sushi (16th Ave),12883 16 Ave,Surrey,Restaurant,49.03144073,-122.86542511
1311,GEDS-7SQSSS,Aggarwal Sweets,8158 128 St,Surrey,Restaurant,49.15125275,-122.86511993
1312,HCAR-BJHQQ6,Golden Samosa Bakery (130th St),8342 130 St,Surrey,Restaurant,49.15395355,-122.86205292
1313,HCAR-BG7QFL,Circle K #11094,13192 104 Ave,Surrey,Restaurant,49.19151306,-122.85697937
1314,NDAA-9NYPDW,Gabrielle Roy School Kitchen,6887 132 St,Surrey,Restaurant,49.12838745,-122.85691071
1315,GEDS-7UENZQ,New Greenwood Lodge,13227 96 Ave,Surrey,Restaurant,49.17726898,-122.85604095
1316,JDSO-ACFM44,Waves Coffee House,10777 University Dr,Surrey,Restaurant,49.19836044,-122.85109711
1317,NDAA-92UNDS,Old Surrey Restaurant,13483 72 Ave,Surrey,Restaurant,49.13375473,-122.84889221
1318,HCAR-BEYQ33,Take Five Cafe,13450 104 Ave,Surrey,Restaurant,49.19146347,-122.84889984
1319,SPLH-ASQPDH,Uncle Fatih's Pizza (City Parkway),10277 City Pky,Surrey,Restaurant,49.18955231,-122.84788513
1320,HCAR-BLYR5W,Bubba Tea Famous Tea & Waffles,10305 City Pky,Surrey,Restaurant,49.190513609999996,-122.84786987
1321,HCAR-B6J22M,Nickerson Place (Site #2),13550 105 Ave,Surrey,Restaurant,49.19296265,-122.84676361
1322,SHEN-9PXNWT,Knight & Day,9677 King George Blvd,Surrey,Restaurant,49.17836761,-122.84606171
1323,SHEN-ABRQQJ,Mucho Burrito (Fresh Mexican Restaurant),9666 King George Blvd,Surrey,Restaurant,49.17871857,-122.84526062
1324,SHEN-9SSQ4C,Surrey Taxation Centre Cafe #63309,9755 King George Blvd,Surrey,Restaurant,49.17954254,-122.84592438
1325,GEDS-6NLQG9,T&T Supermarket #13 - Bakery,10153 King George Blvd,Surrey,Restaurant,49.18592072,-122.84584808
1326,GEDS-6R5QAM,Maxim's Bakery (Surrey),10153 King George Blvd,Surrey,Restaurant,49.18592072,-122.84584808
1327,SDFO-8GGQ3X,Thai Express (Central City),10153 King George Blvd,Surrey,Restaurant,49.18592072,-122.84584808
1328,ACAK-9CALHP,Safeway #4900 - Snack Bar & Deli,10355 King George Blvd,Surrey,Restaurant,49.1907196,-122.84580231
1329,A020239    ,Pizza Factory (Surrey 2),6838 King George Blvd,Surrey,Restaurant,49.12667084,-122.84512329
1330,NDAA-A9ZQH8,Denny's Restaurant #9300,6850 King George Blvd,Surrey,Restaurant,49.12727737,-122.84516907
1331,HCAR-BJZMJK,The Greek Corner Mediterranean Grill,7218 King George Blvd,Surrey,Restaurant,49.13433075,-122.84521484
1332,SHEN-B32QAM,Indian Haveli Restaurant Ltd,7488 King George Blvd,Surrey,Restaurant,49.13853836,-122.84525299
1333,PNEL-8SUUNC,Bento Nouveau (RCSS #1521),7550 King George Blvd,Surrey,Restaurant,49.1396637,-122.84526062
1334,A019543    ,Save On Foods #2207 - Deli,10312 King George Blvd,Surrey,Restaurant,49.18972778,-122.84488678
1335,HCAR-BGSN53,Sushi King George,10344 King George Blvd,Surrey,Restaurant,49.19041443,-122.84506989
1336,HCAR-B6KNMH,Non Stop Pizza and Indian Cuisine,10470 King George Blvd,Surrey,Restaurant,49.1928978,-122.84505463
1337,NDAA-8R8UMV,Fiji Canada Association,13629 108 Ave,Surrey,Restaurant,49.19896698,-122.84436035
1338,HCAR-BLAMY6,Guacamole Mexican Grill,13646 Grosvenor Rd,Surrey,Restaurant,49.19962692,-122.84402466
1339,SHEN-9ZSST8,Bear Creek Park Concession,13750 88 Ave,Surrey,Restaurant,49.1621666,-122.84241486
1340,SPLH-9SZQ3M,Second Cup - Store #9686,13750 96 Ave,Surrey,Restaurant,49.17682266,-122.84243774
1341,PNEL-8RYR39,Kinsmen Lodge,9650 137A St,Surrey,Restaurant,49.17773056,-122.84179688
1342,GEDS-6TSPYU,Domino's Pizza #10027,10346 Whalley Blvd,Surrey,Restaurant,49.19068527,-122.84170532
1343,SHEN-AZMNFV,Kim's Deli,13740 104 Ave,Surrey,Restaurant,49.19140625,-122.84137726
1344,GEDS-6MQ252,Shakerz Show Lounge,10458 Whalley Blvd,Surrey,Restaurant,49.19268799,-122.84191895
1345,A018188    ,Newton Seniors Centre,13775 70 Ave,Surrey,Restaurant,49.13016129,-122.84092712
1346,NDAA-9C3S2J,Aomori Sushi Japanese Restaurant,13767 72 Ave,Surrey,Restaurant,49.13376236,-122.83986664
1347,GEDS-6ZNPG3,Canadian 2 For 1 Pizza (72nd Ave),13791 72 Ave,Surrey,Restaurant,49.13426971,-122.83905792
1348,KSMH-ASUUGL,La D'Amico Pizza,13916 Grosvenor Rd,Surrey,Restaurant,49.20368576,-122.83634949
1349,SYOG-5M553H,Frank Hurt Secondary School Cafeteria,13940 77 Ave,Surrey,Restaurant,49.14255905,-122.83591461
1350,SYOG-5M55MH,Nico-Wynd Estates & Golf Course Grill,Wynd Dr,Surrey,Restaurant,49.06821974,-122.83470762
1351,HCAR-AW6REQ,Sweets 64,14330 64 Ave,Surrey,Restaurant,49.1185112,-122.8252182
1352,SPLH-AS8TEH,Freshslice Pizza (104th Ave),14357 104 Ave,Surrey,Restaurant,49.1917305,-122.82376862
1353,HCAR-BEFQCT,Roundtable Pizza,14377 64 Ave,Surrey,Restaurant,49.11928177,-122.82376862
1354,A016534    ,Guildford Park Secondary School Cafeteria,10707 146 St,Surrey,Restaurant,49.19694901,-122.81782532
1355,NDAA-94FQEJ,Awahsuk Aboriginal Head Start Association of BC,14589 108 Ave,Surrey,Restaurant,49.19891739,-122.81762695
1356,HCAR-BUMN7X,Royal Choice Food,14779 108th Ave,Surrey,Restaurant,49.19888905,-122.8132608
1357,GEDS-7WNLD2,A1 Coffee & Donuts,14795 108 Ave,Surrey,Restaurant,49.19888306,-122.81272888
1358,HCAR-B7MP49,Freshlo Pizza,3268 King George Blvd,Surrey,Restaurant,49.06108856,-122.8120575
1359,SHEN-9PQSQD,Buy-Low Foods #080072 - Bakery/Deli,14865 108 Ave,Surrey,Restaurant,49.19944382,-122.80950928
1360,SPLH-98MP89,K Pop Karaoke Restaurant,14914 104 Ave,Surrey,Restaurant,49.19133759,-122.80834961
1361,ACAK-8VHRZ5,Healthy Monkey Cafe,2970 King George Blvd,Surrey,Restaurant,49.05621719,-122.80586243
1362,HCAR-B6VNUX,Menz Noodle House,2940 King George Blvd,Surrey,Restaurant,49.055580140000004,-122.80545807
1363,ACAK-9BETE2,Sweet Factory (Surrey),10355 152 St,Surrey,Restaurant,49.19192505,-122.80426788
1364,SHEN-9ZGSYW,Cupcakes (Surrey),10355 152 St,Surrey,Restaurant,49.19192505,-122.80426788
1365,HCAR-B6PRJZ,Jugo Juice (Guildford),10355 152 St,Surrey,Restaurant,49.19192505,-122.80426788
1366,NDAA-9BHSZE,Dairy Queen Treat Centre Guildford,10355 152 St,Surrey,Restaurant,49.19192505,-122.80426788
1367,HCAR-BEUQ9M,Hula Poke at Guildford Town Centre,10355 152 St,Surrey,Restaurant,49.19192505,-122.80426788
1368,SYOG-5M546R,Peace Portal Alliance Church - Commercial Kitchen,15128 27B Ave,Surrey,Restaurant,49.05269623,-122.80344391
1369,A019791    ,Save On Foods #903 - Deli,3033 152 St,Surrey,Restaurant,49.05707169,-122.80208588
1370,HCAR-AUFSB5,Little Caesars Pizza #4889-0001,3041 152 St,Surrey,Restaurant,49.05731964,-122.80208588
1371,NDAA-A4NNJN,Boiling Point,15146 100 Ave,Surrey,Restaurant,49.18396759,-122.80224609
1372,ACAK-9AJQYX,Nando's Chicken (Guildford),15190 101 Ave,Surrey,Restaurant,49.18595886,-122.80167389
1373,A019658    ,Purdy's Chocolates (South Surrey),1711 152 St,Surrey,Restaurant,49.03311539,-122.80166626
1374,A017301    ,A&W #0180,1711 152 St,Surrey,Restaurant,49.03311539,-122.80166626
1375,HCAR-B9MRLV,COBS Bread #9066,5717 152 St,Surrey,Restaurant,49.10654449,-122.80143738
1376,HCAR-B8Y2BQ,Freshii - Panorama,5717 152 St,Surrey,Restaurant,49.10654449,-122.80143738
1377,HCAR-BGKPMK,Fraserview Meats,8926 152 St,Surrey,Restaurant,49.16508484,-122.80078125
1378,HCAR-B97QHH,Soboya Sushi Japanese Restaurant,8952 152 St,Surrey,Restaurant,49.16530609,-122.80078125
1379,HCAR-ASNTAD,Swagat Indian Sweets and Restaurant,9547 152 St,Surrey,Restaurant,49.17590332,-122.80128479
1380,A019953    ,D-Plus Pizza (152nd Ave),9547 152 St,Surrey,Restaurant,49.17590332,-122.80128479
1381,SHEN-A2CTME,7-Eleven (Canada Store #37206H),9989 152 St,Surrey,Restaurant,49.18392944,-122.80124664
1382,SHEN-AP8QHC,Bubble Waffle Cafe (Surrey),10090 152 St,Surrey,Restaurant,49.18575287,-122.80058289
1383,GEDS-6HLTS7,Tim Hortons #2816,10376 152 St,Surrey,Restaurant,49.19106674,-122.80052185
1384,HPAR-AFGPRP,7-Eleven (Canada Store #37866H),10376 152 St,Surrey,Restaurant,49.19106674,-122.80052185
1385,GEDS-797Q8J,Happy Jacks Cafe,10470 152 St,Surrey,Restaurant,49.19270706,-122.80054474
1386,SDFO-8EUQ7N,Sawbuck's Pub,1626 152 St,Surrey,Restaurant,49.03165054,-122.80089569
1387,HCAR-BKDP6G,Provoke Cafe,1688 152 St,Surrey,Restaurant,49.03243637,-122.80089569
1388,A020412    ,Sandcastle Bowl Bar & Grill,1938 152 St,Surrey,Restaurant,49.03725052,-122.80091858
1389,A016601    ,Boston Pizza #62,1956 152 St,Surrey,Restaurant,49.03760147,-122.80095673
1390,HCAR-BP7U6H,Kesari Sweets and Eats,1990 152nd St,Surrey,Restaurant,49.03807582,-122.80051906
1391,GEDS-6LJUGF,Peninsula Resort Retirement Food Service,2088 152 St,Surrey,Restaurant,49.03966904,-122.80095673
1392,HCAR-BCLQZF,Punje Spice Restaurant,2828 152 St,Surrey,Restaurant,49.0532608,-122.80090332
1393,HCAR-BMRMBK,Chopstick Corner,2982 152nd St,Surrey,Restaurant,49.05569682,-122.80090882
1394,GEDS-7GZU35,YL's Curry Bowl,15277 100 Ave,Surrey,Restaurant,49.18444061,-122.79878998
1395,SHEN-9YTPMB,Chan's Kitchen,15277 100 Ave,Surrey,Restaurant,49.18444061,-122.79878998
1396,HCAR-BAERRU,T&T Supermarket (Surrey) Deli/Kitchen Dept.,15277 100 Ave,Surrey,Restaurant,49.18444061,-122.79878998
1397,SHEN-BBWSVV,Barcelos - Impact Plaza,15280 101 Ave,Surrey,Restaurant,49.18597412,-122.79860687
1398,SPLH-9P2P7K,Lee Gar Nei K-Food,15280 101 Ave,Surrey,Restaurant,49.18597412,-122.79860687
1399,SPLH-A9UT9Z,Sushi California (Surrey),10320 152A St,Surrey,Restaurant,49.18995285,-122.79924011
1400,SHEN-APFPTJ,Everbean,15331 16 Ave,Surrey,Restaurant,49.03132629,-122.79862213
1401,SHEN-9ZWTDU,Pasta Vino Trattoria & Bar,15355 24 Ave,Surrey,Restaurant,49.0458374,-122.79750824
1402,HCAR-B6HSJ7,Caveman Pizza,15355 24 Ave,Surrey,Restaurant,49.0458374,-122.79750824
1403,NDAA-AC7QX3,Rothewood Academy South Surrey - Food Service,15355 24 Ave,Surrey,Restaurant,49.0458374,-122.79750824
1404,NDAA-9AZT2Q,Pacifica Retirement Residence,2525 King George Blvd,Surrey,Restaurant,49.04777908,-122.79766083
1405,HCAR-BH8PSG,"Pure Indian Sweets, Snacks & Catering",15336 67th Ave,Surrey,Restaurant,49.1242363,-122.79764549
1406,SHEN-9QASZ2,The Taphouse,15330 102A Ave,Surrey,Restaurant,49.18861389,-122.79749298
1407,SDFO-8MYUSB,FUEL Catering,2570 King George Blvd,Surrey,Restaurant,49.04892349,-122.79711151
1408,HCAR-BCUPMH,Hangry Health Bar,15380 102A Ave,Surrey,Restaurant,49.18859482,-122.79624939
1409,A019251    ,Panago #32,15420 Fraser Hwy,Surrey,Restaurant,49.16358948,-122.79556274
1410,GEDS-65VSG5,Guildford Family Place,10310 154 St,Surrey,Restaurant,49.18936539,-122.79504395
1411,GEDS-66CSJH,Sunnyside Park Concession,15455 26 Ave,Surrey,Restaurant,49.04941177,-122.79443359
1412,A018381    ,Tim Hortons #1377,2360 King George Blvd,Surrey,Restaurant,49.04510117,-122.79246521
1413,LCAL-6TFNHK,Subway #34848,2255 King George Blvd,Surrey,Restaurant,49.0429306,-122.79076385
1414,SODN-66TNK5,Morgan Place Food Service,3288 156A St,Surrey,Restaurant,49.06136703,-122.78994751
1415,NDAA-A9PNQA,Kids & Company Morgan Crossing South Surrey,15715 Croydon Dr,Surrey,Restaurant,49.0482254,-122.787117
1416,SPLH-9N6RN7,Chopped Leaf,15775 Croydon Dr,Surrey,Restaurant,49.04768753,-122.78492737
1417,GEDS-6G2STZ,Elim Village - The Emerald Food Service,9080 158 St,Surrey,Restaurant,49.16792297,-122.78434753
1418,SWOD-9YXP6Z,Davids Tea (Morgan Crossing),15755 Croydon Dr,Surrey,Restaurant,49.04581451,-122.7829361
1419,A020245    ,Morgan Creek Golf Course - Kitchen,3500 Morgan Creek Way,Surrey,Restaurant,49.06494904,-122.78195953
1420,SHEN-AAKQEF,Boston Pizza #59,15980 Fraser Hwy,Surrey,Restaurant,49.15829468,-122.78191376
1421,SDFO-8GDM7A,Jerusalem Grill,15933 Fraser Hwy,Surrey,Restaurant,49.15909576,-122.78079224
1422,SDFO-8ESVZE,D-Plus Pizza (Fraser Hwy),15933 Fraser Hwy,Surrey,Restaurant,49.15909576,-122.78079224
1423,SWOD-AQHT2B,Thali Sweets and Restaurant,15932 96 Ave,Surrey,Restaurant,49.17674637,-122.78082275
1424,GEDS-65BNJH,Celebration & Rainbow Manor Food Service,10130 159A St,Surrey,Restaurant,49.18640518,-122.77991486
1425,SWOD-A53NQT,Red Shiso Japanese Restaurant,10833 160 St,Surrey,Restaurant,49.19945908,-122.77890778
1426,HCAR-AZ3U3W,Browns Socialhouse (Grandview),16030 24 Ave,Surrey,Restaurant,49.04521942,-122.77797699
1427,SODN-672P3Z,Nesters Market Deli & Bakery,16033 108 Ave,Surrey,Restaurant,49.19896698,-122.77775574
1428,SWOD-AHPVGB,Spinhouse Cycling Studio,16041 24 Ave,Surrey,Restaurant,49.0463028,-122.77770233
1429,SHEN-AZUN3H,Blaze Pizza,2433 161A St,Surrey,Restaurant,49.04668045,-122.77529907
1430,SWOD-9YMUZR,Jugo Juice (Grandview Corners),2443 161A St,Surrey,Restaurant,49.04699326,-122.77529907
1431,GEDS-6GTRF5,Tim Hortons #2783,8215 166 St,Surrey,Restaurant,49.15143204,-122.76197052
1432,A018365    ,Northview Golf & Country Club (Ridge Kiosk),6857 168 St,Surrey,Restaurant,49.12596512,-122.75822449
1433,A018235    ,Northview Golf & Country Club (Palmer Dining Room),6857 168 St,Surrey,Restaurant,49.12596512,-122.75822449
1434,NDAA-ALUPSA,Short & Sweet Patisserie and Bakery,16793 60 Ave,Surrey,Restaurant,49.11167526,-122.75748444
1435,SWOD-9Z3MVN,Pizza Avenue,16780 64 Ave,Surrey,Restaurant,49.11868668,-122.75753784
1436,SDFO-8LUUGU,Cloverdale Country Farms - Deli,5688 168 St,Surrey,Restaurant,49.10517502,-122.75619507
1437,SWOD-9YWNBN,Surrey Golf Club Kitchen,7700 168 St,Surrey,Restaurant,49.14223862,-122.75631714
1438,SWOD-A7W29Q,Branches Coffee House,1420 172 St,Surrey,Restaurant,49.0273819,-122.74214935
1439,NDAA-9FVSNK,Pacific Bistro and Convenience Store,382 175A St,Surrey,Restaurant,49.0090332,-122.7359314
1440,A020313    ,Sunny's Clydesdale Inn Pub,17630 56 Ave,Surrey,Restaurant,49.10399628,-122.73410034
1441,PNEL-8QKN49,Canuel Caterers - Agriplex,6050A 176 St,Surrey,Restaurant,49.11225891,-122.73472595
1442,HCAR-B6KMSN,Halifax Essentials Donair - Shannon Hall,6050A 176 St,Surrey,Restaurant,49.11225891,-122.73472595
1443,SDFO-8GRKRZ,Cloverdale Recreation Centre,6188 176 St,Surrey,Restaurant,49.11519241,-122.73445892
1444,GEDS-84XT8W,Jumbo Pizza (Surrey),5780 176A St,Surrey,Restaurant,49.10748291,-122.73348999
1445,SHEN-B23V6E,Townline Pizza,17767 64 Ave,Surrey,Restaurant,49.11898422,-122.73023987
1446,SDFO-88VT2K,Elisabeth's Chalet Restaurant,17785 56 Ave,Surrey,Restaurant,49.10429764,-122.72986603
1447,ACAK-96MPWQ,Elements Casino - Poker Room,17755 60 Ave,Surrey,Restaurant,49.11171722,-122.72962952
1448,GEDS-6MVPBZ,Tim Hortons #2889,17888 56 Ave,Surrey,Restaurant,49.10394669,-122.72674561
1449,MMAR-873Q9Y,Memphis Blues BBQ,18690 Fraser Hwy,Surrey,Restaurant,49.12446976,-122.70401764
1450,NDAA-8YCRM6,The Residence At Clayton Heights,18788 71 Ave,Surrey,Restaurant,49.13176727,-122.70267487
1451,HCAR-BD4LQ3,Corner Cafe,19415 56 Ave,Surrey,Restaurant,49.10462952,-122.68521881
1452,A018992    ,Hazelmere Lodge Food Service,19475 16 Ave,Surrey,Restaurant,49.03128052,-122.68346405
1453,PNEL-8R5V4M,Baik Mi Korean Restaurant,19539 Fraser Hwy,Surrey,Restaurant,49.11496735,-122.68161774
